{"type":"FeatureCollection","features":[{"type":"Feature","geometry":{"type":"Point","coordinates":[27.459063,42.50309]},"properties":{"name":"Автогара Запад","band":0,"modes":"bus","arr":["3","6","7","7А","7А1","7А2","8","81","82"],"off":[0,-0.8]}},{"type":"Feature","geometry":{"type":"Point","coordinates":[27.459063,42.50309]},"properties":{"line":"3","mode":"bus","color":"#0059a9","colorDark":"#00294f","band":0,"off":[-6.8,1.1]}},{"type":"Feature","geometry":{"type":"Point","coordinates":[27.459063,42.50309]},"properties":{"line":"6","mode":"bus","color":"#0059a9","colorDark":"#00294f","band":0,"off":[-3.4,1.1]}},{"type":"Feature","geometry":{"type":"Point","coordinates":[27.459063,42.50309]},"properties":{"line":"7","mode":"bus","color":"#0059a9","colorDark":"#00294f","band":0,"off":[0,1.1]}},{"type":"Feature","geometry":{"type":"Point","coordinates":[27.459063,42.50309]},"properties":{"line":"7А","mode":"bus","color":"#0059a9","colorDark":"#00294f","band":0,"off":[3.4,1.1]}},{"type":"Feature","geometry":{"type":"Point","coordinates":[27.459063,42.50309]},"properties":{"line":"7А1","mode":"bus","color":"#0059a9","colorDark":"#00294f","band":0,"off":[6.8,1.1]}},{"type":"Feature","geometry":{"type":"Point","coordinates":[27.459063,42.50309]},"properties":{"line":"7А2","mode":"bus","color":"#0059a9","colorDark":"#00294f","band":0,"off":[-5.1,3.1]}},{"type":"Feature","geometry":{"type":"Point","coordinates":[27.459063,42.50309]},"properties":{"line":"8","mode":"bus","color":"#0059a9","colorDark":"#00294f","band":0,"off":[-1.7,3.1]}},{"type":"Feature","geometry":{"type":"Point","coordinates":[27.459063,42.50309]},"properties":{"line":"81","mode":"bus","color":"#0059a9","colorDark":"#00294f","band":0,"off":[1.7,3.1]}},{"type":"Feature","geometry":{"type":"Point","coordinates":[27.459063,42.50309]},"properties":{"line":"82","mode":"bus","color":"#0059a9","colorDark":"#00294f","band":0,"off":[5.1,3.1]}},{"type":"Feature","geometry":{"type":"Point","coordinates":[27.384178,42.629374]},"properties":{"name":"Банево, Околчица","band":0,"modes":"bus","arr":["3"],"off":[0,-0.8]}},{"type":"Feature","geometry":{"type":"Point","coordinates":[27.384178,42.629374]},"properties":{"line":"3","mode":"bus","color":"#0059a9","colorDark":"#00294f","band":0,"off":[0,1.1]}},{"type":"Feature","geometry":{"type":"Point","coordinates":[27.488539,42.626655]},"properties":{"name":"Рудник, Яна Лъскова","band":0,"modes":"bus","arr":["6"],"off":[0,-0.8]}},{"type":"Feature","geometry":{"type":"Point","coordinates":[27.488539,42.626655]},"properties":{"line":"6","mode":"bus","color":"#0059a9","colorDark":"#00294f","band":0,"off":[0,1.1]}},{"type":"Feature","geometry":{"type":"Point","coordinates":[27.438466,42.519654]},"properties":{"name":"Терминал Славейков","band":0,"modes":"bus","arr":["9","11","12","92","Б2","Б9","Б12","Бо","Н"],"off":[0,-0.8]}},{"type":"Feature","geometry":{"type":"Point","coordinates":[27.438466,42.519654]},"properties":{"line":"9","mode":"bus","color":"#0059a9","colorDark":"#00294f","band":0,"off":[-6.8,1.1]}},{"type":"Feature","geometry":{"type":"Point","coordinates":[27.438466,42.519654]},"properties":{"line":"11","mode":"bus","color":"#0059a9","colorDark":"#00294f","band":0,"off":[-3.4,1.1]}},{"type":"Feature","geometry":{"type":"Point","coordinates":[27.438466,42.519654]},"properties":{"line":"12","mode":"bus","color":"#0059a9","colorDark":"#00294f","band":0,"off":[0,1.1]}},{"type":"Feature","geometry":{"type":"Point","coordinates":[27.438466,42.519654]},"properties":{"line":"92","mode":"bus","color":"#0059a9","colorDark":"#00294f","band":0,"off":[3.4,1.1]}},{"type":"Feature","geometry":{"type":"Point","coordinates":[27.438466,42.519654]},"properties":{"line":"Б2","mode":"bus","color":"#0059a9","colorDark":"#00294f","band":0,"off":[6.8,1.1]}},{"type":"Feature","geometry":{"type":"Point","coordinates":[27.438466,42.519654]},"properties":{"line":"Б9","mode":"bus","color":"#0059a9","colorDark":"#00294f","band":0,"off":[-5.1,3.1]}},{"type":"Feature","geometry":{"type":"Point","coordinates":[27.438466,42.519654]},"properties":{"line":"Б12","mode":"bus","color":"#0059a9","colorDark":"#00294f","band":0,"off":[-1.7,3.1]}},{"type":"Feature","geometry":{"type":"Point","coordinates":[27.438466,42.519654]},"properties":{"line":"Бо","mode":"bus","color":"#0059a9","colorDark":"#00294f","band":0,"off":[1.7,3.1]}},{"type":"Feature","geometry":{"type":"Point","coordinates":[27.438466,42.519654]},"properties":{"line":"Н","mode":"bus","color":"#0059a9","colorDark":"#00294f","band":0,"off":[5.1,3.1]}},{"type":"Feature","geometry":{"type":"Point","coordinates":[27.360524,42.516792]},"properties":{"name":"Д. Езерово, Ж.П. Гара","band":0,"modes":"bus","arr":["7"],"off":[0,-0.8]}},{"type":"Feature","geometry":{"type":"Point","coordinates":[27.360524,42.516792]},"properties":{"line":"7","mode":"bus","color":"#0059a9","colorDark":"#00294f","band":0,"off":[0,1.1]}},{"type":"Feature","geometry":{"type":"Point","coordinates":[27.408806,42.537996]},"properties":{"name":"Лозово, Роза","band":0,"modes":"bus","arr":["7А","7А1","7А2"],"off":[0,-0.8]}},{"type":"Feature","geometry":{"type":"Point","coordinates":[27.408806,42.537996]},"properties":{"line":"7А","mode":"bus","color":"#0059a9","colorDark":"#00294f","band":0,"off":[-3.4,1.1]}},{"type":"Feature","geometry":{"type":"Point","coordinates":[27.408806,42.537996]},"properties":{"line":"7А1","mode":"bus","color":"#0059a9","colorDark":"#00294f","band":0,"off":[0,1.1]}},{"type":"Feature","geometry":{"type":"Point","coordinates":[27.408806,42.537996]},"properties":{"line":"7А2","mode":"bus","color":"#0059a9","colorDark":"#00294f","band":0,"off":[3.4,1.1]}},{"type":"Feature","geometry":{"type":"Point","coordinates":[27.379485,42.485446]},"properties":{"name":"Г. Езерово, Площада","band":0,"modes":"bus","arr":["8","81","82"],"off":[0,-0.8]}},{"type":"Feature","geometry":{"type":"Point","coordinates":[27.379485,42.485446]},"properties":{"line":"8","mode":"bus","color":"#0059a9","colorDark":"#00294f","band":0,"off":[-3.4,1.1]}},{"type":"Feature","geometry":{"type":"Point","coordinates":[27.379485,42.485446]},"properties":{"line":"81","mode":"bus","color":"#0059a9","colorDark":"#00294f","band":0,"off":[0,1.1]}},{"type":"Feature","geometry":{"type":"Point","coordinates":[27.379485,42.485446]},"properties":{"line":"82","mode":"bus","color":"#0059a9","colorDark":"#00294f","band":0,"off":[3.4,1.1]}},{"type":"Feature","geometry":{"type":"Point","coordinates":[27.418703,42.451972]},"properties":{"name":"Терминал Меден рудник","band":0,"modes":"bus","arr":["9","9А","9Б","17А","92","Б1","Б2","Б11","Б12","Н","Т1"],"off":[0,-0.8]}},{"type":"Feature","geometry":{"type":"Point","coordinates":[27.418703,42.451972]},"properties":{"line":"9","mode":"bus","color":"#0059a9","colorDark":"#00294f","band":0,"off":[-6.8,1.1]}},{"type":"Feature","geometry":{"type":"Point","coordinates":[27.418703,42.451972]},"properties":{"line":"9А","mode":"bus","color":"#0059a9","colorDark":"#00294f","band":0,"off":[-3.4,1.1]}},{"type":"Feature","geometry":{"type":"Point","coordinates":[27.418703,42.451972]},"properties":{"line":"9Б","mode":"bus","color":"#0059a9","colorDark":"#00294f","band":0,"off":[0,1.1]}},{"type":"Feature","geometry":{"type":"Point","coordinates":[27.418703,42.451972]},"properties":{"line":"17А","mode":"bus","color":"#0059a9","colorDark":"#00294f","band":0,"off":[3.4,1.1]}},{"type":"Feature","geometry":{"type":"Point","coordinates":[27.418703,42.451972]},"properties":{"line":"92","mode":"bus","color":"#0059a9","colorDark":"#00294f","band":0,"off":[6.8,1.1]}},{"type":"Feature","geometry":{"type":"Point","coordinates":[27.418703,42.451972]},"properties":{"line":"Б1","mode":"bus","color":"#0059a9","colorDark":"#00294f","band":0,"off":[-6.8,3.1]}},{"type":"Feature","geometry":{"type":"Point","coordinates":[27.418703,42.451972]},"properties":{"line":"Б2","mode":"bus","color":"#0059a9","colorDark":"#00294f","band":0,"off":[-3.4,3.1]}},{"type":"Feature","geometry":{"type":"Point","coordinates":[27.418703,42.451972]},"properties":{"line":"Б11","mode":"bus","color":"#0059a9","colorDark":"#00294f","band":0,"off":[0,3.1]}},{"type":"Feature","geometry":{"type":"Point","coordinates":[27.418703,42.451972]},"properties":{"line":"Б12","mode":"bus","color":"#0059a9","colorDark":"#00294f","band":0,"off":[3.4,3.1]}},{"type":"Feature","geometry":{"type":"Point","coordinates":[27.418703,42.451972]},"properties":{"line":"Н","mode":"bus","color":"#0059a9","colorDark":"#00294f","band":0,"off":[6.8,3.1]}},{"type":"Feature","geometry":{"type":"Point","coordinates":[27.418703,42.451972]},"properties":{"line":"Т1","mode":"bus","color":"#149a3f","colorDark":"#0a5121","band":0,"off":[0,5.1]}},{"type":"Feature","geometry":{"type":"Point","coordinates":[27.41372,42.464911]},"properties":{"name":"Захари Стоянов","band":0,"modes":"bus","arr":["Б9","Бо"],"off":[0,-0.8]}},{"type":"Feature","geometry":{"type":"Point","coordinates":[27.41372,42.464911]},"properties":{"line":"Б9","mode":"bus","color":"#0059a9","colorDark":"#00294f","band":0,"off":[-1.7,1.1]}},{"type":"Feature","geometry":{"type":"Point","coordinates":[27.41372,42.464911]},"properties":{"line":"Бо","mode":"bus","color":"#0059a9","colorDark":"#00294f","band":0,"off":[1.7,1.1]}},{"type":"Feature","geometry":{"type":"Point","coordinates":[27.392344,42.450973]},"properties":{"name":"Върли бряг, Площада","band":0,"modes":"bus","arr":["9А"],"off":[0,-0.8]}},{"type":"Feature","geometry":{"type":"Point","coordinates":[27.392344,42.450973]},"properties":{"line":"9А","mode":"bus","color":"#0059a9","colorDark":"#00294f","band":0,"off":[0,1.1]}},{"type":"Feature","geometry":{"type":"Point","coordinates":[27.393349,42.461178]},"properties":{"name":"Шилото","band":0,"modes":"bus","arr":["9Б"],"off":[0,-0.8]}},{"type":"Feature","geometry":{"type":"Point","coordinates":[27.393349,42.461178]},"properties":{"line":"9Б","mode":"bus","color":"#0059a9","colorDark":"#00294f","band":0,"off":[0,1.1]}},{"type":"Feature","geometry":{"type":"Point","coordinates":[27.474251,42.490491]},"properties":{"name":"Терминал Юг","band":0,"modes":"bus","arr":["15","15А","17"],"off":[0,-0.8]}},{"type":"Feature","geometry":{"type":"Point","coordinates":[27.474251,42.490491]},"properties":{"name":"Автогара Юг","band":0,"modes":"bus","arr":["15","15А","17"],"off":[0,-1.9]}},{"type":"Feature","geometry":{"type":"Point","coordinates":[27.474251,42.490491]},"properties":{"line":"15","mode":"bus","color":"#0059a9","colorDark":"#00294f","band":0,"off":[-3.4,1.1]}},{"type":"Feature","geometry":{"type":"Point","coordinates":[27.474251,42.490491]},"properties":{"line":"15А","mode":"bus","color":"#0059a9","colorDark":"#00294f","band":0,"off":[0,1.1]}},{"type":"Feature","geometry":{"type":"Point","coordinates":[27.474251,42.490491]},"properties":{"line":"17","mode":"bus","color":"#0059a9","colorDark":"#00294f","band":0,"off":[3.4,1.1]}},{"type":"Feature","geometry":{"type":"Point","coordinates":[27.526204,42.563005]},"properties":{"name":"Сарафово, Ради Николов","band":0,"modes":"bus","arr":["15","15А"],"off":[0,-0.8]}},{"type":"Feature","geometry":{"type":"Point","coordinates":[27.526204,42.563005]},"properties":{"line":"15","mode":"bus","color":"#0059a9","colorDark":"#00294f","band":0,"off":[-1.7,1.1]}},{"type":"Feature","geometry":{"type":"Point","coordinates":[27.526204,42.563005]},"properties":{"line":"15А","mode":"bus","color":"#0059a9","colorDark":"#00294f","band":0,"off":[1.7,1.1]}},{"type":"Feature","geometry":{"type":"Point","coordinates":[27.487526,42.44538]},"properties":{"name":"Крайморие","band":0,"modes":"bus","arr":["17","17А"],"off":[0,-0.8]}},{"type":"Feature","geometry":{"type":"Point","coordinates":[27.487526,42.44538]},"properties":{"line":"17","mode":"bus","color":"#0059a9","colorDark":"#00294f","band":0,"off":[-1.7,1.1]}},{"type":"Feature","geometry":{"type":"Point","coordinates":[27.487526,42.44538]},"properties":{"line":"17А","mode":"bus","color":"#0059a9","colorDark":"#00294f","band":0,"off":[1.7,1.1]}},{"type":"Feature","geometry":{"type":"Point","coordinates":[27.45945,42.529279]},"properties":{"name":"Терминал Изгрев","band":0,"modes":"bus","arr":["Б1","Б11"],"off":[0,-0.8]}},{"type":"Feature","geometry":{"type":"Point","coordinates":[27.45945,42.529279]},"properties":{"line":"Б1","mode":"bus","color":"#0059a9","colorDark":"#00294f","band":0,"off":[-1.7,1.1]}},{"type":"Feature","geometry":{"type":"Point","coordinates":[27.45945,42.529279]},"properties":{"line":"Б11","mode":"bus","color":"#0059a9","colorDark":"#00294f","band":0,"off":[1.7,1.1]}},{"type":"Feature","geometry":{"type":"Point","coordinates":[27.459063,42.50309]},"properties":{"name":"Автогара Запад","band":1,"modes":"bus","arr":["3","6","7","7А","7А1","7А2","8","81","82"],"off":[0,-0.8]}},{"type":"Feature","geometry":{"type":"Point","coordinates":[27.459063,42.50309]},"properties":{"line":"3","mode":"bus","color":"#0059a9","colorDark":"#00294f","band":1,"off":[-6.8,1.1]}},{"type":"Feature","geometry":{"type":"Point","coordinates":[27.459063,42.50309]},"properties":{"line":"6","mode":"bus","color":"#0059a9","colorDark":"#00294f","band":1,"off":[-3.4,1.1]}},{"type":"Feature","geometry":{"type":"Point","coordinates":[27.459063,42.50309]},"properties":{"line":"7","mode":"bus","color":"#0059a9","colorDark":"#00294f","band":1,"off":[0,1.1]}},{"type":"Feature","geometry":{"type":"Point","coordinates":[27.459063,42.50309]},"properties":{"line":"7А","mode":"bus","color":"#0059a9","colorDark":"#00294f","band":1,"off":[3.4,1.1]}},{"type":"Feature","geometry":{"type":"Point","coordinates":[27.459063,42.50309]},"properties":{"line":"7А1","mode":"bus","color":"#0059a9","colorDark":"#00294f","band":1,"off":[6.8,1.1]}},{"type":"Feature","geometry":{"type":"Point","coordinates":[27.459063,42.50309]},"properties":{"line":"7А2","mode":"bus","color":"#0059a9","colorDark":"#00294f","band":1,"off":[-5.1,3.1]}},{"type":"Feature","geometry":{"type":"Point","coordinates":[27.459063,42.50309]},"properties":{"line":"8","mode":"bus","color":"#0059a9","colorDark":"#00294f","band":1,"off":[-1.7,3.1]}},{"type":"Feature","geometry":{"type":"Point","coordinates":[27.459063,42.50309]},"properties":{"line":"81","mode":"bus","color":"#0059a9","colorDark":"#00294f","band":1,"off":[1.7,3.1]}},{"type":"Feature","geometry":{"type":"Point","coordinates":[27.459063,42.50309]},"properties":{"line":"82","mode":"bus","color":"#0059a9","colorDark":"#00294f","band":1,"off":[5.1,3.1]}},{"type":"Feature","geometry":{"type":"Point","coordinates":[27.384178,42.629374]},"properties":{"name":"Банево, Околчица","band":1,"modes":"bus","arr":["3"],"off":[0,-0.8]}},{"type":"Feature","geometry":{"type":"Point","coordinates":[27.384178,42.629374]},"properties":{"line":"3","mode":"bus","color":"#0059a9","colorDark":"#00294f","band":1,"off":[0,1.1]}},{"type":"Feature","geometry":{"type":"Point","coordinates":[27.488539,42.626655]},"properties":{"name":"Рудник, Яна Лъскова","band":1,"modes":"bus","arr":["6"],"off":[0,-0.8]}},{"type":"Feature","geometry":{"type":"Point","coordinates":[27.488539,42.626655]},"properties":{"line":"6","mode":"bus","color":"#0059a9","colorDark":"#00294f","band":1,"off":[0,1.1]}},{"type":"Feature","geometry":{"type":"Point","coordinates":[27.438466,42.519654]},"properties":{"name":"Терминал Славейков","band":1,"modes":"bus","arr":["9","11","12","92","Б2","Б9","Б12","Бо","Н"],"off":[0,-0.8]}},{"type":"Feature","geometry":{"type":"Point","coordinates":[27.438466,42.519654]},"properties":{"line":"9","mode":"bus","color":"#0059a9","colorDark":"#00294f","band":1,"off":[-6.8,1.1]}},{"type":"Feature","geometry":{"type":"Point","coordinates":[27.438466,42.519654]},"properties":{"line":"11","mode":"bus","color":"#0059a9","colorDark":"#00294f","band":1,"off":[-3.4,1.1]}},{"type":"Feature","geometry":{"type":"Point","coordinates":[27.438466,42.519654]},"properties":{"line":"12","mode":"bus","color":"#0059a9","colorDark":"#00294f","band":1,"off":[0,1.1]}},{"type":"Feature","geometry":{"type":"Point","coordinates":[27.438466,42.519654]},"properties":{"line":"92","mode":"bus","color":"#0059a9","colorDark":"#00294f","band":1,"off":[3.4,1.1]}},{"type":"Feature","geometry":{"type":"Point","coordinates":[27.438466,42.519654]},"properties":{"line":"Б2","mode":"bus","color":"#0059a9","colorDark":"#00294f","band":1,"off":[6.8,1.1]}},{"type":"Feature","geometry":{"type":"Point","coordinates":[27.438466,42.519654]},"properties":{"line":"Б9","mode":"bus","color":"#0059a9","colorDark":"#00294f","band":1,"off":[-5.1,3.1]}},{"type":"Feature","geometry":{"type":"Point","coordinates":[27.438466,42.519654]},"properties":{"line":"Б12","mode":"bus","color":"#0059a9","colorDark":"#00294f","band":1,"off":[-1.7,3.1]}},{"type":"Feature","geometry":{"type":"Point","coordinates":[27.438466,42.519654]},"properties":{"line":"Бо","mode":"bus","color":"#0059a9","colorDark":"#00294f","band":1,"off":[1.7,3.1]}},{"type":"Feature","geometry":{"type":"Point","coordinates":[27.438466,42.519654]},"properties":{"line":"Н","mode":"bus","color":"#0059a9","colorDark":"#00294f","band":1,"off":[5.1,3.1]}},{"type":"Feature","geometry":{"type":"Point","coordinates":[27.360524,42.516792]},"properties":{"name":"Д. Езерово, Ж.П. Гара","band":1,"modes":"bus","arr":["7"],"off":[0,-0.8]}},{"type":"Feature","geometry":{"type":"Point","coordinates":[27.360524,42.516792]},"properties":{"line":"7","mode":"bus","color":"#0059a9","colorDark":"#00294f","band":1,"off":[0,1.1]}},{"type":"Feature","geometry":{"type":"Point","coordinates":[27.408806,42.537996]},"properties":{"name":"Лозово, Роза","band":1,"modes":"bus","arr":["7А","7А1","7А2"],"off":[0,-0.8]}},{"type":"Feature","geometry":{"type":"Point","coordinates":[27.408806,42.537996]},"properties":{"line":"7А","mode":"bus","color":"#0059a9","colorDark":"#00294f","band":1,"off":[-3.4,1.1]}},{"type":"Feature","geometry":{"type":"Point","coordinates":[27.408806,42.537996]},"properties":{"line":"7А1","mode":"bus","color":"#0059a9","colorDark":"#00294f","band":1,"off":[0,1.1]}},{"type":"Feature","geometry":{"type":"Point","coordinates":[27.408806,42.537996]},"properties":{"line":"7А2","mode":"bus","color":"#0059a9","colorDark":"#00294f","band":1,"off":[3.4,1.1]}},{"type":"Feature","geometry":{"type":"Point","coordinates":[27.379485,42.485446]},"properties":{"name":"Г. Езерово, Площада","band":1,"modes":"bus","arr":["8","81","82"],"off":[0,-0.8]}},{"type":"Feature","geometry":{"type":"Point","coordinates":[27.379485,42.485446]},"properties":{"line":"8","mode":"bus","color":"#0059a9","colorDark":"#00294f","band":1,"off":[-3.4,1.1]}},{"type":"Feature","geometry":{"type":"Point","coordinates":[27.379485,42.485446]},"properties":{"line":"81","mode":"bus","color":"#0059a9","colorDark":"#00294f","band":1,"off":[0,1.1]}},{"type":"Feature","geometry":{"type":"Point","coordinates":[27.379485,42.485446]},"properties":{"line":"82","mode":"bus","color":"#0059a9","colorDark":"#00294f","band":1,"off":[3.4,1.1]}},{"type":"Feature","geometry":{"type":"Point","coordinates":[27.418703,42.451972]},"properties":{"name":"Терминал Меден рудник","band":1,"modes":"bus","arr":["9","9А","9Б","17А","92","Б1","Б2","Б11","Б12","Н","Т1"],"off":[0,-0.8]}},{"type":"Feature","geometry":{"type":"Point","coordinates":[27.418703,42.451972]},"properties":{"line":"9","mode":"bus","color":"#0059a9","colorDark":"#00294f","band":1,"off":[-6.8,1.1]}},{"type":"Feature","geometry":{"type":"Point","coordinates":[27.418703,42.451972]},"properties":{"line":"9А","mode":"bus","color":"#0059a9","colorDark":"#00294f","band":1,"off":[-3.4,1.1]}},{"type":"Feature","geometry":{"type":"Point","coordinates":[27.418703,42.451972]},"properties":{"line":"9Б","mode":"bus","color":"#0059a9","colorDark":"#00294f","band":1,"off":[0,1.1]}},{"type":"Feature","geometry":{"type":"Point","coordinates":[27.418703,42.451972]},"properties":{"line":"17А","mode":"bus","color":"#0059a9","colorDark":"#00294f","band":1,"off":[3.4,1.1]}},{"type":"Feature","geometry":{"type":"Point","coordinates":[27.418703,42.451972]},"properties":{"line":"92","mode":"bus","color":"#0059a9","colorDark":"#00294f","band":1,"off":[6.8,1.1]}},{"type":"Feature","geometry":{"type":"Point","coordinates":[27.418703,42.451972]},"properties":{"line":"Б1","mode":"bus","color":"#0059a9","colorDark":"#00294f","band":1,"off":[-6.8,3.1]}},{"type":"Feature","geometry":{"type":"Point","coordinates":[27.418703,42.451972]},"properties":{"line":"Б2","mode":"bus","color":"#0059a9","colorDark":"#00294f","band":1,"off":[-3.4,3.1]}},{"type":"Feature","geometry":{"type":"Point","coordinates":[27.418703,42.451972]},"properties":{"line":"Б11","mode":"bus","color":"#0059a9","colorDark":"#00294f","band":1,"off":[0,3.1]}},{"type":"Feature","geometry":{"type":"Point","coordinates":[27.418703,42.451972]},"properties":{"line":"Б12","mode":"bus","color":"#0059a9","colorDark":"#00294f","band":1,"off":[3.4,3.1]}},{"type":"Feature","geometry":{"type":"Point","coordinates":[27.418703,42.451972]},"properties":{"line":"Н","mode":"bus","color":"#0059a9","colorDark":"#00294f","band":1,"off":[6.8,3.1]}},{"type":"Feature","geometry":{"type":"Point","coordinates":[27.418703,42.451972]},"properties":{"line":"Т1","mode":"bus","color":"#149a3f","colorDark":"#0a5121","band":1,"off":[0,5.1]}},{"type":"Feature","geometry":{"type":"Point","coordinates":[27.41372,42.464911]},"properties":{"name":"Захари Стоянов","band":1,"modes":"bus","arr":["Б9","Бо"],"off":[0,-0.8]}},{"type":"Feature","geometry":{"type":"Point","coordinates":[27.41372,42.464911]},"properties":{"line":"Б9","mode":"bus","color":"#0059a9","colorDark":"#00294f","band":1,"off":[-1.7,1.1]}},{"type":"Feature","geometry":{"type":"Point","coordinates":[27.41372,42.464911]},"properties":{"line":"Бо","mode":"bus","color":"#0059a9","colorDark":"#00294f","band":1,"off":[1.7,1.1]}},{"type":"Feature","geometry":{"type":"Point","coordinates":[27.392344,42.450973]},"properties":{"name":"Върли бряг, Площада","band":1,"modes":"bus","arr":["9А"],"off":[0,-0.8]}},{"type":"Feature","geometry":{"type":"Point","coordinates":[27.392344,42.450973]},"properties":{"line":"9А","mode":"bus","color":"#0059a9","colorDark":"#00294f","band":1,"off":[0,1.1]}},{"type":"Feature","geometry":{"type":"Point","coordinates":[27.393349,42.461178]},"properties":{"name":"Шилото","band":1,"modes":"bus","arr":["9Б"],"off":[0,-0.8]}},{"type":"Feature","geometry":{"type":"Point","coordinates":[27.393349,42.461178]},"properties":{"line":"9Б","mode":"bus","color":"#0059a9","colorDark":"#00294f","band":1,"off":[0,1.1]}},{"type":"Feature","geometry":{"type":"Point","coordinates":[27.474251,42.490491]},"properties":{"name":"Терминал Юг","band":1,"modes":"bus","arr":["15","15А","17"],"off":[0,-0.8]}},{"type":"Feature","geometry":{"type":"Point","coordinates":[27.474251,42.490491]},"properties":{"name":"Автогара Юг","band":1,"modes":"bus","arr":["15","15А","17"],"off":[0,-1.9]}},{"type":"Feature","geometry":{"type":"Point","coordinates":[27.474251,42.490491]},"properties":{"line":"15","mode":"bus","color":"#0059a9","colorDark":"#00294f","band":1,"off":[-3.4,1.1]}},{"type":"Feature","geometry":{"type":"Point","coordinates":[27.474251,42.490491]},"properties":{"line":"15А","mode":"bus","color":"#0059a9","colorDark":"#00294f","band":1,"off":[0,1.1]}},{"type":"Feature","geometry":{"type":"Point","coordinates":[27.474251,42.490491]},"properties":{"line":"17","mode":"bus","color":"#0059a9","colorDark":"#00294f","band":1,"off":[3.4,1.1]}},{"type":"Feature","geometry":{"type":"Point","coordinates":[27.526204,42.563005]},"properties":{"name":"Сарафово, Ради Николов","band":1,"modes":"bus","arr":["15","15А"],"off":[0,-0.8]}},{"type":"Feature","geometry":{"type":"Point","coordinates":[27.526204,42.563005]},"properties":{"line":"15","mode":"bus","color":"#0059a9","colorDark":"#00294f","band":1,"off":[-1.7,1.1]}},{"type":"Feature","geometry":{"type":"Point","coordinates":[27.526204,42.563005]},"properties":{"line":"15А","mode":"bus","color":"#0059a9","colorDark":"#00294f","band":1,"off":[1.7,1.1]}},{"type":"Feature","geometry":{"type":"Point","coordinates":[27.487526,42.44538]},"properties":{"name":"Крайморие","band":1,"modes":"bus","arr":["17","17А"],"off":[0,-0.8]}},{"type":"Feature","geometry":{"type":"Point","coordinates":[27.487526,42.44538]},"properties":{"line":"17","mode":"bus","color":"#0059a9","colorDark":"#00294f","band":1,"off":[-1.7,1.1]}},{"type":"Feature","geometry":{"type":"Point","coordinates":[27.487526,42.44538]},"properties":{"line":"17А","mode":"bus","color":"#0059a9","colorDark":"#00294f","band":1,"off":[1.7,1.1]}},{"type":"Feature","geometry":{"type":"Point","coordinates":[27.45945,42.529279]},"properties":{"name":"Терминал Изгрев","band":1,"modes":"bus","arr":["Б1","Б11"],"off":[0,-0.8]}},{"type":"Feature","geometry":{"type":"Point","coordinates":[27.45945,42.529279]},"properties":{"line":"Б1","mode":"bus","color":"#0059a9","colorDark":"#00294f","band":1,"off":[-1.7,1.1]}},{"type":"Feature","geometry":{"type":"Point","coordinates":[27.45945,42.529279]},"properties":{"line":"Б11","mode":"bus","color":"#0059a9","colorDark":"#00294f","band":1,"off":[1.7,1.1]}},{"type":"Feature","geometry":{"type":"Point","coordinates":[27.459063,42.50309]},"properties":{"name":"Автогара Запад","band":2,"modes":"bus","arr":["3","6","7","7А","7А1","7А2","8","81","82"],"off":[0,-0.8]}},{"type":"Feature","geometry":{"type":"Point","coordinates":[27.459063,42.50309]},"properties":{"line":"3","mode":"bus","color":"#0059a9","colorDark":"#00294f","band":2,"off":[-6.8,1.1]}},{"type":"Feature","geometry":{"type":"Point","coordinates":[27.459063,42.50309]},"properties":{"line":"6","mode":"bus","color":"#0059a9","colorDark":"#00294f","band":2,"off":[-3.4,1.1]}},{"type":"Feature","geometry":{"type":"Point","coordinates":[27.459063,42.50309]},"properties":{"line":"7","mode":"bus","color":"#0059a9","colorDark":"#00294f","band":2,"off":[0,1.1]}},{"type":"Feature","geometry":{"type":"Point","coordinates":[27.459063,42.50309]},"properties":{"line":"7А","mode":"bus","color":"#0059a9","colorDark":"#00294f","band":2,"off":[3.4,1.1]}},{"type":"Feature","geometry":{"type":"Point","coordinates":[27.459063,42.50309]},"properties":{"line":"7А1","mode":"bus","color":"#0059a9","colorDark":"#00294f","band":2,"off":[6.8,1.1]}},{"type":"Feature","geometry":{"type":"Point","coordinates":[27.459063,42.50309]},"properties":{"line":"7А2","mode":"bus","color":"#0059a9","colorDark":"#00294f","band":2,"off":[-5.1,3.1]}},{"type":"Feature","geometry":{"type":"Point","coordinates":[27.459063,42.50309]},"properties":{"line":"8","mode":"bus","color":"#0059a9","colorDark":"#00294f","band":2,"off":[-1.7,3.1]}},{"type":"Feature","geometry":{"type":"Point","coordinates":[27.459063,42.50309]},"properties":{"line":"81","mode":"bus","color":"#0059a9","colorDark":"#00294f","band":2,"off":[1.7,3.1]}},{"type":"Feature","geometry":{"type":"Point","coordinates":[27.459063,42.50309]},"properties":{"line":"82","mode":"bus","color":"#0059a9","colorDark":"#00294f","band":2,"off":[5.1,3.1]}},{"type":"Feature","geometry":{"type":"Point","coordinates":[27.384178,42.629374]},"properties":{"name":"Банево, Околчица","band":2,"modes":"bus","arr":["3"],"off":[0,-0.8]}},{"type":"Feature","geometry":{"type":"Point","coordinates":[27.384178,42.629374]},"properties":{"line":"3","mode":"bus","color":"#0059a9","colorDark":"#00294f","band":2,"off":[0,1.1]}},{"type":"Feature","geometry":{"type":"Point","coordinates":[27.488539,42.626655]},"properties":{"name":"Рудник, Яна Лъскова","band":2,"modes":"bus","arr":["6"],"off":[0,-0.8]}},{"type":"Feature","geometry":{"type":"Point","coordinates":[27.488539,42.626655]},"properties":{"line":"6","mode":"bus","color":"#0059a9","colorDark":"#00294f","band":2,"off":[0,1.1]}},{"type":"Feature","geometry":{"type":"Point","coordinates":[27.438466,42.519654]},"properties":{"name":"Терминал Славейков","band":2,"modes":"bus","arr":["9","11","12","92","Б2","Б9","Б12","Бо","Н"],"off":[0,-0.8]}},{"type":"Feature","geometry":{"type":"Point","coordinates":[27.438466,42.519654]},"properties":{"line":"9","mode":"bus","color":"#0059a9","colorDark":"#00294f","band":2,"off":[-6.8,1.1]}},{"type":"Feature","geometry":{"type":"Point","coordinates":[27.438466,42.519654]},"properties":{"line":"11","mode":"bus","color":"#0059a9","colorDark":"#00294f","band":2,"off":[-3.4,1.1]}},{"type":"Feature","geometry":{"type":"Point","coordinates":[27.438466,42.519654]},"properties":{"line":"12","mode":"bus","color":"#0059a9","colorDark":"#00294f","band":2,"off":[0,1.1]}},{"type":"Feature","geometry":{"type":"Point","coordinates":[27.438466,42.519654]},"properties":{"line":"92","mode":"bus","color":"#0059a9","colorDark":"#00294f","band":2,"off":[3.4,1.1]}},{"type":"Feature","geometry":{"type":"Point","coordinates":[27.438466,42.519654]},"properties":{"line":"Б2","mode":"bus","color":"#0059a9","colorDark":"#00294f","band":2,"off":[6.8,1.1]}},{"type":"Feature","geometry":{"type":"Point","coordinates":[27.438466,42.519654]},"properties":{"line":"Б9","mode":"bus","color":"#0059a9","colorDark":"#00294f","band":2,"off":[-5.1,3.1]}},{"type":"Feature","geometry":{"type":"Point","coordinates":[27.438466,42.519654]},"properties":{"line":"Б12","mode":"bus","color":"#0059a9","colorDark":"#00294f","band":2,"off":[-1.7,3.1]}},{"type":"Feature","geometry":{"type":"Point","coordinates":[27.438466,42.519654]},"properties":{"line":"Бо","mode":"bus","color":"#0059a9","colorDark":"#00294f","band":2,"off":[1.7,3.1]}},{"type":"Feature","geometry":{"type":"Point","coordinates":[27.438466,42.519654]},"properties":{"line":"Н","mode":"bus","color":"#0059a9","colorDark":"#00294f","band":2,"off":[5.1,3.1]}},{"type":"Feature","geometry":{"type":"Point","coordinates":[27.360524,42.516792]},"properties":{"name":"Д. Езерово, Ж.П. Гара","band":2,"modes":"bus","arr":["7"],"off":[0,-0.8]}},{"type":"Feature","geometry":{"type":"Point","coordinates":[27.360524,42.516792]},"properties":{"line":"7","mode":"bus","color":"#0059a9","colorDark":"#00294f","band":2,"off":[0,1.1]}},{"type":"Feature","geometry":{"type":"Point","coordinates":[27.408806,42.537996]},"properties":{"name":"Лозово, Роза","band":2,"modes":"bus","arr":["7А","7А1","7А2"],"off":[0,-0.8]}},{"type":"Feature","geometry":{"type":"Point","coordinates":[27.408806,42.537996]},"properties":{"line":"7А","mode":"bus","color":"#0059a9","colorDark":"#00294f","band":2,"off":[-3.4,1.1]}},{"type":"Feature","geometry":{"type":"Point","coordinates":[27.408806,42.537996]},"properties":{"line":"7А1","mode":"bus","color":"#0059a9","colorDark":"#00294f","band":2,"off":[0,1.1]}},{"type":"Feature","geometry":{"type":"Point","coordinates":[27.408806,42.537996]},"properties":{"line":"7А2","mode":"bus","color":"#0059a9","colorDark":"#00294f","band":2,"off":[3.4,1.1]}},{"type":"Feature","geometry":{"type":"Point","coordinates":[27.379485,42.485446]},"properties":{"name":"Г. Езерово, Площада","band":2,"modes":"bus","arr":["8","81","82"],"off":[0,-0.8]}},{"type":"Feature","geometry":{"type":"Point","coordinates":[27.379485,42.485446]},"properties":{"line":"8","mode":"bus","color":"#0059a9","colorDark":"#00294f","band":2,"off":[-3.4,1.1]}},{"type":"Feature","geometry":{"type":"Point","coordinates":[27.379485,42.485446]},"properties":{"line":"81","mode":"bus","color":"#0059a9","colorDark":"#00294f","band":2,"off":[0,1.1]}},{"type":"Feature","geometry":{"type":"Point","coordinates":[27.379485,42.485446]},"properties":{"line":"82","mode":"bus","color":"#0059a9","colorDark":"#00294f","band":2,"off":[3.4,1.1]}},{"type":"Feature","geometry":{"type":"Point","coordinates":[27.418703,42.451972]},"properties":{"name":"Терминал Меден рудник","band":2,"modes":"bus","arr":["9","9А","9Б","17А","92","Б1","Б2","Б11","Б12","Н","Т1"],"off":[0,-0.8]}},{"type":"Feature","geometry":{"type":"Point","coordinates":[27.418703,42.451972]},"properties":{"line":"9","mode":"bus","color":"#0059a9","colorDark":"#00294f","band":2,"off":[-6.8,1.1]}},{"type":"Feature","geometry":{"type":"Point","coordinates":[27.418703,42.451972]},"properties":{"line":"9А","mode":"bus","color":"#0059a9","colorDark":"#00294f","band":2,"off":[-3.4,1.1]}},{"type":"Feature","geometry":{"type":"Point","coordinates":[27.418703,42.451972]},"properties":{"line":"9Б","mode":"bus","color":"#0059a9","colorDark":"#00294f","band":2,"off":[0,1.1]}},{"type":"Feature","geometry":{"type":"Point","coordinates":[27.418703,42.451972]},"properties":{"line":"17А","mode":"bus","color":"#0059a9","colorDark":"#00294f","band":2,"off":[3.4,1.1]}},{"type":"Feature","geometry":{"type":"Point","coordinates":[27.418703,42.451972]},"properties":{"line":"92","mode":"bus","color":"#0059a9","colorDark":"#00294f","band":2,"off":[6.8,1.1]}},{"type":"Feature","geometry":{"type":"Point","coordinates":[27.418703,42.451972]},"properties":{"line":"Б1","mode":"bus","color":"#0059a9","colorDark":"#00294f","band":2,"off":[-6.8,3.1]}},{"type":"Feature","geometry":{"type":"Point","coordinates":[27.418703,42.451972]},"properties":{"line":"Б2","mode":"bus","color":"#0059a9","colorDark":"#00294f","band":2,"off":[-3.4,3.1]}},{"type":"Feature","geometry":{"type":"Point","coordinates":[27.418703,42.451972]},"properties":{"line":"Б11","mode":"bus","color":"#0059a9","colorDark":"#00294f","band":2,"off":[0,3.1]}},{"type":"Feature","geometry":{"type":"Point","coordinates":[27.418703,42.451972]},"properties":{"line":"Б12","mode":"bus","color":"#0059a9","colorDark":"#00294f","band":2,"off":[3.4,3.1]}},{"type":"Feature","geometry":{"type":"Point","coordinates":[27.418703,42.451972]},"properties":{"line":"Н","mode":"bus","color":"#0059a9","colorDark":"#00294f","band":2,"off":[6.8,3.1]}},{"type":"Feature","geometry":{"type":"Point","coordinates":[27.418703,42.451972]},"properties":{"line":"Т1","mode":"bus","color":"#149a3f","colorDark":"#0a5121","band":2,"off":[0,5.1]}},{"type":"Feature","geometry":{"type":"Point","coordinates":[27.41372,42.464911]},"properties":{"name":"Захари Стоянов","band":2,"modes":"bus","arr":["Б9","Бо"],"off":[0,-0.8]}},{"type":"Feature","geometry":{"type":"Point","coordinates":[27.41372,42.464911]},"properties":{"line":"Б9","mode":"bus","color":"#0059a9","colorDark":"#00294f","band":2,"off":[-1.7,1.1]}},{"type":"Feature","geometry":{"type":"Point","coordinates":[27.41372,42.464911]},"properties":{"line":"Бо","mode":"bus","color":"#0059a9","colorDark":"#00294f","band":2,"off":[1.7,1.1]}},{"type":"Feature","geometry":{"type":"Point","coordinates":[27.392344,42.450973]},"properties":{"name":"Върли бряг, Площада","band":2,"modes":"bus","arr":["9А"],"off":[0,-0.8]}},{"type":"Feature","geometry":{"type":"Point","coordinates":[27.392344,42.450973]},"properties":{"line":"9А","mode":"bus","color":"#0059a9","colorDark":"#00294f","band":2,"off":[0,1.1]}},{"type":"Feature","geometry":{"type":"Point","coordinates":[27.393349,42.461178]},"properties":{"name":"Шилото","band":2,"modes":"bus","arr":["9Б"],"off":[0,-0.8]}},{"type":"Feature","geometry":{"type":"Point","coordinates":[27.393349,42.461178]},"properties":{"line":"9Б","mode":"bus","color":"#0059a9","colorDark":"#00294f","band":2,"off":[0,1.1]}},{"type":"Feature","geometry":{"type":"Point","coordinates":[27.474251,42.490491]},"properties":{"name":"Терминал Юг","band":2,"modes":"bus","arr":["15","15А","17"],"off":[0,-0.8]}},{"type":"Feature","geometry":{"type":"Point","coordinates":[27.474251,42.490491]},"properties":{"name":"Автогара Юг","band":2,"modes":"bus","arr":["15","15А","17"],"off":[0,-1.9]}},{"type":"Feature","geometry":{"type":"Point","coordinates":[27.474251,42.490491]},"properties":{"line":"15","mode":"bus","color":"#0059a9","colorDark":"#00294f","band":2,"off":[-3.4,1.1]}},{"type":"Feature","geometry":{"type":"Point","coordinates":[27.474251,42.490491]},"properties":{"line":"15А","mode":"bus","color":"#0059a9","colorDark":"#00294f","band":2,"off":[0,1.1]}},{"type":"Feature","geometry":{"type":"Point","coordinates":[27.474251,42.490491]},"properties":{"line":"17","mode":"bus","color":"#0059a9","colorDark":"#00294f","band":2,"off":[3.4,1.1]}},{"type":"Feature","geometry":{"type":"Point","coordinates":[27.526204,42.563005]},"properties":{"name":"Сарафово, Ради Николов","band":2,"modes":"bus","arr":["15","15А"],"off":[0,-0.8]}},{"type":"Feature","geometry":{"type":"Point","coordinates":[27.526204,42.563005]},"properties":{"line":"15","mode":"bus","color":"#0059a9","colorDark":"#00294f","band":2,"off":[-1.7,1.1]}},{"type":"Feature","geometry":{"type":"Point","coordinates":[27.526204,42.563005]},"properties":{"line":"15А","mode":"bus","color":"#0059a9","colorDark":"#00294f","band":2,"off":[1.7,1.1]}},{"type":"Feature","geometry":{"type":"Point","coordinates":[27.487526,42.44538]},"properties":{"name":"Крайморие","band":2,"modes":"bus","arr":["17","17А"],"off":[0,-0.8]}},{"type":"Feature","geometry":{"type":"Point","coordinates":[27.487526,42.44538]},"properties":{"line":"17","mode":"bus","color":"#0059a9","colorDark":"#00294f","band":2,"off":[-1.7,1.1]}},{"type":"Feature","geometry":{"type":"Point","coordinates":[27.487526,42.44538]},"properties":{"line":"17А","mode":"bus","color":"#0059a9","colorDark":"#00294f","band":2,"off":[1.7,1.1]}},{"type":"Feature","geometry":{"type":"Point","coordinates":[27.45945,42.529279]},"properties":{"name":"Терминал Изгрев","band":2,"modes":"bus","arr":["Б1","Б11"],"off":[0,-0.8]}},{"type":"Feature","geometry":{"type":"Point","coordinates":[27.45945,42.529279]},"properties":{"line":"Б1","mode":"bus","color":"#0059a9","colorDark":"#00294f","band":2,"off":[-1.7,1.1]}},{"type":"Feature","geometry":{"type":"Point","coordinates":[27.45945,42.529279]},"properties":{"line":"Б11","mode":"bus","color":"#0059a9","colorDark":"#00294f","band":2,"off":[1.7,1.1]}},{"type":"Feature","geometry":{"type":"Point","coordinates":[27.459063,42.50309]},"properties":{"name":"Автогара Запад","band":3,"modes":"bus","arr":["3","6","7","7А","7А1","7А2","8","81","82"],"off":[0,-0.8]}},{"type":"Feature","geometry":{"type":"Point","coordinates":[27.459063,42.50309]},"properties":{"line":"3","mode":"bus","color":"#0059a9","colorDark":"#00294f","band":3,"off":[-6.8,1.1]}},{"type":"Feature","geometry":{"type":"Point","coordinates":[27.459063,42.50309]},"properties":{"line":"6","mode":"bus","color":"#0059a9","colorDark":"#00294f","band":3,"off":[-3.4,1.1]}},{"type":"Feature","geometry":{"type":"Point","coordinates":[27.459063,42.50309]},"properties":{"line":"7","mode":"bus","color":"#0059a9","colorDark":"#00294f","band":3,"off":[0,1.1]}},{"type":"Feature","geometry":{"type":"Point","coordinates":[27.459063,42.50309]},"properties":{"line":"7А","mode":"bus","color":"#0059a9","colorDark":"#00294f","band":3,"off":[3.4,1.1]}},{"type":"Feature","geometry":{"type":"Point","coordinates":[27.459063,42.50309]},"properties":{"line":"7А1","mode":"bus","color":"#0059a9","colorDark":"#00294f","band":3,"off":[6.8,1.1]}},{"type":"Feature","geometry":{"type":"Point","coordinates":[27.459063,42.50309]},"properties":{"line":"7А2","mode":"bus","color":"#0059a9","colorDark":"#00294f","band":3,"off":[-5.1,3.1]}},{"type":"Feature","geometry":{"type":"Point","coordinates":[27.459063,42.50309]},"properties":{"line":"8","mode":"bus","color":"#0059a9","colorDark":"#00294f","band":3,"off":[-1.7,3.1]}},{"type":"Feature","geometry":{"type":"Point","coordinates":[27.459063,42.50309]},"properties":{"line":"81","mode":"bus","color":"#0059a9","colorDark":"#00294f","band":3,"off":[1.7,3.1]}},{"type":"Feature","geometry":{"type":"Point","coordinates":[27.459063,42.50309]},"properties":{"line":"82","mode":"bus","color":"#0059a9","colorDark":"#00294f","band":3,"off":[5.1,3.1]}},{"type":"Feature","geometry":{"type":"Point","coordinates":[27.384178,42.629374]},"properties":{"name":"Банево, Околчица","band":3,"modes":"bus","arr":["3"],"off":[0,-0.8]}},{"type":"Feature","geometry":{"type":"Point","coordinates":[27.384178,42.629374]},"properties":{"line":"3","mode":"bus","color":"#0059a9","colorDark":"#00294f","band":3,"off":[0,1.1]}},{"type":"Feature","geometry":{"type":"Point","coordinates":[27.488539,42.626655]},"properties":{"name":"Рудник, Яна Лъскова","band":3,"modes":"bus","arr":["6"],"off":[0,-0.8]}},{"type":"Feature","geometry":{"type":"Point","coordinates":[27.488539,42.626655]},"properties":{"line":"6","mode":"bus","color":"#0059a9","colorDark":"#00294f","band":3,"off":[0,1.1]}},{"type":"Feature","geometry":{"type":"Point","coordinates":[27.438466,42.519654]},"properties":{"name":"Терминал Славейков","band":3,"modes":"bus","arr":["9","11","12","92","Б2","Б9","Б12","Бо","Н"],"off":[0,-0.8]}},{"type":"Feature","geometry":{"type":"Point","coordinates":[27.438466,42.519654]},"properties":{"line":"9","mode":"bus","color":"#0059a9","colorDark":"#00294f","band":3,"off":[-6.8,1.1]}},{"type":"Feature","geometry":{"type":"Point","coordinates":[27.438466,42.519654]},"properties":{"line":"11","mode":"bus","color":"#0059a9","colorDark":"#00294f","band":3,"off":[-3.4,1.1]}},{"type":"Feature","geometry":{"type":"Point","coordinates":[27.438466,42.519654]},"properties":{"line":"12","mode":"bus","color":"#0059a9","colorDark":"#00294f","band":3,"off":[0,1.1]}},{"type":"Feature","geometry":{"type":"Point","coordinates":[27.438466,42.519654]},"properties":{"line":"92","mode":"bus","color":"#0059a9","colorDark":"#00294f","band":3,"off":[3.4,1.1]}},{"type":"Feature","geometry":{"type":"Point","coordinates":[27.438466,42.519654]},"properties":{"line":"Б2","mode":"bus","color":"#0059a9","colorDark":"#00294f","band":3,"off":[6.8,1.1]}},{"type":"Feature","geometry":{"type":"Point","coordinates":[27.438466,42.519654]},"properties":{"line":"Б9","mode":"bus","color":"#0059a9","colorDark":"#00294f","band":3,"off":[-5.1,3.1]}},{"type":"Feature","geometry":{"type":"Point","coordinates":[27.438466,42.519654]},"properties":{"line":"Б12","mode":"bus","color":"#0059a9","colorDark":"#00294f","band":3,"off":[-1.7,3.1]}},{"type":"Feature","geometry":{"type":"Point","coordinates":[27.438466,42.519654]},"properties":{"line":"Бо","mode":"bus","color":"#0059a9","colorDark":"#00294f","band":3,"off":[1.7,3.1]}},{"type":"Feature","geometry":{"type":"Point","coordinates":[27.438466,42.519654]},"properties":{"line":"Н","mode":"bus","color":"#0059a9","colorDark":"#00294f","band":3,"off":[5.1,3.1]}},{"type":"Feature","geometry":{"type":"Point","coordinates":[27.360524,42.516792]},"properties":{"name":"Д. Езерово, Ж.П. Гара","band":3,"modes":"bus","arr":["7"],"off":[0,-0.8]}},{"type":"Feature","geometry":{"type":"Point","coordinates":[27.360524,42.516792]},"properties":{"line":"7","mode":"bus","color":"#0059a9","colorDark":"#00294f","band":3,"off":[0,1.1]}},{"type":"Feature","geometry":{"type":"Point","coordinates":[27.408806,42.537996]},"properties":{"name":"Лозово, Роза","band":3,"modes":"bus","arr":["7А","7А1","7А2"],"off":[0,-0.8]}},{"type":"Feature","geometry":{"type":"Point","coordinates":[27.408806,42.537996]},"properties":{"line":"7А","mode":"bus","color":"#0059a9","colorDark":"#00294f","band":3,"off":[-3.4,1.1]}},{"type":"Feature","geometry":{"type":"Point","coordinates":[27.408806,42.537996]},"properties":{"line":"7А1","mode":"bus","color":"#0059a9","colorDark":"#00294f","band":3,"off":[0,1.1]}},{"type":"Feature","geometry":{"type":"Point","coordinates":[27.408806,42.537996]},"properties":{"line":"7А2","mode":"bus","color":"#0059a9","colorDark":"#00294f","band":3,"off":[3.4,1.1]}},{"type":"Feature","geometry":{"type":"Point","coordinates":[27.379485,42.485446]},"properties":{"name":"Г. Езерово, Площада","band":3,"modes":"bus","arr":["8","81","82"],"off":[0,-0.8]}},{"type":"Feature","geometry":{"type":"Point","coordinates":[27.379485,42.485446]},"properties":{"line":"8","mode":"bus","color":"#0059a9","colorDark":"#00294f","band":3,"off":[-3.4,1.1]}},{"type":"Feature","geometry":{"type":"Point","coordinates":[27.379485,42.485446]},"properties":{"line":"81","mode":"bus","color":"#0059a9","colorDark":"#00294f","band":3,"off":[0,1.1]}},{"type":"Feature","geometry":{"type":"Point","coordinates":[27.379485,42.485446]},"properties":{"line":"82","mode":"bus","color":"#0059a9","colorDark":"#00294f","band":3,"off":[3.4,1.1]}},{"type":"Feature","geometry":{"type":"Point","coordinates":[27.418703,42.451972]},"properties":{"name":"Терминал Меден рудник","band":3,"modes":"bus","arr":["9","9А","9Б","17А","92","Б1","Б2","Б11","Б12","Н","Т1"],"off":[0,-0.8]}},{"type":"Feature","geometry":{"type":"Point","coordinates":[27.418703,42.451972]},"properties":{"line":"9","mode":"bus","color":"#0059a9","colorDark":"#00294f","band":3,"off":[-6.8,1.1]}},{"type":"Feature","geometry":{"type":"Point","coordinates":[27.418703,42.451972]},"properties":{"line":"9А","mode":"bus","color":"#0059a9","colorDark":"#00294f","band":3,"off":[-3.4,1.1]}},{"type":"Feature","geometry":{"type":"Point","coordinates":[27.418703,42.451972]},"properties":{"line":"9Б","mode":"bus","color":"#0059a9","colorDark":"#00294f","band":3,"off":[0,1.1]}},{"type":"Feature","geometry":{"type":"Point","coordinates":[27.418703,42.451972]},"properties":{"line":"17А","mode":"bus","color":"#0059a9","colorDark":"#00294f","band":3,"off":[3.4,1.1]}},{"type":"Feature","geometry":{"type":"Point","coordinates":[27.418703,42.451972]},"properties":{"line":"92","mode":"bus","color":"#0059a9","colorDark":"#00294f","band":3,"off":[6.8,1.1]}},{"type":"Feature","geometry":{"type":"Point","coordinates":[27.418703,42.451972]},"properties":{"line":"Б1","mode":"bus","color":"#0059a9","colorDark":"#00294f","band":3,"off":[-6.8,3.1]}},{"type":"Feature","geometry":{"type":"Point","coordinates":[27.418703,42.451972]},"properties":{"line":"Б2","mode":"bus","color":"#0059a9","colorDark":"#00294f","band":3,"off":[-3.4,3.1]}},{"type":"Feature","geometry":{"type":"Point","coordinates":[27.418703,42.451972]},"properties":{"line":"Б11","mode":"bus","color":"#0059a9","colorDark":"#00294f","band":3,"off":[0,3.1]}},{"type":"Feature","geometry":{"type":"Point","coordinates":[27.418703,42.451972]},"properties":{"line":"Б12","mode":"bus","color":"#0059a9","colorDark":"#00294f","band":3,"off":[3.4,3.1]}},{"type":"Feature","geometry":{"type":"Point","coordinates":[27.418703,42.451972]},"properties":{"line":"Н","mode":"bus","color":"#0059a9","colorDark":"#00294f","band":3,"off":[6.8,3.1]}},{"type":"Feature","geometry":{"type":"Point","coordinates":[27.418703,42.451972]},"properties":{"line":"Т1","mode":"bus","color":"#149a3f","colorDark":"#0a5121","band":3,"off":[0,5.1]}},{"type":"Feature","geometry":{"type":"Point","coordinates":[27.41372,42.464911]},"properties":{"name":"Захари Стоянов","band":3,"modes":"bus","arr":["Б9","Бо"],"off":[0,-0.8]}},{"type":"Feature","geometry":{"type":"Point","coordinates":[27.41372,42.464911]},"properties":{"line":"Б9","mode":"bus","color":"#0059a9","colorDark":"#00294f","band":3,"off":[-1.7,1.1]}},{"type":"Feature","geometry":{"type":"Point","coordinates":[27.41372,42.464911]},"properties":{"line":"Бо","mode":"bus","color":"#0059a9","colorDark":"#00294f","band":3,"off":[1.7,1.1]}},{"type":"Feature","geometry":{"type":"Point","coordinates":[27.392344,42.450973]},"properties":{"name":"Върли бряг, Площада","band":3,"modes":"bus","arr":["9А"],"off":[0,-0.8]}},{"type":"Feature","geometry":{"type":"Point","coordinates":[27.392344,42.450973]},"properties":{"line":"9А","mode":"bus","color":"#0059a9","colorDark":"#00294f","band":3,"off":[0,1.1]}},{"type":"Feature","geometry":{"type":"Point","coordinates":[27.393349,42.461178]},"properties":{"name":"Шилото","band":3,"modes":"bus","arr":["9Б"],"off":[0,-0.8]}},{"type":"Feature","geometry":{"type":"Point","coordinates":[27.393349,42.461178]},"properties":{"line":"9Б","mode":"bus","color":"#0059a9","colorDark":"#00294f","band":3,"off":[0,1.1]}},{"type":"Feature","geometry":{"type":"Point","coordinates":[27.473925,42.49026]},"properties":{"name":"Автогара Юг","band":3,"modes":"bus","arr":["15","15А"],"off":[0,-0.8]}},{"type":"Feature","geometry":{"type":"Point","coordinates":[27.473925,42.49026]},"properties":{"line":"15","mode":"bus","color":"#0059a9","colorDark":"#00294f","band":3,"off":[-1.7,1.1]}},{"type":"Feature","geometry":{"type":"Point","coordinates":[27.473925,42.49026]},"properties":{"line":"15А","mode":"bus","color":"#0059a9","colorDark":"#00294f","band":3,"off":[1.7,1.1]}},{"type":"Feature","geometry":{"type":"Point","coordinates":[27.526204,42.563005]},"properties":{"name":"Сарафово, Ради Николов","band":3,"modes":"bus","arr":["15","15А"],"off":[0,-0.8]}},{"type":"Feature","geometry":{"type":"Point","coordinates":[27.526204,42.563005]},"properties":{"line":"15","mode":"bus","color":"#0059a9","colorDark":"#00294f","band":3,"off":[-1.7,1.1]}},{"type":"Feature","geometry":{"type":"Point","coordinates":[27.526204,42.563005]},"properties":{"line":"15А","mode":"bus","color":"#0059a9","colorDark":"#00294f","band":3,"off":[1.7,1.1]}},{"type":"Feature","geometry":{"type":"Point","coordinates":[27.474577,42.490721]},"properties":{"name":"Терминал Юг","band":3,"modes":"bus","arr":["15","15А","17"],"off":[0,-0.8]}},{"type":"Feature","geometry":{"type":"Point","coordinates":[27.474577,42.490721]},"properties":{"line":"15","mode":"bus","color":"#0059a9","colorDark":"#00294f","band":3,"off":[-3.4,1.1]}},{"type":"Feature","geometry":{"type":"Point","coordinates":[27.474577,42.490721]},"properties":{"line":"15А","mode":"bus","color":"#0059a9","colorDark":"#00294f","band":3,"off":[0,1.1]}},{"type":"Feature","geometry":{"type":"Point","coordinates":[27.474577,42.490721]},"properties":{"line":"17","mode":"bus","color":"#0059a9","colorDark":"#00294f","band":3,"off":[3.4,1.1]}},{"type":"Feature","geometry":{"type":"Point","coordinates":[27.487526,42.44538]},"properties":{"name":"Крайморие","band":3,"modes":"bus","arr":["17","17А"],"off":[0,-0.8]}},{"type":"Feature","geometry":{"type":"Point","coordinates":[27.487526,42.44538]},"properties":{"line":"17","mode":"bus","color":"#0059a9","colorDark":"#00294f","band":3,"off":[-1.7,1.1]}},{"type":"Feature","geometry":{"type":"Point","coordinates":[27.487526,42.44538]},"properties":{"line":"17А","mode":"bus","color":"#0059a9","colorDark":"#00294f","band":3,"off":[1.7,1.1]}},{"type":"Feature","geometry":{"type":"Point","coordinates":[27.45945,42.529279]},"properties":{"name":"Терминал Изгрев","band":3,"modes":"bus","arr":["Б1","Б11"],"off":[0,-0.8]}},{"type":"Feature","geometry":{"type":"Point","coordinates":[27.45945,42.529279]},"properties":{"line":"Б1","mode":"bus","color":"#0059a9","colorDark":"#00294f","band":3,"off":[-1.7,1.1]}},{"type":"Feature","geometry":{"type":"Point","coordinates":[27.45945,42.529279]},"properties":{"line":"Б11","mode":"bus","color":"#0059a9","colorDark":"#00294f","band":3,"off":[1.7,1.1]}},{"type":"Feature","geometry":{"type":"Point","coordinates":[27.459063,42.50309]},"properties":{"name":"Автогара Запад","band":4,"modes":"bus","arr":["3","6","7","7А","7А1","7А2","8","81","82"],"off":[0,-0.8]}},{"type":"Feature","geometry":{"type":"Point","coordinates":[27.459063,42.50309]},"properties":{"line":"3","mode":"bus","color":"#0059a9","colorDark":"#00294f","band":4,"off":[-6.8,1.1]}},{"type":"Feature","geometry":{"type":"Point","coordinates":[27.459063,42.50309]},"properties":{"line":"6","mode":"bus","color":"#0059a9","colorDark":"#00294f","band":4,"off":[-3.4,1.1]}},{"type":"Feature","geometry":{"type":"Point","coordinates":[27.459063,42.50309]},"properties":{"line":"7","mode":"bus","color":"#0059a9","colorDark":"#00294f","band":4,"off":[0,1.1]}},{"type":"Feature","geometry":{"type":"Point","coordinates":[27.459063,42.50309]},"properties":{"line":"7А","mode":"bus","color":"#0059a9","colorDark":"#00294f","band":4,"off":[3.4,1.1]}},{"type":"Feature","geometry":{"type":"Point","coordinates":[27.459063,42.50309]},"properties":{"line":"7А1","mode":"bus","color":"#0059a9","colorDark":"#00294f","band":4,"off":[6.8,1.1]}},{"type":"Feature","geometry":{"type":"Point","coordinates":[27.459063,42.50309]},"properties":{"line":"7А2","mode":"bus","color":"#0059a9","colorDark":"#00294f","band":4,"off":[-5.1,3.1]}},{"type":"Feature","geometry":{"type":"Point","coordinates":[27.459063,42.50309]},"properties":{"line":"8","mode":"bus","color":"#0059a9","colorDark":"#00294f","band":4,"off":[-1.7,3.1]}},{"type":"Feature","geometry":{"type":"Point","coordinates":[27.459063,42.50309]},"properties":{"line":"81","mode":"bus","color":"#0059a9","colorDark":"#00294f","band":4,"off":[1.7,3.1]}},{"type":"Feature","geometry":{"type":"Point","coordinates":[27.459063,42.50309]},"properties":{"line":"82","mode":"bus","color":"#0059a9","colorDark":"#00294f","band":4,"off":[5.1,3.1]}},{"type":"Feature","geometry":{"type":"Point","coordinates":[27.384178,42.629374]},"properties":{"name":"Банево, Околчица","band":4,"modes":"bus","arr":["3"],"off":[0,-0.8]}},{"type":"Feature","geometry":{"type":"Point","coordinates":[27.384178,42.629374]},"properties":{"line":"3","mode":"bus","color":"#0059a9","colorDark":"#00294f","band":4,"off":[0,1.1]}},{"type":"Feature","geometry":{"type":"Point","coordinates":[27.488539,42.626655]},"properties":{"name":"Рудник, Яна Лъскова","band":4,"modes":"bus","arr":["6"],"off":[0,-0.8]}},{"type":"Feature","geometry":{"type":"Point","coordinates":[27.488539,42.626655]},"properties":{"line":"6","mode":"bus","color":"#0059a9","colorDark":"#00294f","band":4,"off":[0,1.1]}},{"type":"Feature","geometry":{"type":"Point","coordinates":[27.438466,42.519654]},"properties":{"name":"Терминал Славейков","band":4,"modes":"bus","arr":["9","11","12","92","Б2","Б9","Б12","Бо","Н"],"off":[0,-0.8]}},{"type":"Feature","geometry":{"type":"Point","coordinates":[27.438466,42.519654]},"properties":{"line":"9","mode":"bus","color":"#0059a9","colorDark":"#00294f","band":4,"off":[-6.8,1.1]}},{"type":"Feature","geometry":{"type":"Point","coordinates":[27.438466,42.519654]},"properties":{"line":"11","mode":"bus","color":"#0059a9","colorDark":"#00294f","band":4,"off":[-3.4,1.1]}},{"type":"Feature","geometry":{"type":"Point","coordinates":[27.438466,42.519654]},"properties":{"line":"12","mode":"bus","color":"#0059a9","colorDark":"#00294f","band":4,"off":[0,1.1]}},{"type":"Feature","geometry":{"type":"Point","coordinates":[27.438466,42.519654]},"properties":{"line":"92","mode":"bus","color":"#0059a9","colorDark":"#00294f","band":4,"off":[3.4,1.1]}},{"type":"Feature","geometry":{"type":"Point","coordinates":[27.438466,42.519654]},"properties":{"line":"Б2","mode":"bus","color":"#0059a9","colorDark":"#00294f","band":4,"off":[6.8,1.1]}},{"type":"Feature","geometry":{"type":"Point","coordinates":[27.438466,42.519654]},"properties":{"line":"Б9","mode":"bus","color":"#0059a9","colorDark":"#00294f","band":4,"off":[-5.1,3.1]}},{"type":"Feature","geometry":{"type":"Point","coordinates":[27.438466,42.519654]},"properties":{"line":"Б12","mode":"bus","color":"#0059a9","colorDark":"#00294f","band":4,"off":[-1.7,3.1]}},{"type":"Feature","geometry":{"type":"Point","coordinates":[27.438466,42.519654]},"properties":{"line":"Бо","mode":"bus","color":"#0059a9","colorDark":"#00294f","band":4,"off":[1.7,3.1]}},{"type":"Feature","geometry":{"type":"Point","coordinates":[27.438466,42.519654]},"properties":{"line":"Н","mode":"bus","color":"#0059a9","colorDark":"#00294f","band":4,"off":[5.1,3.1]}},{"type":"Feature","geometry":{"type":"Point","coordinates":[27.360524,42.516792]},"properties":{"name":"Д. Езерово, Ж.П. Гара","band":4,"modes":"bus","arr":["7"],"off":[0,-0.8]}},{"type":"Feature","geometry":{"type":"Point","coordinates":[27.360524,42.516792]},"properties":{"line":"7","mode":"bus","color":"#0059a9","colorDark":"#00294f","band":4,"off":[0,1.1]}},{"type":"Feature","geometry":{"type":"Point","coordinates":[27.408806,42.537996]},"properties":{"name":"Лозово, Роза","band":4,"modes":"bus","arr":["7А","7А1","7А2"],"off":[0,-0.8]}},{"type":"Feature","geometry":{"type":"Point","coordinates":[27.408806,42.537996]},"properties":{"line":"7А","mode":"bus","color":"#0059a9","colorDark":"#00294f","band":4,"off":[-3.4,1.1]}},{"type":"Feature","geometry":{"type":"Point","coordinates":[27.408806,42.537996]},"properties":{"line":"7А1","mode":"bus","color":"#0059a9","colorDark":"#00294f","band":4,"off":[0,1.1]}},{"type":"Feature","geometry":{"type":"Point","coordinates":[27.408806,42.537996]},"properties":{"line":"7А2","mode":"bus","color":"#0059a9","colorDark":"#00294f","band":4,"off":[3.4,1.1]}},{"type":"Feature","geometry":{"type":"Point","coordinates":[27.379485,42.485446]},"properties":{"name":"Г. Езерово, Площада","band":4,"modes":"bus","arr":["8","81","82"],"off":[0,-0.8]}},{"type":"Feature","geometry":{"type":"Point","coordinates":[27.379485,42.485446]},"properties":{"line":"8","mode":"bus","color":"#0059a9","colorDark":"#00294f","band":4,"off":[-3.4,1.1]}},{"type":"Feature","geometry":{"type":"Point","coordinates":[27.379485,42.485446]},"properties":{"line":"81","mode":"bus","color":"#0059a9","colorDark":"#00294f","band":4,"off":[0,1.1]}},{"type":"Feature","geometry":{"type":"Point","coordinates":[27.379485,42.485446]},"properties":{"line":"82","mode":"bus","color":"#0059a9","colorDark":"#00294f","band":4,"off":[3.4,1.1]}},{"type":"Feature","geometry":{"type":"Point","coordinates":[27.418703,42.451972]},"properties":{"name":"Терминал Меден рудник","band":4,"modes":"bus","arr":["9","9А","9Б","17А","92","Б1","Б2","Б11","Б12","Н","Т1"],"off":[0,-0.8]}},{"type":"Feature","geometry":{"type":"Point","coordinates":[27.418703,42.451972]},"properties":{"line":"9","mode":"bus","color":"#0059a9","colorDark":"#00294f","band":4,"off":[-6.8,1.1]}},{"type":"Feature","geometry":{"type":"Point","coordinates":[27.418703,42.451972]},"properties":{"line":"9А","mode":"bus","color":"#0059a9","colorDark":"#00294f","band":4,"off":[-3.4,1.1]}},{"type":"Feature","geometry":{"type":"Point","coordinates":[27.418703,42.451972]},"properties":{"line":"9Б","mode":"bus","color":"#0059a9","colorDark":"#00294f","band":4,"off":[0,1.1]}},{"type":"Feature","geometry":{"type":"Point","coordinates":[27.418703,42.451972]},"properties":{"line":"17А","mode":"bus","color":"#0059a9","colorDark":"#00294f","band":4,"off":[3.4,1.1]}},{"type":"Feature","geometry":{"type":"Point","coordinates":[27.418703,42.451972]},"properties":{"line":"92","mode":"bus","color":"#0059a9","colorDark":"#00294f","band":4,"off":[6.8,1.1]}},{"type":"Feature","geometry":{"type":"Point","coordinates":[27.418703,42.451972]},"properties":{"line":"Б1","mode":"bus","color":"#0059a9","colorDark":"#00294f","band":4,"off":[-6.8,3.1]}},{"type":"Feature","geometry":{"type":"Point","coordinates":[27.418703,42.451972]},"properties":{"line":"Б2","mode":"bus","color":"#0059a9","colorDark":"#00294f","band":4,"off":[-3.4,3.1]}},{"type":"Feature","geometry":{"type":"Point","coordinates":[27.418703,42.451972]},"properties":{"line":"Б11","mode":"bus","color":"#0059a9","colorDark":"#00294f","band":4,"off":[0,3.1]}},{"type":"Feature","geometry":{"type":"Point","coordinates":[27.418703,42.451972]},"properties":{"line":"Б12","mode":"bus","color":"#0059a9","colorDark":"#00294f","band":4,"off":[3.4,3.1]}},{"type":"Feature","geometry":{"type":"Point","coordinates":[27.418703,42.451972]},"properties":{"line":"Н","mode":"bus","color":"#0059a9","colorDark":"#00294f","band":4,"off":[6.8,3.1]}},{"type":"Feature","geometry":{"type":"Point","coordinates":[27.418703,42.451972]},"properties":{"line":"Т1","mode":"bus","color":"#149a3f","colorDark":"#0a5121","band":4,"off":[0,5.1]}},{"type":"Feature","geometry":{"type":"Point","coordinates":[27.413771,42.465043]},"properties":{"name":"Захари Стоянов","band":4,"modes":"bus","arr":["Бо"],"off":[0,-0.8]}},{"type":"Feature","geometry":{"type":"Point","coordinates":[27.413771,42.465043]},"properties":{"line":"Бо","mode":"bus","color":"#0059a9","colorDark":"#00294f","band":4,"off":[0,1.1]}},{"type":"Feature","geometry":{"type":"Point","coordinates":[27.392344,42.450973]},"properties":{"name":"Върли бряг, Площада","band":4,"modes":"bus","arr":["9А"],"off":[0,-0.8]}},{"type":"Feature","geometry":{"type":"Point","coordinates":[27.392344,42.450973]},"properties":{"line":"9А","mode":"bus","color":"#0059a9","colorDark":"#00294f","band":4,"off":[0,1.1]}},{"type":"Feature","geometry":{"type":"Point","coordinates":[27.413668,42.464779]},"properties":{"name":"Захари Стоянов","band":4,"modes":"bus","arr":["Б9","Бо"],"off":[0,-0.8]}},{"type":"Feature","geometry":{"type":"Point","coordinates":[27.413668,42.464779]},"properties":{"line":"Б9","mode":"bus","color":"#0059a9","colorDark":"#00294f","band":4,"off":[-1.7,1.1]}},{"type":"Feature","geometry":{"type":"Point","coordinates":[27.413668,42.464779]},"properties":{"line":"Бо","mode":"bus","color":"#0059a9","colorDark":"#00294f","band":4,"off":[1.7,1.1]}},{"type":"Feature","geometry":{"type":"Point","coordinates":[27.393349,42.461178]},"properties":{"name":"Шилото","band":4,"modes":"bus","arr":["9Б"],"off":[0,-0.8]}},{"type":"Feature","geometry":{"type":"Point","coordinates":[27.393349,42.461178]},"properties":{"line":"9Б","mode":"bus","color":"#0059a9","colorDark":"#00294f","band":4,"off":[0,1.1]}},{"type":"Feature","geometry":{"type":"Point","coordinates":[27.473925,42.49026]},"properties":{"name":"Автогара Юг","band":4,"modes":"bus","arr":["15","15А"],"off":[0,-0.8]}},{"type":"Feature","geometry":{"type":"Point","coordinates":[27.473925,42.49026]},"properties":{"line":"15","mode":"bus","color":"#0059a9","colorDark":"#00294f","band":4,"off":[-1.7,1.1]}},{"type":"Feature","geometry":{"type":"Point","coordinates":[27.473925,42.49026]},"properties":{"line":"15А","mode":"bus","color":"#0059a9","colorDark":"#00294f","band":4,"off":[1.7,1.1]}},{"type":"Feature","geometry":{"type":"Point","coordinates":[27.526204,42.563005]},"properties":{"name":"Сарафово, Ради Николов","band":4,"modes":"bus","arr":["15","15А"],"off":[0,-0.8]}},{"type":"Feature","geometry":{"type":"Point","coordinates":[27.526204,42.563005]},"properties":{"line":"15","mode":"bus","color":"#0059a9","colorDark":"#00294f","band":4,"off":[-1.7,1.1]}},{"type":"Feature","geometry":{"type":"Point","coordinates":[27.526204,42.563005]},"properties":{"line":"15А","mode":"bus","color":"#0059a9","colorDark":"#00294f","band":4,"off":[1.7,1.1]}},{"type":"Feature","geometry":{"type":"Point","coordinates":[27.474577,42.490721]},"properties":{"name":"Терминал Юг","band":4,"modes":"bus","arr":["15","15А","17"],"off":[0,-0.8]}},{"type":"Feature","geometry":{"type":"Point","coordinates":[27.474577,42.490721]},"properties":{"line":"15","mode":"bus","color":"#0059a9","colorDark":"#00294f","band":4,"off":[-3.4,1.1]}},{"type":"Feature","geometry":{"type":"Point","coordinates":[27.474577,42.490721]},"properties":{"line":"15А","mode":"bus","color":"#0059a9","colorDark":"#00294f","band":4,"off":[0,1.1]}},{"type":"Feature","geometry":{"type":"Point","coordinates":[27.474577,42.490721]},"properties":{"line":"17","mode":"bus","color":"#0059a9","colorDark":"#00294f","band":4,"off":[3.4,1.1]}},{"type":"Feature","geometry":{"type":"Point","coordinates":[27.487526,42.44538]},"properties":{"name":"Крайморие","band":4,"modes":"bus","arr":["17","17А"],"off":[0,-0.8]}},{"type":"Feature","geometry":{"type":"Point","coordinates":[27.487526,42.44538]},"properties":{"line":"17","mode":"bus","color":"#0059a9","colorDark":"#00294f","band":4,"off":[-1.7,1.1]}},{"type":"Feature","geometry":{"type":"Point","coordinates":[27.487526,42.44538]},"properties":{"line":"17А","mode":"bus","color":"#0059a9","colorDark":"#00294f","band":4,"off":[1.7,1.1]}},{"type":"Feature","geometry":{"type":"Point","coordinates":[27.45945,42.529279]},"properties":{"name":"Терминал Изгрев","band":4,"modes":"bus","arr":["Б1","Б11"],"off":[0,-0.8]}},{"type":"Feature","geometry":{"type":"Point","coordinates":[27.45945,42.529279]},"properties":{"line":"Б1","mode":"bus","color":"#0059a9","colorDark":"#00294f","band":4,"off":[-1.7,1.1]}},{"type":"Feature","geometry":{"type":"Point","coordinates":[27.45945,42.529279]},"properties":{"line":"Б11","mode":"bus","color":"#0059a9","colorDark":"#00294f","band":4,"off":[1.7,1.1]}}]}