{"type":"FeatureCollection","features":[{"type":"Feature","properties":{"mode":"bus","n":10,"arr":["3","6","11","15","15А","Б1","Б2","Б11","Б12","Н"],"lines":"3, 6, 11, 15, 15А, Б1, Б2, Б11, Б12, Н"},"geometry":{"type":"LineString","coordinates":[[27.464351,42.513279],[27.463178,42.51466],[27.461508,42.516796],[27.461421,42.516967],[27.461395,42.517115],[27.46142,42.517195]]}},{"type":"Feature","properties":{"mode":"bus","n":10,"arr":["3","6","11","15","15А","Б1","Б2","Б11","Б12","Н"],"lines":"3, 6, 11, 15, 15А, Б1, Б2, Б11, Б12, Н"},"geometry":{"type":"LineString","coordinates":[[27.460923,42.517663],[27.46085,42.517666]]}},{"type":"Feature","properties":{"mode":"bus","n":10,"arr":["3","6","11","15","15А","Б1","Б2","Б11","Б12","Н"],"lines":"3, 6, 11, 15, 15А, Б1, Б2, Б11, Б12, Н"},"geometry":{"type":"LineString","coordinates":[[27.460322,42.517386],[27.460293,42.517208],[27.460365,42.51704],[27.460525,42.51691],[27.460776,42.516834],[27.461018,42.51666],[27.461594,42.516056]]}},{"type":"Feature","properties":{"mode":"bus","n":7,"arr":["3","11","15","15А","Б2","Б12","Н"],"lines":"3, 11, 15, 15А, Б2, Б12, Н"},"geometry":{"type":"LineString","coordinates":[[27.46142,42.517195],[27.461395,42.517382],[27.461262,42.517541],[27.461162,42.517601],[27.460923,42.517663]]}},{"type":"Feature","properties":{"mode":"bus","n":6,"arr":["3","11","15","15А","92","Б12"],"lines":"3, 11, 15, 15А, 92, Б12"},"geometry":{"type":"LineString","coordinates":[[27.452208,42.526713],[27.452249,42.52669]]}},{"type":"Feature","properties":{"mode":"bus","n":6,"arr":["3","11","15","15А","92","Б12"],"lines":"3, 11, 15, 15А, 92, Б12"},"geometry":{"type":"LineString","coordinates":[[27.452827,42.526909],[27.452816,42.526985]]}},{"type":"Feature","properties":{"mode":"bus","n":6,"arr":["3","12","15","15А","92","Б12"],"lines":"3, 12, 15, 15А, 92, Б12"},"geometry":{"type":"LineString","coordinates":[[27.452315,42.527506],[27.452195,42.527544]]}},{"type":"Feature","properties":{"mode":"bus","n":6,"arr":["3","12","15","15А","92","Б12"],"lines":"3, 12, 15, 15А, 92, Б12"},"geometry":{"type":"LineString","coordinates":[[27.451775,42.527283],[27.451776,42.527242]]}},{"type":"Feature","properties":{"mode":"bus","n":5,"arr":["12","15","15А","92","Б12"],"lines":"12, 15, 15А, 92, Б12"},"geometry":{"type":"LineString","coordinates":[[27.452195,42.527544],[27.451928,42.527461],[27.451827,42.527382],[27.451775,42.527283]]}},{"type":"Feature","properties":{"mode":"bus","n":7,"arr":["7","7А","7А2","9","12","Б9","Бо"],"lines":"7, 7А, 7А2, 9, 12, Б9, Бо"},"geometry":{"type":"LineString","coordinates":[[27.462375,42.505108],[27.462209,42.505073]]}},{"type":"Feature","properties":{"mode":"bus","n":5,"arr":["7А","7А2","9","12","Б9"],"lines":"7А, 7А2, 9, 12, Б9"},"geometry":{"type":"LineString","coordinates":[[27.462209,42.505073],[27.462096,42.504952]]}},{"type":"Feature","properties":{"mode":"bus","n":5,"arr":["7А","7А2","9","12","Б9"],"lines":"7А, 7А2, 9, 12, Б9"},"geometry":{"type":"LineString","coordinates":[[27.447906,42.516588],[27.448904,42.516137],[27.450192,42.515609],[27.453456,42.514204],[27.457463,42.512375]]}},{"type":"Feature","properties":{"mode":"bus","n":5,"arr":["7А","7А2","9","12","Б9"],"lines":"7А, 7А2, 9, 12, Б9"},"geometry":{"type":"LineString","coordinates":[[27.462834,42.505929],[27.46253,42.505242],[27.462428,42.505125],[27.462375,42.505108]]}},{"type":"Feature","properties":{"mode":"bus","n":7,"arr":["7","7А","7А2","9","11","12","Б9"],"lines":"7, 7А, 7А2, 9, 11, 12, Б9"},"geometry":{"type":"LineString","coordinates":[[27.462096,42.504952],[27.462109,42.504832],[27.462213,42.504739]]}},{"type":"Feature","properties":{"mode":"bus","n":5,"arr":["7","7А","7А2","9","11"],"lines":"7, 7А, 7А2, 9, 11"},"geometry":{"type":"LineString","coordinates":[[27.462213,42.504739],[27.462321,42.504708],[27.462436,42.504714]]}},{"type":"Feature","properties":{"mode":"bus","n":6,"arr":["7","7А","7А2","9","11","Бо"],"lines":"7, 7А, 7А2, 9, 11, Бо"},"geometry":{"type":"LineString","coordinates":[[27.462512,42.504739],[27.462436,42.504714]]}},{"type":"Feature","properties":{"mode":"bus","n":7,"arr":["7","7А","7А2","11","92","Б12","Бо"],"lines":"7, 7А, 7А2, 11, 92, Б12, Бо"},"geometry":{"type":"LineString","coordinates":[[27.439977,42.520368],[27.439859,42.520237]]}},{"type":"Feature","properties":{"mode":"bus","n":11,"arr":["7","7А","7А1","7А2","9","11","92","Б2","Б12","Бо","Н"],"lines":"7, 7А, 7А1, 7А2, 9, 11, 92, Б2, Б12, Бо, Н"},"geometry":{"type":"LineString","coordinates":[[27.439986,42.520468],[27.439977,42.520368]]}},{"type":"Feature","properties":{"mode":"bus","n":10,"arr":["7","7А","7А1","7А2","9","11","92","Б2","Бо","Н"],"lines":"7, 7А, 7А1, 7А2, 9, 11, 92, Б2, Бо, Н"},"geometry":{"type":"LineString","coordinates":[[27.439818,42.520649],[27.43993,42.520573],[27.439986,42.520468]]}},{"type":"Feature","properties":{"mode":"bus","n":12,"arr":["7","7А","7А1","7А2","9","11","12","92","Б2","Б12","Бо","Н"],"lines":"7, 7А, 7А1, 7А2, 9, 11, 12, 92, Б2, Б12, Бо, Н"},"geometry":{"type":"LineString","coordinates":[[27.439818,42.520649],[27.439669,42.520682],[27.439516,42.520661],[27.439387,42.520589],[27.439319,42.520481]]}},{"type":"Feature","properties":{"mode":"bus","n":12,"arr":["7","7А","7А1","7А2","9","11","12","92","Б2","Б12","Бо","Н"],"lines":"7, 7А, 7А1, 7А2, 9, 11, 12, 92, Б2, Б12, Бо, Н"},"geometry":{"type":"LineString","coordinates":[[27.439323,42.520369],[27.439266,42.520228],[27.438959,42.519958],[27.438695,42.519636],[27.438428,42.519138],[27.438333,42.519025],[27.438233,42.518998],[27.438132,42.519027]]}},{"type":"Feature","properties":{"mode":"bus","n":13,"arr":["7","7А","7А1","7А2","9","11","12","92","Б2","Б9","Б12","Бо","Н"],"lines":"7, 7А, 7А1, 7А2, 9, 11, 12, 92, Б2, Б9, Б12, Бо, Н"},"geometry":{"type":"LineString","coordinates":[[27.439323,42.520369],[27.439319,42.520481],[27.439218,42.520645],[27.438997,42.520764],[27.438971,42.520774],[27.438943,42.520776],[27.438914,42.520769],[27.438803,42.520728],[27.438622,42.52047],[27.438568,42.51982],[27.438464,42.519651]]}},{"type":"Feature","properties":{"mode":"bus","n":11,"arr":["7","7А","7А2","9","11","12","92","Б2","Б9","Б12","Н"],"lines":"7, 7А, 7А2, 9, 11, 12, 92, Б2, Б9, Б12, Н"},"geometry":{"type":"LineString","coordinates":[[27.439521,42.520203],[27.439369,42.520296],[27.439323,42.520369]]}},{"type":"Feature","properties":{"mode":"bus","n":12,"arr":["7","7А","7А2","9","11","12","92","Б2","Б9","Б12","Бо","Н"],"lines":"7, 7А, 7А2, 9, 11, 12, 92, Б2, Б9, Б12, Бо, Н"},"geometry":{"type":"LineString","coordinates":[[27.439859,42.520237],[27.439696,42.520186],[27.439521,42.520203]]}},{"type":"Feature","properties":{"mode":"bus","n":7,"arr":["9","17А","92","Б1","Б2","Бо","Н"],"lines":"9, 17А, 92, Б1, Б2, Бо, Н"},"geometry":{"type":"LineString","coordinates":[[27.436138,42.474362],[27.436272,42.474212],[27.436321,42.473968]]}},{"type":"Feature","properties":{"mode":"bus","n":13,"arr":["8","9","17","17А","81","92","Б1","Б2","Б11","Б12","Бо","Н","Т1"],"lines":"8, 9, 17, 17А, 81, 92, Б1, Б2, Б11, Б12, Бо, Н, Т1"},"geometry":{"type":"LineString","coordinates":[[27.435999,42.474444],[27.436138,42.474362]]}},{"type":"Feature","properties":{"mode":"bus","n":7,"arr":["8","17","17А","81","Б11","Б12","Т1"],"lines":"8, 17, 17А, 81, Б11, Б12, Т1"},"geometry":{"type":"LineString","coordinates":[[27.435034,42.474191],[27.435162,42.474384],[27.435281,42.474455],[27.435451,42.474508],[27.435617,42.474527],[27.435779,42.474516],[27.435999,42.474444]]}},{"type":"Feature","properties":{"mode":"bus","n":13,"arr":["8","9","17","17А","81","Б1","Б2","Б9","Б11","Б12","Бо","Н","Т1"],"lines":"8, 9, 17, 17А, 81, Б1, Б2, Б9, Б11, Б12, Бо, Н, Т1"},"geometry":{"type":"LineString","coordinates":[[27.435034,42.474191],[27.434975,42.47392]]}},{"type":"Feature","properties":{"mode":"bus","n":13,"arr":["8","9","17","17А","82","92","Б1","Б2","Б11","Б12","Бо","Н","Т1"],"lines":"8, 9, 17, 17А, 82, 92, Б1, Б2, Б11, Б12, Бо, Н, Т1"},"geometry":{"type":"LineString","coordinates":[[27.435314,42.473262],[27.435353,42.473249]]}},{"type":"Feature","properties":{"mode":"bus","n":13,"arr":["8","9","17","17А","82","92","Б1","Б2","Б11","Б12","Бо","Н","Т1"],"lines":"8, 9, 17, 17А, 82, 92, Б1, Б2, Б11, Б12, Бо, Н, Т1"},"geometry":{"type":"LineString","coordinates":[[27.436321,42.473968],[27.436318,42.473677],[27.436245,42.473452]]}},{"type":"Feature","properties":{"mode":"bus","n":11,"arr":["8","9","82","92","Б1","Б2","Б11","Б12","Бо","Н","Т1"],"lines":"8, 9, 82, 92, Б1, Б2, Б11, Б12, Бо, Н, Т1"},"geometry":{"type":"LineString","coordinates":[[27.436245,42.473452],[27.436038,42.473281],[27.435847,42.473201],[27.435543,42.473187],[27.435353,42.473249]]}},{"type":"Feature","properties":{"mode":"bus","n":7,"arr":["3","6","7","7А","7А1","8","81"],"lines":"3, 6, 7, 7А, 7А1, 8, 81"},"geometry":{"type":"LineString","coordinates":[[27.459131,42.502876],[27.459067,42.503078]]}},{"type":"Feature","properties":{"mode":"bus","n":7,"arr":["3","6","7","7А","7А1","8","81"],"lines":"3, 6, 7, 7А, 7А1, 8, 81"},"geometry":{"type":"LineString","coordinates":[[27.467305,42.502387],[27.467219,42.502331],[27.46712,42.502312],[27.459061,42.500818],[27.458846,42.500821],[27.458598,42.500876],[27.45849,42.500956],[27.458362,42.501137]]}},{"type":"Feature","properties":{"mode":"bus","n":11,"arr":["3","6","7","7А","7А1","7А2","8","11","12","81","82"],"lines":"3, 6, 7, 7А, 7А1, 7А2, 8, 11, 12, 81, 82"},"geometry":{"type":"LineString","coordinates":[[27.458341,42.501286],[27.458025,42.502296]]}},{"type":"Feature","properties":{"mode":"bus","n":8,"arr":["3","6","7","7А","7А2","8","11","82"],"lines":"3, 6, 7, 7А, 7А2, 8, 11, 82"},"geometry":{"type":"LineString","coordinates":[[27.458025,42.502296],[27.457711,42.502642],[27.457312,42.503209]]}},{"type":"Feature","properties":{"mode":"bus","n":8,"arr":["3","6","7","7А","7А2","8","11","82"],"lines":"3, 6, 7, 7А, 7А2, 8, 11, 82"},"geometry":{"type":"LineString","coordinates":[[27.458732,42.500916],[27.458539,42.501062],[27.458341,42.501286]]}},{"type":"Feature","properties":{"mode":"bus","n":6,"arr":["3","6","7","7А","8","11"],"lines":"3, 6, 7, 7А, 8, 11"},"geometry":{"type":"LineString","coordinates":[[27.457312,42.503209],[27.457256,42.503334]]}},{"type":"Feature","properties":{"mode":"bus","n":8,"arr":["3","6","7","7А","7А1","8","12","81"],"lines":"3, 6, 7, 7А, 7А1, 8, 12, 81"},"geometry":{"type":"LineString","coordinates":[[27.458362,42.501137],[27.458341,42.501286]]}},{"type":"Feature","properties":{"mode":"bus","n":8,"arr":["3","6","8","81","82","Б1","Б2","Н"],"lines":"3, 6, 8, 81, 82, Б1, Б2, Н"},"geometry":{"type":"LineString","coordinates":[[27.470168,42.502963],[27.467305,42.502387]]}},{"type":"Feature","properties":{"mode":"bus","n":7,"arr":["3","6","8","81","82","Б2","Н"],"lines":"3, 6, 8, 81, 82, Б2, Н"},"geometry":{"type":"LineString","coordinates":[[27.470168,42.502963],[27.47028,42.502986]]}},{"type":"Feature","properties":{"mode":"bus","n":5,"arr":["3","6","8","81","82"],"lines":"3, 6, 8, 81, 82"},"geometry":{"type":"LineString","coordinates":[[27.47369,42.503641],[27.472914,42.503474],[27.47028,42.502986]]}},{"type":"Feature","properties":{"mode":"bus","n":6,"arr":["3","6","15","15А","Б11","Б12"],"lines":"3, 6, 15, 15А, Б11, Б12"},"geometry":{"type":"LineString","coordinates":[[27.466244,42.510911],[27.467641,42.510368],[27.467985,42.510175],[27.468462,42.509739],[27.470917,42.507267],[27.473621,42.50475],[27.474178,42.50419]]}},{"type":"Feature","properties":{"mode":"bus","n":6,"arr":["3","6","15","15А","Б11","Б12"],"lines":"3, 6, 15, 15А, Б11, Б12"},"geometry":{"type":"LineString","coordinates":[[27.471245,42.507149],[27.468141,42.510192],[27.46778,42.510449],[27.467443,42.510646],[27.466251,42.511254]]}},{"type":"Feature","properties":{"mode":"bus","n":7,"arr":["3","6","15","15А","Б11","Б12","Н"],"lines":"3, 6, 15, 15А, Б11, Б12, Н"},"geometry":{"type":"LineString","coordinates":[[27.466251,42.511254],[27.465673,42.511782],[27.46469,42.512935],[27.464351,42.513279]]}},{"type":"Feature","properties":{"mode":"bus","n":6,"arr":["3","15","15А","Б2","Б12","Н"],"lines":"3, 15, 15А, Б2, Б12, Н"},"geometry":{"type":"LineString","coordinates":[[27.46085,42.517666],[27.458633,42.519947],[27.457359,42.521417]]}},{"type":"Feature","properties":{"mode":"bus","n":6,"arr":["3","15","15А","Б2","Б12","Н"],"lines":"3, 15, 15А, Б2, Б12, Н"},"geometry":{"type":"LineString","coordinates":[[27.456554,42.522078],[27.458374,42.519987],[27.460322,42.517386]]}},{"type":"Feature","properties":{"mode":"bus","n":9,"arr":["3","6","15","15А","Б1","Б2","Б11","Б12","Н"],"lines":"3, 6, 15, 15А, Б1, Б2, Б11, Б12, Н"},"geometry":{"type":"LineString","coordinates":[[27.461594,42.516056],[27.461978,42.515648]]}},{"type":"Feature","properties":{"mode":"bus","n":9,"arr":["3","6","15","15А","Б1","Б2","Б11","Б12","Н"],"lines":"3, 6, 15, 15А, Б1, Б2, Б11, Б12, Н"},"geometry":{"type":"LineString","coordinates":[[27.464389,42.513031],[27.465006,42.51238],[27.466244,42.510911]]}},{"type":"Feature","properties":{"mode":"bus","n":10,"arr":["3","6","12","15","15А","Б1","Б2","Б11","Б12","Н"],"lines":"3, 6, 12, 15, 15А, Б1, Б2, Б11, Б12, Н"},"geometry":{"type":"LineString","coordinates":[[27.461978,42.515648],[27.462783,42.514838],[27.464389,42.513031]]}},{"type":"Feature","properties":{"mode":"bus","n":8,"arr":["3","6","8","82","Б1","Б2","Н","Т1"],"lines":"3, 6, 8, 82, Б1, Б2, Н, Т1"},"geometry":{"type":"LineString","coordinates":[[27.467305,42.502387],[27.467201,42.502382]]}},{"type":"Feature","properties":{"mode":"bus","n":8,"arr":["3","6","7","7А","7А2","8","82","Т1"],"lines":"3, 6, 7, 7А, 7А2, 8, 82, Т1"},"geometry":{"type":"LineString","coordinates":[[27.467201,42.502382],[27.459311,42.500929],[27.459067,42.500901],[27.458732,42.500916]]}},{"type":"Feature","properties":{"mode":"bus","n":7,"arr":["6","7","7А","7А1","8","12","81"],"lines":"6, 7, 7А, 7А1, 8, 12, 81"},"geometry":{"type":"LineString","coordinates":[[27.458025,42.502296],[27.459131,42.502876]]}},{"type":"Feature","properties":{"mode":"bus","n":5,"arr":["6","15","15А","Б11","Б12"],"lines":"6, 15, 15А, Б11, Б12"},"geometry":{"type":"LineString","coordinates":[[27.474776,42.503799],[27.472659,42.505771],[27.471245,42.507149]]}},{"type":"Feature","properties":{"mode":"bus","n":5,"arr":["7","7А","7А1","9","92"],"lines":"7, 7А, 7А1, 9, 92"},"geometry":{"type":"LineString","coordinates":[[27.467209,42.502507],[27.467305,42.502387]]}},{"type":"Feature","properties":{"mode":"bus","n":5,"arr":["7","7А","7А1","9","92"],"lines":"7, 7А, 7А1, 9, 92"},"geometry":{"type":"LineString","coordinates":[[27.46332,42.504549],[27.46354,42.50441]]}},{"type":"Feature","properties":{"mode":"bus","n":6,"arr":["7","7А","7А1","7А2","9","92"],"lines":"7, 7А, 7А1, 7А2, 9, 92"},"geometry":{"type":"LineString","coordinates":[[27.46354,42.50441],[27.466965,42.50289],[27.467079,42.50282],[27.467123,42.502764],[27.467209,42.502507]]}},{"type":"Feature","properties":{"mode":"bus","n":7,"arr":["7","7А","7А1","7А2","92","Б2","Н"],"lines":"7, 7А, 7А1, 7А2, 92, Б2, Н"},"geometry":{"type":"LineString","coordinates":[[27.438132,42.519027],[27.438104,42.519052]]}},{"type":"Feature","properties":{"mode":"bus","n":5,"arr":["7","7А","7А1","7А2","92"],"lines":"7, 7А, 7А1, 7А2, 92"},"geometry":{"type":"LineString","coordinates":[[27.438464,42.519651],[27.438102,42.51924],[27.438066,42.519135],[27.438104,42.519052]]}},{"type":"Feature","properties":{"mode":"bus","n":5,"arr":["7А","7А1","9","11","92"],"lines":"7А, 7А1, 9, 11, 92"},"geometry":{"type":"LineString","coordinates":[[27.462834,42.505929],[27.462799,42.505623],[27.462698,42.505264]]}},{"type":"Feature","properties":{"mode":"bus","n":5,"arr":["7А","7А1","9","11","92"],"lines":"7А, 7А1, 9, 11, 92"},"geometry":{"type":"LineString","coordinates":[[27.447714,42.516864],[27.449301,42.51617],[27.45278,42.514586],[27.453784,42.514156],[27.457527,42.51244]]}},{"type":"Feature","properties":{"mode":"bus","n":8,"arr":["7А","7А1","7А2","9","11","12","92","Б9"],"lines":"7А, 7А1, 7А2, 9, 11, 12, 92, Б9"},"geometry":{"type":"LineString","coordinates":[[27.463733,42.509591],[27.462834,42.505929]]}},{"type":"Feature","properties":{"mode":"bus","n":6,"arr":["7А","7А1","7А2","9","92","Б9"],"lines":"7А, 7А1, 7А2, 9, 92, Б9"},"geometry":{"type":"LineString","coordinates":[[27.457886,42.512236],[27.461741,42.510395],[27.463733,42.509591]]}},{"type":"Feature","properties":{"mode":"bus","n":7,"arr":["7А","7А1","9","11","92","Б2","Н"],"lines":"7А, 7А1, 9, 11, 92, Б2, Н"},"geometry":{"type":"LineString","coordinates":[[27.439977,42.520368],[27.440173,42.520241],[27.440808,42.519953],[27.441596,42.519726],[27.444654,42.518271],[27.446303,42.517536],[27.447714,42.516864]]}},{"type":"Feature","properties":{"mode":"bus","n":7,"arr":["7А","7А2","9","12","Б2","Б9","Н"],"lines":"7А, 7А2, 9, 12, Б2, Б9, Н"},"geometry":{"type":"LineString","coordinates":[[27.439859,42.520237],[27.439998,42.520224],[27.440117,42.52018],[27.44151,42.519544],[27.442924,42.519017],[27.446173,42.517503],[27.446452,42.517363],[27.447042,42.516973],[27.447906,42.516588]]}},{"type":"Feature","properties":{"mode":"bus","n":6,"arr":["8","15","15А","81","Б11","Б12"],"lines":"8, 15, 15А, 81, Б11, Б12"},"geometry":{"type":"LineString","coordinates":[[27.474641,42.503774],[27.476246,42.502232]]}},{"type":"Feature","properties":{"mode":"bus","n":7,"arr":["8","11","15","15А","81","Б11","Б12"],"lines":"8, 11, 15, 15А, 81, Б11, Б12"},"geometry":{"type":"LineString","coordinates":[[27.479273,42.499268],[27.477154,42.501347]]}},{"type":"Feature","properties":{"mode":"bus","n":7,"arr":["8","11","15","15А","81","Б11","Б12"],"lines":"8, 11, 15, 15А, 81, Б11, Б12"},"geometry":{"type":"LineString","coordinates":[[27.479746,42.492852],[27.479787,42.492948]]}},{"type":"Feature","properties":{"mode":"bus","n":5,"arr":["8","15","81","Б11","Б12"],"lines":"8, 15, 81, Б11, Б12"},"geometry":{"type":"LineString","coordinates":[[27.476246,42.502232],[27.476163,42.502187]]}},{"type":"Feature","properties":{"mode":"bus","n":6,"arr":["8","11","15","81","Б11","Б12"],"lines":"8, 11, 15, 81, Б11, Б12"},"geometry":{"type":"LineString","coordinates":[[27.476163,42.502187],[27.476993,42.501377],[27.477154,42.501347]]}},{"type":"Feature","properties":{"mode":"bus","n":5,"arr":["8","15","15А","Б11","Б12"],"lines":"8, 15, 15А, Б11, Б12"},"geometry":{"type":"LineString","coordinates":[[27.480033,42.498641],[27.479943,42.498769],[27.479381,42.499323]]}},{"type":"Feature","properties":{"mode":"bus","n":7,"arr":["8","12","15","15А","82","Б11","Б12"],"lines":"8, 12, 15, 15А, 82, Б11, Б12"},"geometry":{"type":"LineString","coordinates":[[27.480033,42.498641],[27.480188,42.498004],[27.480455,42.496288],[27.480703,42.49511]]}},{"type":"Feature","properties":{"mode":"bus","n":7,"arr":["8","12","15","15А","82","Б11","Б12"],"lines":"8, 12, 15, 15А, 82, Б11, Б12"},"geometry":{"type":"LineString","coordinates":[[27.479881,42.492879],[27.479746,42.492852]]}},{"type":"Feature","properties":{"mode":"bus","n":6,"arr":["8","12","15","15А","82","Б11"],"lines":"8, 12, 15, 15А, 82, Б11"},"geometry":{"type":"LineString","coordinates":[[27.480703,42.49511],[27.480881,42.494312],[27.480868,42.494089],[27.480706,42.493751],[27.479881,42.492879]]}},{"type":"Feature","properties":{"mode":"bus","n":9,"arr":["8","11","12","15","15А","81","82","Б11","Б12"],"lines":"8, 11, 12, 15, 15А, 81, 82, Б11, Б12"},"geometry":{"type":"LineString","coordinates":[[27.479746,42.492852],[27.479315,42.492441],[27.478952,42.492234],[27.47879,42.492169],[27.476273,42.491497],[27.475422,42.491367]]}},{"type":"Feature","properties":{"mode":"bus","n":6,"arr":["8","11","12","17","Б1","Б2"],"lines":"8, 11, 12, 17, Б1, Б2"},"geometry":{"type":"LineString","coordinates":[[27.473382,42.491266],[27.473515,42.490866],[27.473577,42.490789],[27.473674,42.490738],[27.473805,42.490722],[27.475432,42.490715]]}},{"type":"Feature","properties":{"mode":"bus","n":11,"arr":["8","11","12","17","81","82","Б1","Б2","Б11","Б12","Н"],"lines":"8, 11, 12, 17, 81, 82, Б1, Б2, Б11, Б12, Н"},"geometry":{"type":"LineString","coordinates":[[27.471936,42.491303],[27.472678,42.491241],[27.473382,42.491266]]}},{"type":"Feature","properties":{"mode":"bus","n":14,"arr":["8","9","11","12","17","81","82","92","Б1","Б2","Б11","Б12","Н","Т1"],"lines":"8, 9, 11, 12, 17, 81, 82, 92, Б1, Б2, Б11, Б12, Н, Т1"},"geometry":{"type":"LineString","coordinates":[[27.471936,42.491303],[27.471706,42.491307],[27.471157,42.491202],[27.467193,42.490324],[27.466933,42.49029],[27.466532,42.490275],[27.464716,42.49053],[27.46445,42.490585],[27.463003,42.491019],[27.461752,42.491429]]}},{"type":"Feature","properties":{"mode":"bus","n":13,"arr":["8","9","12","17","81","82","92","Б1","Б2","Б11","Б12","Н","Т1"],"lines":"8, 9, 12, 17, 81, 82, 92, Б1, Б2, Б11, Б12, Н, Т1"},"geometry":{"type":"LineString","coordinates":[[27.461752,42.491429],[27.461371,42.491553]]}},{"type":"Feature","properties":{"mode":"bus","n":9,"arr":["8","9","17","82","92","Б11","Б12","Н","Т1"],"lines":"8, 9, 17, 82, 92, Б11, Б12, Н, Т1"},"geometry":{"type":"LineString","coordinates":[[27.461135,42.4915],[27.457141,42.490715],[27.455527,42.490453],[27.454898,42.490279]]}},{"type":"Feature","properties":{"mode":"bus","n":10,"arr":["8","9","17","82","92","Б2","Б11","Б12","Н","Т1"],"lines":"8, 9, 17, 82, 92, Б2, Б11, Б12, Н, Т1"},"geometry":{"type":"LineString","coordinates":[[27.461278,42.491539],[27.461135,42.4915]]}},{"type":"Feature","properties":{"mode":"bus","n":11,"arr":["8","9","12","17","82","92","Б2","Б11","Б12","Н","Т1"],"lines":"8, 9, 12, 17, 82, 92, Б2, Б11, Б12, Н, Т1"},"geometry":{"type":"LineString","coordinates":[[27.461371,42.491553],[27.461278,42.491539]]}},{"type":"Feature","properties":{"mode":"bus","n":7,"arr":["8","9","17","82","Б11","Б12","Т1"],"lines":"8, 9, 17, 82, Б11, Б12, Т1"},"geometry":{"type":"LineString","coordinates":[[27.454898,42.490279],[27.454772,42.490251]]}},{"type":"Feature","properties":{"mode":"bus","n":8,"arr":["8","9","17","81","82","Б11","Б12","Т1"],"lines":"8, 9, 17, 81, 82, Б11, Б12, Т1"},"geometry":{"type":"LineString","coordinates":[[27.454772,42.490251],[27.454722,42.490225]]}},{"type":"Feature","properties":{"mode":"bus","n":7,"arr":["8","17","81","82","Б11","Б12","Т1"],"lines":"8, 17, 81, 82, Б11, Б12, Т1"},"geometry":{"type":"LineString","coordinates":[[27.454722,42.490225],[27.448218,42.486385],[27.446221,42.485172],[27.442976,42.483291],[27.442088,42.482752],[27.441851,42.482552],[27.441507,42.48222],[27.441043,42.481486],[27.439212,42.476858],[27.439036,42.476494]]}},{"type":"Feature","properties":{"mode":"bus","n":7,"arr":["8","17","81","82","Б11","Б12","Т1"],"lines":"8, 17, 81, 82, Б11, Б12, Т1"},"geometry":{"type":"LineString","coordinates":[[27.438528,42.475984],[27.436654,42.474429]]}},{"type":"Feature","properties":{"mode":"bus","n":6,"arr":["8","17","81","Б11","Б12","Т1"],"lines":"8, 17, 81, Б11, Б12, Т1"},"geometry":{"type":"LineString","coordinates":[[27.439036,42.476494],[27.438834,42.47624],[27.438528,42.475984]]}},{"type":"Feature","properties":{"mode":"bus","n":6,"arr":["8","17","81","Б11","Б12","Т1"],"lines":"8, 17, 81, Б11, Б12, Т1"},"geometry":{"type":"LineString","coordinates":[[27.436138,42.474362],[27.436394,42.474335],[27.436467,42.474346],[27.436654,42.474429]]}},{"type":"Feature","properties":{"mode":"bus","n":12,"arr":["8","9","17А","81","Б1","Б2","Б9","Б11","Б12","Бо","Н","Т1"],"lines":"8, 9, 17А, 81, Б1, Б2, Б9, Б11, Б12, Бо, Н, Т1"},"geometry":{"type":"LineString","coordinates":[[27.434975,42.47392],[27.434868,42.473642],[27.434741,42.47347],[27.434484,42.473329],[27.434312,42.473296],[27.431293,42.472949],[27.427948,42.472612]]}},{"type":"Feature","properties":{"mode":"bus","n":10,"arr":["9","17А","Б1","Б2","Б9","Б11","Б12","Бо","Н","Т1"],"lines":"9, 17А, Б1, Б2, Б9, Б11, Б12, Бо, Н, Т1"},"geometry":{"type":"LineString","coordinates":[[27.427948,42.472612],[27.427339,42.472472],[27.42677,42.472277],[27.426198,42.471994],[27.42585,42.471794],[27.42548,42.471531],[27.424907,42.470987],[27.423494,42.469115],[27.423123,42.468751],[27.42258,42.468374],[27.422041,42.468079],[27.421587,42.467911],[27.420898,42.467722],[27.419785,42.467562]]}},{"type":"Feature","properties":{"mode":"bus","n":12,"arr":["8","9","17А","82","92","Б1","Б2","Б11","Б12","Бо","Н","Т1"],"lines":"8, 9, 17А, 82, 92, Б1, Б2, Б11, Б12, Бо, Н, Т1"},"geometry":{"type":"LineString","coordinates":[[27.426736,42.472156],[27.427631,42.47243],[27.428084,42.472519],[27.428379,42.472538],[27.429886,42.472518],[27.430612,42.472561],[27.432693,42.47293],[27.435031,42.473257],[27.435314,42.473262]]}},{"type":"Feature","properties":{"mode":"bus","n":6,"arr":["8","17","82","Б11","Б12","Т1"],"lines":"8, 17, 82, Б11, Б12, Т1"},"geometry":{"type":"LineString","coordinates":[[27.436654,42.474429],[27.436388,42.474091],[27.436321,42.473968]]}},{"type":"Feature","properties":{"mode":"bus","n":10,"arr":["8","11","17","81","82","Б1","Б2","Б11","Б12","Н"],"lines":"8, 11, 17, 81, 82, Б1, Б2, Б11, Б12, Н"},"geometry":{"type":"LineString","coordinates":[[27.473382,42.491266],[27.475277,42.491354]]}},{"type":"Feature","properties":{"mode":"bus","n":9,"arr":["8","11","81","82","Б1","Б2","Б11","Б12","Н"],"lines":"8, 11, 81, 82, Б1, Б2, Б11, Б12, Н"},"geometry":{"type":"LineString","coordinates":[[27.475422,42.491367],[27.475277,42.491354]]}},{"type":"Feature","properties":{"mode":"bus","n":8,"arr":["9","9А","9Б","17А","92","Б1","Б2","Н"],"lines":"9, 9А, 9Б, 17А, 92, Б1, Б2, Н"},"geometry":{"type":"LineString","coordinates":[[27.417978,42.4518],[27.41791,42.451923],[27.417905,42.451938],[27.417908,42.451951],[27.417919,42.451961],[27.417938,42.451969],[27.418442,42.452107]]}},{"type":"Feature","properties":{"mode":"bus","n":10,"arr":["9","9А","9Б","17А","92","Б1","Б2","Б11","Н","Т1"],"lines":"9, 9А, 9Б, 17А, 92, Б1, Б2, Б11, Н, Т1"},"geometry":{"type":"LineString","coordinates":[[27.418312,42.451206],[27.417978,42.4518]]}},{"type":"Feature","properties":{"mode":"bus","n":8,"arr":["9","17А","92","Б9","Б11","Бо","Н","Т1"],"lines":"9, 17А, 92, Б9, Б11, Бо, Н, Т1"},"geometry":{"type":"LineString","coordinates":[[27.410194,42.455452],[27.405597,42.457892]]}},{"type":"Feature","properties":{"mode":"bus","n":9,"arr":["9","9А","17А","92","Б9","Б11","Бо","Н","Т1"],"lines":"9, 9А, 17А, 92, Б9, Б11, Бо, Н, Т1"},"geometry":{"type":"LineString","coordinates":[[27.41033,42.455379],[27.410194,42.455452]]}},{"type":"Feature","properties":{"mode":"bus","n":10,"arr":["9","9А","9Б","17А","92","Б9","Б11","Бо","Н","Т1"],"lines":"9, 9А, 9Б, 17А, 92, Б9, Б11, Бо, Н, Т1"},"geometry":{"type":"LineString","coordinates":[[27.41033,42.455379],[27.411355,42.454742],[27.411981,42.454268],[27.412873,42.453167],[27.4134,42.452452],[27.413605,42.452035],[27.41371,42.45164],[27.413731,42.45059],[27.413783,42.450429],[27.413864,42.450325],[27.414016,42.450221],[27.414281,42.450123],[27.414543,42.45008],[27.415049,42.450143],[27.416579,42.450535],[27.417533,42.450833],[27.418312,42.451206]]}},{"type":"Feature","properties":{"mode":"bus","n":10,"arr":["9","9А","9Б","17А","92","Б9","Б11","Бо","Н","Т1"],"lines":"9, 9А, 9Б, 17А, 92, Б9, Б11, Бо, Н, Т1"},"geometry":{"type":"LineString","coordinates":[[27.410444,42.462176],[27.409094,42.461123]]}},{"type":"Feature","properties":{"mode":"bus","n":9,"arr":["9","9А","Б1","Б2","Б9","Б11","Бо","Н","Т1"],"lines":"9, 9А, Б1, Б2, Б9, Б11, Бо, Н, Т1"},"geometry":{"type":"LineString","coordinates":[[27.418312,42.451206],[27.418406,42.451255]]}},{"type":"Feature","properties":{"mode":"bus","n":7,"arr":["Б1","Б2","Б9","Б11","Бо","Н","Т1"],"lines":"Б1, Б2, Б9, Б11, Бо, Н, Т1"},"geometry":{"type":"LineString","coordinates":[[27.418406,42.451255],[27.41863,42.45137]]}},{"type":"Feature","properties":{"mode":"bus","n":8,"arr":["Б1","Б2","Б9","Б11","Б12","Бо","Н","Т1"],"lines":"Б1, Б2, Б9, Б11, Б12, Бо, Н, Т1"},"geometry":{"type":"LineString","coordinates":[[27.419108,42.45186],[27.418897,42.451564],[27.41863,42.45137]]}},{"type":"Feature","properties":{"mode":"bus","n":9,"arr":["9","9А","9Б","17А","Б9","Б11","Бо","Н","Т1"],"lines":"9, 9А, 9Б, 17А, Б9, Б11, Бо, Н, Т1"},"geometry":{"type":"LineString","coordinates":[[27.405597,42.457892],[27.408597,42.46071],[27.409094,42.461123]]}},{"type":"Feature","properties":{"mode":"bus","n":9,"arr":["9","9А","9Б","17А","92","Б9","Б11","Бо","Т1"],"lines":"9, 9А, 9Б, 17А, 92, Б9, Б11, Бо, Т1"},"geometry":{"type":"LineString","coordinates":[[27.412722,42.463958],[27.411717,42.463128],[27.411248,42.462701],[27.410578,42.462199],[27.410444,42.462176]]}},{"type":"Feature","properties":{"mode":"bus","n":5,"arr":["9","17А","92","Б1","Б2"],"lines":"9, 17А, 92, Б1, Б2"},"geometry":{"type":"LineString","coordinates":[[27.413448,42.46391],[27.413505,42.463548],[27.413564,42.461853],[27.413694,42.461428],[27.41379,42.461263],[27.414704,42.460156],[27.415348,42.459308],[27.415774,42.4587],[27.41687,42.457245]]}},{"type":"Feature","properties":{"mode":"bus","n":7,"arr":["9","17А","92","Б1","Б2","Б12","Бо"],"lines":"9, 17А, 92, Б1, Б2, Б12, Бо"},"geometry":{"type":"LineString","coordinates":[[27.417001,42.457069],[27.41687,42.457245]]}},{"type":"Feature","properties":{"mode":"bus","n":5,"arr":["9","17А","92","Б12","Бо"],"lines":"9, 17А, 92, Б12, Бо"},"geometry":{"type":"LineString","coordinates":[[27.419136,42.458315],[27.419192,42.458255],[27.419202,42.458236],[27.419199,42.458219],[27.41918,42.458203],[27.417191,42.457108]]}},{"type":"Feature","properties":{"mode":"bus","n":5,"arr":["9","17А","92","Б12","Бо"],"lines":"9, 17А, 92, Б12, Бо"},"geometry":{"type":"LineString","coordinates":[[27.418349,42.461679],[27.418373,42.461569],[27.418562,42.461305],[27.419058,42.460746],[27.419496,42.459917],[27.419544,42.459694],[27.419383,42.45929],[27.419155,42.459072],[27.418688,42.458812]]}},{"type":"Feature","properties":{"mode":"bus","n":5,"arr":["9","17А","92","Б12","Бо"],"lines":"9, 17А, 92, Б12, Бо"},"geometry":{"type":"LineString","coordinates":[[27.419914,42.467131],[27.420032,42.467317],[27.420273,42.467496]]}},{"type":"Feature","properties":{"mode":"bus","n":6,"arr":["9","17А","92","Б9","Б12","Бо"],"lines":"9, 17А, 92, Б9, Б12, Бо"},"geometry":{"type":"LineString","coordinates":[[27.418688,42.458812],[27.419136,42.458315]]}},{"type":"Feature","properties":{"mode":"bus","n":8,"arr":["9","9А","9Б","17А","92","Б9","Б12","Бо"],"lines":"9, 9А, 9Б, 17А, 92, Б9, Б12, Бо"},"geometry":{"type":"LineString","coordinates":[[27.419914,42.467131],[27.420069,42.466526],[27.420317,42.466104],[27.420495,42.465879],[27.420506,42.465858],[27.420506,42.465838],[27.420494,42.465818],[27.419096,42.464188],[27.418978,42.463943],[27.418889,42.463621],[27.419002,42.462808],[27.418349,42.461679]]}},{"type":"Feature","properties":{"mode":"bus","n":7,"arr":["9","9А","9Б","92","Б9","Б12","Бо"],"lines":"9, 9А, 9Б, 92, Б9, Б12, Бо"},"geometry":{"type":"LineString","coordinates":[[27.420575,42.465808],[27.42052,42.465848]]}},{"type":"Feature","properties":{"mode":"bus","n":10,"arr":["9","17А","92","Б1","Б2","Б11","Б12","Бо","Н","Т1"],"lines":"9, 17А, 92, Б1, Б2, Б11, Б12, Бо, Н, Т1"},"geometry":{"type":"LineString","coordinates":[[27.420273,42.467496],[27.421411,42.467746],[27.422006,42.467956],[27.422642,42.468292],[27.42321,42.468687],[27.423591,42.469044],[27.424034,42.469604],[27.424981,42.470906],[27.42557,42.471466],[27.425844,42.47167],[27.426303,42.471947],[27.426736,42.472156]]}},{"type":"Feature","properties":{"mode":"bus","n":6,"arr":["9","92","Б1","Б2","Бо","Н"],"lines":"9, 92, Б1, Б2, Бо, Н"},"geometry":{"type":"LineString","coordinates":[[27.450093,42.493104],[27.447574,42.490902],[27.446591,42.489923],[27.443807,42.487492],[27.440432,42.484451],[27.43937,42.483413],[27.438029,42.481944],[27.437283,42.480927],[27.4368,42.480161],[27.436319,42.47916],[27.435933,42.478143],[27.435771,42.476626],[27.435738,42.475948],[27.435743,42.4753],[27.43579,42.474749],[27.435886,42.47456],[27.435999,42.474444]]}},{"type":"Feature","properties":{"mode":"bus","n":5,"arr":["9","92","Б1","Б2","Н"],"lines":"9, 92, Б1, Б2, Н"},"geometry":{"type":"LineString","coordinates":[[27.453994,42.491005],[27.450842,42.493169],[27.450639,42.493202],[27.450409,42.493207],[27.45031,42.493194],[27.450093,42.493104]]}},{"type":"Feature","properties":{"mode":"bus","n":6,"arr":["9","92","Б1","Б2","Н","Т1"],"lines":"9, 92, Б1, Б2, Н, Т1"},"geometry":{"type":"LineString","coordinates":[[27.467305,42.502387],[27.467604,42.501523],[27.467611,42.501226],[27.469195,42.496791],[27.469511,42.495991],[27.470613,42.493478],[27.471094,42.492965],[27.471546,42.492024],[27.471936,42.491303]]}},{"type":"Feature","properties":{"mode":"bus","n":6,"arr":["9","17","81","Б11","Б12","Т1"],"lines":"9, 17, 81, Б11, Б12, Т1"},"geometry":{"type":"LineString","coordinates":[[27.454854,42.490343],[27.454772,42.490251]]}},{"type":"Feature","properties":{"mode":"bus","n":8,"arr":["9","17","81","Б1","Б2","Б11","Б12","Н"],"lines":"9, 17, 81, Б1, Б2, Б11, Б12, Н"},"geometry":{"type":"LineString","coordinates":[[27.461371,42.491553],[27.461164,42.491621],[27.460964,42.491596]]}},{"type":"Feature","properties":{"mode":"bus","n":9,"arr":["9","17","81","Б1","Б2","Б11","Б12","Н","Т1"],"lines":"9, 17, 81, Б1, Б2, Б11, Б12, Н, Т1"},"geometry":{"type":"LineString","coordinates":[[27.460964,42.491596],[27.457131,42.490818],[27.456013,42.490636]]}},{"type":"Feature","properties":{"mode":"bus","n":6,"arr":["9","Б1","Б2","Б9","Бо","Н"],"lines":"9, Б1, Б2, Б9, Бо, Н"},"geometry":{"type":"LineString","coordinates":[[27.450292,42.493485],[27.443692,42.487585],[27.440357,42.484553],[27.439239,42.48348],[27.438633,42.482852],[27.437852,42.481962],[27.437263,42.481157],[27.436684,42.480245],[27.436305,42.479484],[27.435923,42.478557],[27.435498,42.477301],[27.435437,42.477017],[27.435362,42.476556],[27.435231,42.474907],[27.435155,42.474545],[27.435034,42.474191]]}},{"type":"Feature","properties":{"mode":"bus","n":7,"arr":["9","9А","9Б","17А","Б9","Б12","Бо"],"lines":"9, 9А, 9Б, 17А, Б9, Б12, Бо"},"geometry":{"type":"LineString","coordinates":[[27.419785,42.467562],[27.419914,42.467131]]}},{"type":"Feature","properties":{"mode":"bus","n":5,"arr":["9","9А","9Б","17А","Б9"],"lines":"9, 9А, 9Б, 17А, Б9"},"geometry":{"type":"LineString","coordinates":[[27.418349,42.461679],[27.418224,42.461581],[27.416887,42.461004]]}},{"type":"Feature","properties":{"mode":"bus","n":5,"arr":["9","17А","Б9","Б12","Бо"],"lines":"9, 17А, Б9, Б12, Бо"},"geometry":{"type":"LineString","coordinates":[[27.419136,42.458315],[27.417249,42.457296],[27.417119,42.457188]]}},{"type":"Feature","properties":{"mode":"bus","n":6,"arr":["9","17А","Б1","Б2","Б9","Н"],"lines":"9, 17А, Б1, Б2, Б9, Н"},"geometry":{"type":"LineString","coordinates":[[27.417119,42.457188],[27.417023,42.457315]]}},{"type":"Feature","properties":{"mode":"bus","n":5,"arr":["9","17А","Б1","Б2","Н"],"lines":"9, 17А, Б1, Б2, Н"},"geometry":{"type":"LineString","coordinates":[[27.413284,42.464424],[27.413496,42.464148],[27.413585,42.463979],[27.413683,42.462714],[27.413705,42.461852],[27.413751,42.461646],[27.413821,42.461486],[27.413934,42.4613],[27.414816,42.460239],[27.416007,42.458623],[27.417023,42.457315]]}},{"type":"Feature","properties":{"mode":"bus","n":10,"arr":["9","9А","9Б","17А","Б1","Б2","Б11","Бо","Н","Т1"],"lines":"9, 9А, 9Б, 17А, Б1, Б2, Б11, Бо, Н, Т1"},"geometry":{"type":"LineString","coordinates":[[27.413186,42.464529],[27.413053,42.464422]]}},{"type":"Feature","properties":{"mode":"bus","n":8,"arr":["9","9А","9Б","17А","Б11","Бо","Н","Т1"],"lines":"9, 9А, 9Б, 17А, Б11, Бо, Н, Т1"},"geometry":{"type":"LineString","coordinates":[[27.413053,42.464422],[27.410476,42.46227],[27.410444,42.462176]]}},{"type":"Feature","properties":{"mode":"bus","n":7,"arr":["9А","9Б","Б1","Б2","Б11","Н","Т1"],"lines":"9А, 9Б, Б1, Б2, Б11, Н, Т1"},"geometry":{"type":"LineString","coordinates":[[27.419785,42.467562],[27.417621,42.467179],[27.416607,42.466898],[27.416189,42.466729],[27.415837,42.46656],[27.415312,42.466265],[27.414907,42.465997],[27.413898,42.465155]]}},{"type":"Feature","properties":{"mode":"bus","n":7,"arr":["9А","9Б","Б1","Б2","Б11","Н","Т1"],"lines":"9А, 9Б, Б1, Б2, Б11, Н, Т1"},"geometry":{"type":"LineString","coordinates":[[27.41919,42.467325],[27.417674,42.467078],[27.417062,42.466927],[27.41649,42.466729],[27.415684,42.466351],[27.414996,42.465919],[27.414,42.465086]]}},{"type":"Feature","properties":{"mode":"bus","n":8,"arr":["9А","9Б","Б1","Б2","Б11","Бо","Н","Т1"],"lines":"9А, 9Б, Б1, Б2, Б11, Бо, Н, Т1"},"geometry":{"type":"LineString","coordinates":[[27.413898,42.465155],[27.413227,42.464562]]}},{"type":"Feature","properties":{"mode":"bus","n":9,"arr":["9","9А","9Б","Б1","Б2","Б11","Бо","Н","Т1"],"lines":"9, 9А, 9Б, Б1, Б2, Б11, Бо, Н, Т1"},"geometry":{"type":"LineString","coordinates":[[27.413227,42.464562],[27.413186,42.464529]]}},{"type":"Feature","properties":{"mode":"bus","n":6,"arr":["9А","9Б","Б9","Б11","Бо","Т1"],"lines":"9А, 9Б, Б9, Б11, Бо, Т1"},"geometry":{"type":"LineString","coordinates":[[27.413284,42.464424],[27.412722,42.463958]]}},{"type":"Feature","properties":{"mode":"bus","n":9,"arr":["9А","9Б","Б1","Б2","Б9","Б11","Бо","Н","Т1"],"lines":"9А, 9Б, Б1, Б2, Б9, Б11, Бо, Н, Т1"},"geometry":{"type":"LineString","coordinates":[[27.414,42.465086],[27.413284,42.464424]]}},{"type":"Feature","properties":{"mode":"bus","n":5,"arr":["Б1","Б2","Б11","Н","Т1"],"lines":"Б1, Б2, Б11, Н, Т1"},"geometry":{"type":"LineString","coordinates":[[27.41919,42.467325],[27.420273,42.467496]]}},{"type":"Feature","properties":{"mode":"bus","n":6,"arr":["11","15","15А","81","Б11","Б12"],"lines":"11, 15, 15А, 81, Б11, Б12"},"geometry":{"type":"LineString","coordinates":[[27.479273,42.499268],[27.479917,42.498597],[27.479991,42.498421],[27.480025,42.498031],[27.480744,42.494302],[27.480705,42.49412],[27.480562,42.493818],[27.479787,42.492948]]}},{"type":"Feature","properties":{"mode":"bus","n":7,"arr":["11","12","15","15А","Б1","Б2","Н"],"lines":"11, 12, 15, 15А, Б1, Б2, Н"},"geometry":{"type":"LineString","coordinates":[[27.475422,42.491367],[27.475432,42.490715]]}},{"type":"Feature","properties":{"mode":"bus","n":5,"arr":["17","81","Б11","Б12","Т1"],"lines":"17, 81, Б11, Б12, Т1"},"geometry":{"type":"LineString","coordinates":[[27.456013,42.490636],[27.455361,42.490501],[27.454854,42.490343]]}},{"type":"Feature","properties":{"mode":"bus","n":6,"arr":["Б1","Б2","Б9","Б12","Бо","Н"],"lines":"Б1, Б2, Б9, Б12, Бо, Н"},"geometry":{"type":"LineString","coordinates":[[27.42023,42.452944],[27.419641,42.452664],[27.419377,42.452406],[27.419276,42.452252],[27.419108,42.45186]]}},{"type":"Feature","properties":{"mode":"bus","n":5,"arr":["Б1","Б2","Б12","Бо","Н"],"lines":"Б1, Б2, Б12, Бо, Н"},"geometry":{"type":"LineString","coordinates":[[27.417191,42.457108],[27.419265,42.454518],[27.420374,42.453048],[27.420383,42.453029],[27.420377,42.453012],[27.420356,42.452999],[27.42023,42.452944]]}},{"type":"Feature","properties":{"mode":"bus","n":5,"arr":["Б1","Б2","Б9","Б12","Бо"],"lines":"Б1, Б2, Б9, Б12, Бо"},"geometry":{"type":"LineString","coordinates":[[27.42023,42.452944],[27.417001,42.457069]]}}]}