{"type":"FeatureCollection","features":[{"type":"Feature","geometry":{"type":"Point","coordinates":[27.459063,42.50309]},"properties":{"name":"Автогара Запад","lines":"3, 6, 7, 7А, 7А1, 8, 81","arr":["3","6","7","7А","7А1","8","81"],"terminus":1,"mode":"bus","color":"#0059a9","colorDark":"#00294f","angle":257.2,"snapDist":2,"label":1}},{"type":"Feature","geometry":{"type":"Point","coordinates":[27.460133,42.501011]},"properties":{"name":"Дебелт","lines":"3, 6, 7, 7А, 7А1, 8, 81","arr":["3","6","7","7А","7А1","8","81"],"terminus":0,"mode":"bus","color":"#0059a9","colorDark":"#00294f","angle":165.3,"snapDist":3,"label":1}},{"type":"Feature","geometry":{"type":"Point","coordinates":[27.464951,42.501909]},"properties":{"name":"Гладстон","lines":"3, 6, 7, 7А, 7А1, 8, 81","arr":["3","6","7","7А","7А1","8","81"],"terminus":0,"mode":"bus","color":"#0059a9","colorDark":"#00294f","angle":165.8,"snapDist":2,"label":1}},{"type":"Feature","geometry":{"type":"Point","coordinates":[27.471888,42.503284]},"properties":{"name":"Оборище","lines":"3, 6, 8, 81","arr":["3","6","8","81"],"terminus":0,"mode":"bus","color":"#0059a9","colorDark":"#00294f","angle":166.2,"snapDist":1,"label":1}},{"type":"Feature","geometry":{"type":"Point","coordinates":[27.473697,42.504801]},"properties":{"name":"Сан Стефано","lines":"3, 6, 15, 15А, Б11, Б12","arr":["3","6","15","15А","Б11","Б12"],"terminus":0,"mode":"bus","color":"#0059a9","colorDark":"#00294f","angle":51.4,"snapDist":5,"label":1}},{"type":"Feature","geometry":{"type":"Point","coordinates":[27.471825,42.506595]},"properties":{"name":"Дунав","lines":"3, 6, 15, 15А, Б11, Б12","arr":["3","6","15","15А","Б11","Б12"],"terminus":0,"mode":"bus","color":"#0059a9","colorDark":"#00294f","angle":53.1,"snapDist":1,"label":1}},{"type":"Feature","geometry":{"type":"Point","coordinates":[27.466665,42.511043]},"properties":{"name":"Демокрация","lines":"3, 6, 15, 15А, Б11, Б12","arr":["3","6","15","15А","Б11","Б12"],"terminus":0,"mode":"bus","color":"#0059a9","colorDark":"#00294f","angle":34.8,"snapDist":0,"label":1}},{"type":"Feature","geometry":{"type":"Point","coordinates":[27.463185,42.514652]},"properties":{"name":"Зорница","lines":"3, 6, 11, 15, 15А, Б11, Б12","arr":["3","6","11","15","15А","Б11","Б12"],"terminus":0,"mode":"bus","color":"#0059a9","colorDark":"#00294f","angle":58.4,"snapDist":1,"label":1}},{"type":"Feature","geometry":{"type":"Point","coordinates":[27.458737,42.519841]},"properties":{"name":"Младост","lines":"3, 15, 15А, Б12","arr":["3","15","15А","Б12"],"terminus":0,"mode":"bus","color":"#0059a9","colorDark":"#00294f","angle":54,"snapDist":3,"label":1}},{"type":"Feature","geometry":{"type":"Point","coordinates":[27.454156,42.525253]},"properties":{"name":"Изгрев, бл. 3","lines":"3, 15, 15А, Б12","arr":["3","15","15А","Б12"],"terminus":0,"mode":"bus","color":"#0059a9","colorDark":"#00294f","angle":59.8,"snapDist":4,"label":1}},{"type":"Feature","geometry":{"type":"Point","coordinates":[27.450897,42.528803]},"properties":{"name":"2-ри км","lines":"3","arr":["3"],"terminus":0,"mode":"bus","color":"#0059a9","colorDark":"#00294f","angle":57.2,"snapDist":0,"label":1}},{"type":"Feature","geometry":{"type":"Point","coordinates":[27.447712,42.532745]},"properties":{"name":"3-ти км","lines":"3","arr":["3"],"terminus":0,"mode":"bus","color":"#0059a9","colorDark":"#00294f","angle":57.6,"snapDist":4,"label":1}},{"type":"Feature","geometry":{"type":"Point","coordinates":[27.445136,42.535468]},"properties":{"name":"5-ти км","lines":"3","arr":["3"],"terminus":0,"mode":"bus","color":"#0059a9","colorDark":"#00294f","angle":57.4,"snapDist":8,"label":1}},{"type":"Feature","geometry":{"type":"Point","coordinates":[27.421802,42.562296]},"properties":{"name":"9-ти км","lines":"3","arr":["3"],"terminus":0,"mode":"bus","color":"#0059a9","colorDark":"#00294f","angle":57.3,"snapDist":6,"label":1}},{"type":"Feature","geometry":{"type":"Point","coordinates":[27.412603,42.572833]},"properties":{"name":"10-ти км","lines":"3","arr":["3"],"terminus":0,"mode":"bus","color":"#0059a9","colorDark":"#00294f","angle":57.3,"snapDist":4,"label":1}},{"type":"Feature","geometry":{"type":"Point","coordinates":[27.387823,42.600616]},"properties":{"name":"Ветрен, Българка","lines":"3","arr":["3"],"terminus":0,"mode":"bus","color":"#0059a9","colorDark":"#00294f","angle":56.2,"snapDist":13,"label":1}},{"type":"Feature","geometry":{"type":"Point","coordinates":[27.385221,42.604911]},"properties":{"name":"Ветрен, Ал. Стамболийски","lines":"3","arr":["3"],"terminus":0,"mode":"bus","color":"#0059a9","colorDark":"#00294f","angle":134.3,"snapDist":4,"label":1}},{"type":"Feature","geometry":{"type":"Point","coordinates":[27.388494,42.607382]},"properties":{"name":"Ветрен, Вилна зона","lines":"3","arr":["3"],"terminus":0,"mode":"bus","color":"#0059a9","colorDark":"#00294f","angle":133.6,"snapDist":4,"label":1}},{"type":"Feature","geometry":{"type":"Point","coordinates":[27.393073,42.610665]},"properties":{"name":"Минерални бани","lines":"3","arr":["3"],"terminus":0,"mode":"bus","color":"#0059a9","colorDark":"#00294f","angle":54.5,"snapDist":9,"label":1}},{"type":"Feature","geometry":{"type":"Point","coordinates":[27.393876,42.617019]},"properties":{"name":"Боровете","lines":"3","arr":["3"],"terminus":0,"mode":"bus","color":"#0059a9","colorDark":"#00294f","angle":99.8,"snapDist":11,"label":1}},{"type":"Feature","geometry":{"type":"Point","coordinates":[27.395442,42.622963]},"properties":{"name":"Банево, Свобода","lines":"3","arr":["3"],"terminus":0,"mode":"bus","color":"#0059a9","colorDark":"#00294f","angle":96.7,"snapDist":4,"label":1}},{"type":"Feature","geometry":{"type":"Point","coordinates":[27.394849,42.627748]},"properties":{"name":"Банево, Център","lines":"3","arr":["3"],"terminus":0,"mode":"bus","color":"#0059a9","colorDark":"#00294f","angle":40.3,"snapDist":7,"label":1}},{"type":"Feature","geometry":{"type":"Point","coordinates":[27.389402,42.627876]},"properties":{"name":"Банево, Одрин","lines":"3","arr":["3"],"terminus":0,"mode":"bus","color":"#0059a9","colorDark":"#00294f","angle":2.9,"snapDist":3,"label":1}},{"type":"Feature","geometry":{"type":"Point","coordinates":[27.384178,42.629374]},"properties":{"name":"Банево, Околчица","lines":"3","arr":["3"],"terminus":1,"mode":"bus","color":"#0059a9","colorDark":"#00294f","angle":162.2,"snapDist":3,"label":1}},{"type":"Feature","geometry":{"type":"Point","coordinates":[27.389348,42.627878]},"properties":{"name":"Банево, Одрин","lines":"3","arr":["3"],"terminus":0,"mode":"bus","color":"#0059a9","colorDark":"#00294f","angle":182.9,"snapDist":2,"label":0}},{"type":"Feature","geometry":{"type":"Point","coordinates":[27.395239,42.621703]},"properties":{"name":"Банево, Свобода","lines":"3","arr":["3"],"terminus":0,"mode":"bus","color":"#0059a9","colorDark":"#00294f","angle":277.4,"snapDist":7,"label":0}},{"type":"Feature","geometry":{"type":"Point","coordinates":[27.393884,42.617056]},"properties":{"name":"Боровете","lines":"3","arr":["3"],"terminus":0,"mode":"bus","color":"#0059a9","colorDark":"#00294f","angle":279.8,"snapDist":9,"label":0}},{"type":"Feature","geometry":{"type":"Point","coordinates":[27.388658,42.607509]},"properties":{"name":"Ветрен, Вилна зона","lines":"3","arr":["3"],"terminus":0,"mode":"bus","color":"#0059a9","colorDark":"#00294f","angle":313.6,"snapDist":7,"label":0}},{"type":"Feature","geometry":{"type":"Point","coordinates":[27.385328,42.604992]},"properties":{"name":"Ветрен, Ал. Стамболийски","lines":"3","arr":["3"],"terminus":0,"mode":"bus","color":"#0059a9","colorDark":"#00294f","angle":314.3,"snapDist":10,"label":0}},{"type":"Feature","geometry":{"type":"Point","coordinates":[27.387998,42.600423]},"properties":{"name":"Ветрен, Българка","lines":"3","arr":["3"],"terminus":0,"mode":"bus","color":"#0059a9","colorDark":"#00294f","angle":236.2,"snapDist":5,"label":0}},{"type":"Feature","geometry":{"type":"Point","coordinates":[27.413493,42.57163]},"properties":{"name":"10-ти км","lines":"3","arr":["3"],"terminus":0,"mode":"bus","color":"#0059a9","colorDark":"#00294f","angle":237.3,"snapDist":4,"label":0}},{"type":"Feature","geometry":{"type":"Point","coordinates":[27.422735,42.561037]},"properties":{"name":"9-ти км","lines":"3","arr":["3"],"terminus":0,"mode":"bus","color":"#0059a9","colorDark":"#00294f","angle":237.3,"snapDist":6,"label":0}},{"type":"Feature","geometry":{"type":"Point","coordinates":[27.446464,42.53378]},"properties":{"name":"5-ти км","lines":"3","arr":["3"],"terminus":0,"mode":"bus","color":"#0059a9","colorDark":"#00294f","angle":237.4,"snapDist":10,"label":0}},{"type":"Feature","geometry":{"type":"Point","coordinates":[27.454691,42.524131]},"properties":{"name":"Тракия","lines":"3, 15, 15А, Б12","arr":["3","15","15А","Б12"],"terminus":0,"mode":"bus","color":"#0059a9","colorDark":"#00294f","angle":235.3,"snapDist":2,"label":1}},{"type":"Feature","geometry":{"type":"Point","coordinates":[27.458704,42.519545]},"properties":{"name":"Младост","lines":"3, 15, 15А, Б12","arr":["3","15","15А","Б12"],"terminus":0,"mode":"bus","color":"#0059a9","colorDark":"#00294f","angle":240.9,"snapDist":7,"label":0}},{"type":"Feature","geometry":{"type":"Point","coordinates":[27.463115,42.514458]},"properties":{"name":"Зорница","lines":"3, 6, 12, 15, 15А, Б11, Б12","arr":["3","6","12","15","15А","Б11","Б12"],"terminus":0,"mode":"bus","color":"#0059a9","colorDark":"#00294f","angle":237.2,"snapDist":4,"label":0}},{"type":"Feature","geometry":{"type":"Point","coordinates":[27.468677,42.509521]},"properties":{"name":"Демокрация","lines":"3, 6, 15, 15А, Б11, Б12","arr":["3","6","15","15А","Б11","Б12"],"terminus":0,"mode":"bus","color":"#0059a9","colorDark":"#00294f","angle":234,"snapDist":3,"label":1}},{"type":"Feature","geometry":{"type":"Point","coordinates":[27.471834,42.506414]},"properties":{"name":"Дунав","lines":"3, 6, 15, 15А, Б11, Б12","arr":["3","6","15","15А","Б11","Б12"],"terminus":0,"mode":"bus","color":"#0059a9","colorDark":"#00294f","angle":231.3,"snapDist":3,"label":0}},{"type":"Feature","geometry":{"type":"Point","coordinates":[27.472036,42.503311]},"properties":{"name":"Оборище","lines":"3, 8, 82","arr":["3","8","82"],"terminus":0,"mode":"bus","color":"#0059a9","colorDark":"#00294f","angle":346.2,"snapDist":2,"label":0}},{"type":"Feature","geometry":{"type":"Point","coordinates":[27.469057,42.502733]},"properties":{"name":"Александровска","lines":"3, 6","arr":["3","6"],"terminus":0,"mode":"bus","color":"#0059a9","colorDark":"#00294f","angle":344.5,"snapDist":12,"label":1}},{"type":"Feature","geometry":{"type":"Point","coordinates":[27.46012,42.501078]},"properties":{"name":"Дебелт","lines":"3, 6, 7, 7А, 7А2, 8, 82, Т1","arr":["3","6","7","7А","7А2","8","82","Т1"],"terminus":0,"mode":"bus","color":"#0059a9","colorDark":"#00294f","angle":346,"snapDist":0,"label":0}},{"type":"Feature","geometry":{"type":"Point","coordinates":[27.457281,42.503277]},"properties":{"name":"Автогара Запад","lines":"3, 6, 7, 7А, 7А2, 8, 82","arr":["3","6","7","7А","7А2","8","82"],"terminus":1,"mode":"bus","color":"#0059a9","colorDark":"#00294f","angle":71.9,"snapDist":0,"label":0}},{"type":"Feature","geometry":{"type":"Point","coordinates":[27.463071,42.519009]},"properties":{"name":"Зорница, бл. 14","lines":"6, Б11","arr":["6","Б11"],"terminus":0,"mode":"bus","color":"#0059a9","colorDark":"#00294f","angle":128.7,"snapDist":2,"label":1}},{"type":"Feature","geometry":{"type":"Point","coordinates":[27.465868,42.521576]},"properties":{"name":"Никола Петков","lines":"6, 12","arr":["6","12"],"terminus":0,"mode":"bus","color":"#0059a9","colorDark":"#00294f","angle":126.4,"snapDist":1,"label":1}},{"type":"Feature","geometry":{"type":"Point","coordinates":[27.468606,42.52826]},"properties":{"name":"сп. Димитър Димов","lines":"6","arr":["6"],"terminus":0,"mode":"bus","color":"#0059a9","colorDark":"#00294f","angle":94.6,"snapDist":4,"label":1}},{"type":"Feature","geometry":{"type":"Point","coordinates":[27.490805,42.554863]},"properties":{"name":"Пътен възел","lines":"6","arr":["6"],"terminus":0,"mode":"bus","color":"#0059a9","colorDark":"#00294f","angle":76,"snapDist":8,"label":1}},{"type":"Feature","geometry":{"type":"Point","coordinates":[27.494591,42.563142]},"properties":{"name":"Керамичен завод","lines":"6","arr":["6"],"terminus":0,"mode":"bus","color":"#0059a9","colorDark":"#00294f","angle":115.5,"snapDist":0,"label":1}},{"type":"Feature","geometry":{"type":"Point","coordinates":[27.49773,42.567965]},"properties":{"name":"Автошкола","lines":"6","arr":["6"],"terminus":0,"mode":"bus","color":"#0059a9","colorDark":"#00294f","angle":115.8,"snapDist":4,"label":1}},{"type":"Feature","geometry":{"type":"Point","coordinates":[27.499399,42.570506]},"properties":{"name":"СС Авиация","lines":"6","arr":["6"],"terminus":0,"mode":"bus","color":"#0059a9","colorDark":"#00294f","angle":115.8,"snapDist":8,"label":1}},{"type":"Feature","geometry":{"type":"Point","coordinates":[27.509043,42.584368]},"properties":{"name":"р. Рудник","lines":"6","arr":["6"],"terminus":0,"mode":"bus","color":"#0059a9","colorDark":"#00294f","angle":61.4,"snapDist":2,"label":1}},{"type":"Feature","geometry":{"type":"Point","coordinates":[27.497994,42.602885]},"properties":{"name":"ЗОО Бургас","lines":"6","arr":["6"],"terminus":0,"mode":"bus","color":"#0059a9","colorDark":"#00294f","angle":71.6,"snapDist":4,"label":1}},{"type":"Feature","geometry":{"type":"Point","coordinates":[27.49506,42.608438]},"properties":{"name":"Черно море, Морава","lines":"6","arr":["6"],"terminus":0,"mode":"bus","color":"#0059a9","colorDark":"#00294f","angle":68.6,"snapDist":3,"label":1}},{"type":"Feature","geometry":{"type":"Point","coordinates":[27.492934,42.61263]},"properties":{"name":"Черно море, Дунав","lines":"6","arr":["6"],"terminus":0,"mode":"bus","color":"#0059a9","colorDark":"#00294f","angle":89.2,"snapDist":4,"label":1}},{"type":"Feature","geometry":{"type":"Point","coordinates":[27.48835,42.611174]},"properties":{"name":"Черно море, Васил Левски","lines":"6","arr":["6"],"terminus":0,"mode":"bus","color":"#0059a9","colorDark":"#00294f","angle":316.5,"snapDist":5,"label":1}},{"type":"Feature","geometry":{"type":"Point","coordinates":[27.484752,42.616877]},"properties":{"name":"Рудник, Хаджи Димитър","lines":"6","arr":["6"],"terminus":0,"mode":"bus","color":"#0059a9","colorDark":"#00294f","angle":83.8,"snapDist":2,"label":1}},{"type":"Feature","geometry":{"type":"Point","coordinates":[27.484947,42.620069]},"properties":{"name":"Рудник, Мургаш","lines":"6","arr":["6"],"terminus":0,"mode":"bus","color":"#0059a9","colorDark":"#00294f","angle":101.6,"snapDist":0,"label":1}},{"type":"Feature","geometry":{"type":"Point","coordinates":[27.485981,42.62428]},"properties":{"name":"Рудник, Кирил и Методий","lines":"6","arr":["6"],"terminus":0,"mode":"bus","color":"#0059a9","colorDark":"#00294f","angle":87.1,"snapDist":3,"label":1}},{"type":"Feature","geometry":{"type":"Point","coordinates":[27.488539,42.626655]},"properties":{"name":"Рудник, Яна Лъскова","lines":"6","arr":["6"],"terminus":1,"mode":"bus","color":"#0059a9","colorDark":"#00294f","angle":241.2,"snapDist":1,"label":1}},{"type":"Feature","geometry":{"type":"Point","coordinates":[27.489661,42.624299]},"properties":{"name":"Рудник, Йорданка Николова","lines":"6","arr":["6"],"terminus":0,"mode":"bus","color":"#0059a9","colorDark":"#00294f","angle":253.6,"snapDist":2,"label":1}},{"type":"Feature","geometry":{"type":"Point","coordinates":[27.492927,42.612962]},"properties":{"name":"Черно море, Дунав","lines":"6","arr":["6"],"terminus":0,"mode":"bus","color":"#0059a9","colorDark":"#00294f","angle":269.2,"snapDist":10,"label":0}},{"type":"Feature","geometry":{"type":"Point","coordinates":[27.495053,42.608452]},"properties":{"name":"Черно море, Морава","lines":"6","arr":["6"],"terminus":0,"mode":"bus","color":"#0059a9","colorDark":"#00294f","angle":248.6,"snapDist":11,"label":0}},{"type":"Feature","geometry":{"type":"Point","coordinates":[27.498014,42.602841]},"properties":{"name":"ЗОО Бургас","lines":"6","arr":["6"],"terminus":0,"mode":"bus","color":"#0059a9","colorDark":"#00294f","angle":251.6,"snapDist":9,"label":0}},{"type":"Feature","geometry":{"type":"Point","coordinates":[27.509167,42.584201]},"properties":{"name":"р. Рудник","lines":"6","arr":["6"],"terminus":0,"mode":"bus","color":"#0059a9","colorDark":"#00294f","angle":241.4,"snapDist":10,"label":0}},{"type":"Feature","geometry":{"type":"Point","coordinates":[27.499405,42.570517]},"properties":{"name":"СС Авиация","lines":"6","arr":["6"],"terminus":0,"mode":"bus","color":"#0059a9","colorDark":"#00294f","angle":295.8,"snapDist":7,"label":0}},{"type":"Feature","geometry":{"type":"Point","coordinates":[27.49688,42.566664]},"properties":{"name":"Автошкола","lines":"6","arr":["6"],"terminus":0,"mode":"bus","color":"#0059a9","colorDark":"#00294f","angle":295.6,"snapDist":17,"label":0}},{"type":"Feature","geometry":{"type":"Point","coordinates":[27.493996,42.562224]},"properties":{"name":"Керамичен завод","lines":"6","arr":["6"],"terminus":0,"mode":"bus","color":"#0059a9","colorDark":"#00294f","angle":295.5,"snapDist":17,"label":0}},{"type":"Feature","geometry":{"type":"Point","coordinates":[27.490796,42.554891]},"properties":{"name":"Пътен възел","lines":"6","arr":["6"],"terminus":0,"mode":"bus","color":"#0059a9","colorDark":"#00294f","angle":256,"snapDist":15,"label":0}},{"type":"Feature","geometry":{"type":"Point","coordinates":[27.475297,42.550328]},"properties":{"name":"Атанасовско езеро","lines":"6, 15, 15А","arr":["6","15","15А"],"terminus":0,"mode":"bus","color":"#0059a9","colorDark":"#00294f","angle":61.8,"snapDist":1,"label":1}},{"type":"Feature","geometry":{"type":"Point","coordinates":[27.468584,42.528057]},"properties":{"name":"Димитър Димов","lines":"6","arr":["6"],"terminus":0,"mode":"bus","color":"#0059a9","colorDark":"#00294f","angle":274.6,"snapDist":3,"label":1}},{"type":"Feature","geometry":{"type":"Point","coordinates":[27.464845,42.520816]},"properties":{"name":"Никола Петков","lines":"6, Б1, Б11","arr":["6","Б1","Б11"],"terminus":0,"mode":"bus","color":"#0059a9","colorDark":"#00294f","angle":308.6,"snapDist":3,"label":0}},{"type":"Feature","geometry":{"type":"Point","coordinates":[27.462667,42.518813]},"properties":{"name":"Зорница, бл. 14","lines":"6, Б11","arr":["6","Б11"],"terminus":0,"mode":"bus","color":"#0059a9","colorDark":"#00294f","angle":307.9,"snapDist":2,"label":0}},{"type":"Feature","geometry":{"type":"Point","coordinates":[27.466328,42.503159]},"properties":{"name":"Отец Паисий","lines":"7, 7А, 7А1, 9, 92","arr":["7","7А","7А1","9","92"],"terminus":0,"mode":"bus","color":"#0059a9","colorDark":"#00294f","angle":29.8,"snapDist":3,"label":1}},{"type":"Feature","geometry":{"type":"Point","coordinates":[27.461797,42.505226]},"properties":{"name":"Одрин","lines":"7, Бо","arr":["7","Бо"],"terminus":0,"mode":"bus","color":"#0059a9","colorDark":"#00294f","angle":30.2,"snapDist":3,"label":1}},{"type":"Feature","geometry":{"type":"Point","coordinates":[27.457266,42.507263]},"properties":{"name":"Победа","lines":"7, Бо","arr":["7","Бо"],"terminus":0,"mode":"bus","color":"#0059a9","colorDark":"#00294f","angle":36.2,"snapDist":1,"label":1}},{"type":"Feature","geometry":{"type":"Point","coordinates":[27.454134,42.509138]},"properties":{"name":"Мелниците","lines":"7, Бо","arr":["7","Бо"],"terminus":0,"mode":"bus","color":"#0059a9","colorDark":"#00294f","angle":38.7,"snapDist":4,"label":1}},{"type":"Feature","geometry":{"type":"Point","coordinates":[27.446458,42.512387]},"properties":{"name":"Спартак","lines":"7, Бо","arr":["7","Бо"],"terminus":0,"mode":"bus","color":"#0059a9","colorDark":"#00294f","angle":23.9,"snapDist":0,"label":1}},{"type":"Feature","geometry":{"type":"Point","coordinates":[27.441623,42.513931]},"properties":{"name":"Надлез","lines":"7, Бо","arr":["7","Бо"],"terminus":0,"mode":"bus","color":"#0059a9","colorDark":"#00294f","angle":23,"snapDist":1,"label":1}},{"type":"Feature","geometry":{"type":"Point","coordinates":[27.438466,42.519654]},"properties":{"name":"Терминал Славейков","lines":"7, 7А, 7А1, 9, 11, 12, Б2, Б9, Б12, Бо, Н","arr":["7","7А","7А1","9","11","12","Б2","Б9","Б12","Бо","Н"],"terminus":1,"mode":"bus","color":"#0059a9","colorDark":"#00294f","angle":123,"snapDist":1,"label":1}},{"type":"Feature","geometry":{"type":"Point","coordinates":[27.431622,42.516848]},"properties":{"name":"Кроношпан","lines":"7, 7А","arr":["7","7А"],"terminus":0,"mode":"bus","color":"#0059a9","colorDark":"#00294f","angle":18.1,"snapDist":0,"label":1}},{"type":"Feature","geometry":{"type":"Point","coordinates":[27.423539,42.519372]},"properties":{"name":"Поделението","lines":"7, 7А","arr":["7","7А"],"terminus":0,"mode":"bus","color":"#0059a9","colorDark":"#00294f","angle":24.1,"snapDist":11,"label":1}},{"type":"Feature","geometry":{"type":"Point","coordinates":[27.40899,42.520826]},"properties":{"name":"р. Лозово","lines":"7","arr":["7"],"terminus":0,"mode":"bus","color":"#0059a9","colorDark":"#00294f","angle":22.1,"snapDist":7,"label":1}},{"type":"Feature","geometry":{"type":"Point","coordinates":[27.406658,42.521471]},"properties":{"name":"Топлофикация","lines":"7","arr":["7"],"terminus":0,"mode":"bus","color":"#0059a9","colorDark":"#00294f","angle":15.5,"snapDist":11,"label":1}},{"type":"Feature","geometry":{"type":"Point","coordinates":[27.39271,42.5229]},"properties":{"name":"Разсадник","lines":"7","arr":["7"],"terminus":0,"mode":"bus","color":"#0059a9","colorDark":"#00294f","angle":356.7,"snapDist":12,"label":1}},{"type":"Feature","geometry":{"type":"Point","coordinates":[27.387066,42.522272]},"properties":{"name":"р. Долно Езерово","lines":"7","arr":["7"],"terminus":0,"mode":"bus","color":"#0059a9","colorDark":"#00294f","angle":300.6,"snapDist":4,"label":1}},{"type":"Feature","geometry":{"type":"Point","coordinates":[27.379946,42.519173]},"properties":{"name":"Д. Езерово, Кавакли","lines":"7","arr":["7"],"terminus":0,"mode":"bus","color":"#0059a9","colorDark":"#00294f","angle":332.9,"snapDist":7,"label":1}},{"type":"Feature","geometry":{"type":"Point","coordinates":[27.377181,42.518293]},"properties":{"name":"Д. Езерово, Г. Дълбошки","lines":"7","arr":["7"],"terminus":0,"mode":"bus","color":"#0059a9","colorDark":"#00294f","angle":338.7,"snapDist":6,"label":1}},{"type":"Feature","geometry":{"type":"Point","coordinates":[27.372535,42.516819]},"properties":{"name":"Д. Езерово, Кметство","lines":"7","arr":["7"],"terminus":0,"mode":"bus","color":"#0059a9","colorDark":"#00294f","angle":335.2,"snapDist":10,"label":1}},{"type":"Feature","geometry":{"type":"Point","coordinates":[27.371092,42.519457]},"properties":{"name":"Д. Езерово, Стадиона","lines":"7","arr":["7"],"terminus":0,"mode":"bus","color":"#0059a9","colorDark":"#00294f","angle":13.2,"snapDist":14,"label":1}},{"type":"Feature","geometry":{"type":"Point","coordinates":[27.367047,42.519946]},"properties":{"name":"Д. Езерово, Химик","lines":"7","arr":["7"],"terminus":0,"mode":"bus","color":"#0059a9","colorDark":"#00294f","angle":352,"snapDist":8,"label":1}},{"type":"Feature","geometry":{"type":"Point","coordinates":[27.360887,42.51957]},"properties":{"name":"Д. Езерово, Алабин","lines":"7","arr":["7"],"terminus":0,"mode":"bus","color":"#0059a9","colorDark":"#00294f","angle":11.8,"snapDist":8,"label":1}},{"type":"Feature","geometry":{"type":"Point","coordinates":[27.360524,42.516792]},"properties":{"name":"Д. Езерово, Ж.П. Гара","lines":"7","arr":["7"],"terminus":1,"mode":"bus","color":"#0059a9","colorDark":"#00294f","angle":210,"snapDist":1,"label":1}},{"type":"Feature","geometry":{"type":"Point","coordinates":[27.409739,42.520867]},"properties":{"name":"р. Лозово","lines":"7, 7А, 7А1","arr":["7","7А","7А1"],"terminus":0,"mode":"bus","color":"#0059a9","colorDark":"#00294f","angle":89.5,"snapDist":7,"label":0}},{"type":"Feature","geometry":{"type":"Point","coordinates":[27.40918,42.529389]},"properties":{"name":"Лозово, Ястребино","lines":"7, 7А, 7А1","arr":["7","7А","7А1"],"terminus":0,"mode":"bus","color":"#0059a9","colorDark":"#00294f","angle":88,"snapDist":1,"label":1}},{"type":"Feature","geometry":{"type":"Point","coordinates":[27.409003,42.533107]},"properties":{"name":"Лозово, Кметство","lines":"7, 7А, 7А1","arr":["7","7А","7А1"],"terminus":0,"mode":"bus","color":"#0059a9","colorDark":"#00294f","angle":88,"snapDist":5,"label":1}},{"type":"Feature","geometry":{"type":"Point","coordinates":[27.40889,42.535474]},"properties":{"name":"Лозово, Тракия","lines":"7, 7А, 7А1","arr":["7","7А","7А1"],"terminus":0,"mode":"bus","color":"#0059a9","colorDark":"#00294f","angle":88,"snapDist":4,"label":1}},{"type":"Feature","geometry":{"type":"Point","coordinates":[27.408806,42.537996]},"properties":{"name":"Лозово, Роза","lines":"7, 7А, 7А1, 7А2","arr":["7","7А","7А1","7А2"],"terminus":1,"mode":"bus","color":"#0059a9","colorDark":"#00294f","angle":-43.7,"snapDist":6,"label":1}},{"type":"Feature","geometry":{"type":"Point","coordinates":[27.408895,42.535374]},"properties":{"name":"Лозово, Тракия","lines":"7, 7А, 7А2","arr":["7","7А","7А2"],"terminus":0,"mode":"bus","color":"#0059a9","colorDark":"#00294f","angle":268,"snapDist":7,"label":0}},{"type":"Feature","geometry":{"type":"Point","coordinates":[27.409009,42.532966]},"properties":{"name":"Лозово, Кметство","lines":"7, 7А, 7А2","arr":["7","7А","7А2"],"terminus":0,"mode":"bus","color":"#0059a9","colorDark":"#00294f","angle":268,"snapDist":5,"label":0}},{"type":"Feature","geometry":{"type":"Point","coordinates":[27.409052,42.52926]},"properties":{"name":"Лозово, Ястребино","lines":"7, 7А, 7А2","arr":["7","7А","7А2"],"terminus":0,"mode":"bus","color":"#0059a9","colorDark":"#00294f","angle":358.3,"snapDist":5,"label":0}},{"type":"Feature","geometry":{"type":"Point","coordinates":[27.367668,42.516384]},"properties":{"name":"Д. Езерово, Найден Геров","lines":"7","arr":["7"],"terminus":0,"mode":"bus","color":"#0059a9","colorDark":"#00294f","angle":175.3,"snapDist":9,"label":1}},{"type":"Feature","geometry":{"type":"Point","coordinates":[27.373377,42.517148]},"properties":{"name":"Д. Езерово, Кметство","lines":"7","arr":["7"],"terminus":0,"mode":"bus","color":"#0059a9","colorDark":"#00294f","angle":151.4,"snapDist":12,"label":0}},{"type":"Feature","geometry":{"type":"Point","coordinates":[27.375739,42.517882]},"properties":{"name":"Д. Езерово, Захари Зограф","lines":"7","arr":["7"],"terminus":0,"mode":"bus","color":"#0059a9","colorDark":"#00294f","angle":159.2,"snapDist":8,"label":1}},{"type":"Feature","geometry":{"type":"Point","coordinates":[27.380837,42.519533]},"properties":{"name":"Д. Езерово, Кавакли","lines":"7","arr":["7"],"terminus":0,"mode":"bus","color":"#0059a9","colorDark":"#00294f","angle":150.7,"snapDist":7,"label":0}},{"type":"Feature","geometry":{"type":"Point","coordinates":[27.387097,42.52231]},"properties":{"name":"р. Долно Езерово","lines":"7","arr":["7"],"terminus":0,"mode":"bus","color":"#0059a9","colorDark":"#00294f","angle":120.6,"snapDist":13,"label":0}},{"type":"Feature","geometry":{"type":"Point","coordinates":[27.391628,42.522851]},"properties":{"name":"Разсадник","lines":"7","arr":["7"],"terminus":0,"mode":"bus","color":"#0059a9","colorDark":"#00294f","angle":176.4,"snapDist":3,"label":0}},{"type":"Feature","geometry":{"type":"Point","coordinates":[27.406104,42.521576]},"properties":{"name":"Топлофикация","lines":"7","arr":["7"],"terminus":0,"mode":"bus","color":"#0059a9","colorDark":"#00294f","angle":193.4,"snapDist":5,"label":0}},{"type":"Feature","geometry":{"type":"Point","coordinates":[27.409045,42.520809]},"properties":{"name":"р. Лозово","lines":"7","arr":["7"],"terminus":0,"mode":"bus","color":"#0059a9","colorDark":"#00294f","angle":202.1,"snapDist":6,"label":0}},{"type":"Feature","geometry":{"type":"Point","coordinates":[27.409736,42.521051]},"properties":{"name":"р. Лозово","lines":"7, 7А","arr":["7","7А"],"terminus":0,"mode":"bus","color":"#0059a9","colorDark":"#00294f","angle":269.5,"snapDist":5,"label":0}},{"type":"Feature","geometry":{"type":"Point","coordinates":[27.423425,42.51941]},"properties":{"name":"Поделението","lines":"7, 7А","arr":["7","7А"],"terminus":0,"mode":"bus","color":"#0059a9","colorDark":"#00294f","angle":204.1,"snapDist":6,"label":0}},{"type":"Feature","geometry":{"type":"Point","coordinates":[27.432273,42.516478]},"properties":{"name":"Кроношпан","lines":"7, 7А","arr":["7","7А"],"terminus":0,"mode":"bus","color":"#0059a9","colorDark":"#00294f","angle":199.5,"snapDist":1,"label":0}},{"type":"Feature","geometry":{"type":"Point","coordinates":[27.438682,42.519614]},"properties":{"name":"Терминал Славейков","lines":"7, 7А, 7А2, 92","arr":["7","7А","7А2","92"],"terminus":0,"mode":"bus","color":"#0059a9","colorDark":"#00294f","angle":293.5,"snapDist":5,"label":0}},{"type":"Feature","geometry":{"type":"Point","coordinates":[27.442289,42.5134]},"properties":{"name":"Надлез","lines":"7, Бо","arr":["7","Бо"],"terminus":0,"mode":"bus","color":"#0059a9","colorDark":"#00294f","angle":202.7,"snapDist":7,"label":0}},{"type":"Feature","geometry":{"type":"Point","coordinates":[27.445289,42.51262]},"properties":{"name":"Спартак","lines":"7, Бо","arr":["7","Бо"],"terminus":0,"mode":"bus","color":"#0059a9","colorDark":"#00294f","angle":203.7,"snapDist":8,"label":0}},{"type":"Feature","geometry":{"type":"Point","coordinates":[27.45365,42.509291]},"properties":{"name":"Мелниците","lines":"7, Бо","arr":["7","Бо"],"terminus":0,"mode":"bus","color":"#0059a9","colorDark":"#00294f","angle":219.3,"snapDist":8,"label":0}},{"type":"Feature","geometry":{"type":"Point","coordinates":[27.457379,42.507202]},"properties":{"name":"Победа","lines":"7, Бо","arr":["7","Бо"],"terminus":0,"mode":"bus","color":"#0059a9","colorDark":"#00294f","angle":216.2,"snapDist":2,"label":0}},{"type":"Feature","geometry":{"type":"Point","coordinates":[27.464099,42.504161]},"properties":{"name":"Трапезица","lines":"7, 7А, 7А2, 9","arr":["7","7А","7А2","9"],"terminus":0,"mode":"bus","color":"#0059a9","colorDark":"#00294f","angle":211.1,"snapDist":2,"label":1}},{"type":"Feature","geometry":{"type":"Point","coordinates":[27.466163,42.502191]},"properties":{"name":"Шейново","lines":"7, 7А, 7А2, 8, 82, Т1","arr":["7","7А","7А2","8","82","Т1"],"terminus":0,"mode":"bus","color":"#0059a9","colorDark":"#00294f","angle":346,"snapDist":5,"label":1}},{"type":"Feature","geometry":{"type":"Point","coordinates":[27.462801,42.505641]},"properties":{"name":"Трапезица","lines":"7А, 7А1, 9, 11, 92","arr":["7А","7А1","9","11","92"],"terminus":0,"mode":"bus","color":"#0059a9","colorDark":"#00294f","angle":94.9,"snapDist":7,"label":0}},{"type":"Feature","geometry":{"type":"Point","coordinates":[27.459354,42.511528]},"properties":{"name":"Даме Груев","lines":"7А, 7А1, 9, 92","arr":["7А","7А1","9","92"],"terminus":0,"mode":"bus","color":"#0059a9","colorDark":"#00294f","angle":32.8,"snapDist":9,"label":1}},{"type":"Feature","geometry":{"type":"Point","coordinates":[27.456833,42.512757]},"properties":{"name":"Лазар Маджаров","lines":"7А, 7А1, 9, 11, 92","arr":["7А","7А1","9","11","92"],"terminus":0,"mode":"bus","color":"#0059a9","colorDark":"#00294f","angle":31.5,"snapDist":2,"label":1}},{"type":"Feature","geometry":{"type":"Point","coordinates":[27.452906,42.514533]},"properties":{"name":"Славейков бл. 9","lines":"7А, 7А1, 9, 11, 92","arr":["7А","7А1","9","11","92"],"terminus":0,"mode":"bus","color":"#0059a9","colorDark":"#00294f","angle":29.7,"snapDist":3,"label":1}},{"type":"Feature","geometry":{"type":"Point","coordinates":[27.449369,42.516139]},"properties":{"name":"Славейков, бл. 16","lines":"7А, 7А1, 9, 11, 92","arr":["7А","7А1","9","11","92"],"terminus":0,"mode":"bus","color":"#0059a9","colorDark":"#00294f","angle":31.4,"snapDist":2,"label":1}},{"type":"Feature","geometry":{"type":"Point","coordinates":[27.445424,42.517927]},"properties":{"name":"Славейков, бл. 30","lines":"7А, 7А1, 9, 11, 92","arr":["7А","7А1","9","11","92"],"terminus":0,"mode":"bus","color":"#0059a9","colorDark":"#00294f","angle":31.1,"snapDist":4,"label":1}},{"type":"Feature","geometry":{"type":"Point","coordinates":[27.442078,42.519498]},"properties":{"name":"Янко Комитов","lines":"7А, 7А1, 9, 11, 92, Б2, Н","arr":["7А","7А1","9","11","92","Б2","Н"],"terminus":0,"mode":"bus","color":"#0059a9","colorDark":"#00294f","angle":32.7,"snapDist":3,"label":1}},{"type":"Feature","geometry":{"type":"Point","coordinates":[27.442629,42.519135]},"properties":{"name":"Славейков, бл. 31","lines":"7А, 7А2, 9, 12, Б9, Н","arr":["7А","7А2","9","12","Б9","Н"],"terminus":0,"mode":"bus","color":"#0059a9","colorDark":"#00294f","angle":206.8,"snapDist":2,"label":1}},{"type":"Feature","geometry":{"type":"Point","coordinates":[27.445632,42.51775]},"properties":{"name":"Славейков, бл. 30","lines":"7А, 7А2, 9, 12, Б9","arr":["7А","7А2","9","12","Б9"],"terminus":0,"mode":"bus","color":"#0059a9","colorDark":"#00294f","angle":211.7,"snapDist":1,"label":0}},{"type":"Feature","geometry":{"type":"Point","coordinates":[27.450609,42.51543]},"properties":{"name":"Славейков, бл. 16","lines":"7А, 7А2, 9, 12, Б9","arr":["7А","7А2","9","12","Б9"],"terminus":0,"mode":"bus","color":"#0059a9","colorDark":"#00294f","angle":210.3,"snapDist":1,"label":0}},{"type":"Feature","geometry":{"type":"Point","coordinates":[27.454518,42.513721]},"properties":{"name":"Славейков, бл. 9","lines":"7А, 7А2, 9, 12, Б9","arr":["7А","7А2","9","12","Б9"],"terminus":0,"mode":"bus","color":"#0059a9","colorDark":"#00294f","angle":212.4,"snapDist":3,"label":1}},{"type":"Feature","geometry":{"type":"Point","coordinates":[27.459275,42.511566]},"properties":{"name":"Даме Груев","lines":"7А, 7А2, 9, Б9","arr":["7А","7А2","9","Б9"],"terminus":0,"mode":"bus","color":"#0059a9","colorDark":"#00294f","angle":212.8,"snapDist":10,"label":0}},{"type":"Feature","geometry":{"type":"Point","coordinates":[27.428185,42.511795]},"properties":{"name":"ИЛПБ 1","lines":"7А1","arr":["7А1"],"terminus":0,"mode":"bus","color":"#0059a9","colorDark":"#00294f","angle":1.6,"snapDist":8,"label":1}},{"type":"Feature","geometry":{"type":"Point","coordinates":[27.415226,42.512102]},"properties":{"name":"ИЛПБ 2","lines":"7А1","arr":["7А1"],"terminus":0,"mode":"bus","color":"#0059a9","colorDark":"#00294f","angle":1.8,"snapDist":4,"label":1}},{"type":"Feature","geometry":{"type":"Point","coordinates":[27.409689,42.515929]},"properties":{"name":"СБЗ","lines":"7А1","arr":["7А1"],"terminus":0,"mode":"bus","color":"#0059a9","colorDark":"#00294f","angle":106.1,"snapDist":11,"label":1}},{"type":"Feature","geometry":{"type":"Point","coordinates":[27.409705,42.51597]},"properties":{"name":"СБЗ","lines":"7А2","arr":["7А2"],"terminus":0,"mode":"bus","color":"#0059a9","colorDark":"#00294f","angle":286.1,"snapDist":10,"label":0}},{"type":"Feature","geometry":{"type":"Point","coordinates":[27.415361,42.512099]},"properties":{"name":"ИЛПБ 2","lines":"7А2","arr":["7А2"],"terminus":0,"mode":"bus","color":"#0059a9","colorDark":"#00294f","angle":181.8,"snapDist":15,"label":0}},{"type":"Feature","geometry":{"type":"Point","coordinates":[27.428194,42.511795]},"properties":{"name":"ИЛПБ 1","lines":"7А2","arr":["7А2"],"terminus":0,"mode":"bus","color":"#0059a9","colorDark":"#00294f","angle":181.6,"snapDist":8,"label":0}},{"type":"Feature","geometry":{"type":"Point","coordinates":[27.474917,42.503382]},"properties":{"name":"Сан Стефано","lines":"8, 11, 15, 15А, 81, Б11, Б12","arr":["8","11","15","15А","81","Б11","Б12"],"terminus":0,"mode":"bus","color":"#0059a9","colorDark":"#00294f","angle":232.4,"snapDist":4,"label":0}},{"type":"Feature","geometry":{"type":"Point","coordinates":[27.478168,42.500341]},"properties":{"name":"Ген. Гурко","lines":"8, 11, 15, 15А, 81, Б11, Б12","arr":["8","11","15","15А","81","Б11","Б12"],"terminus":0,"mode":"bus","color":"#0059a9","colorDark":"#00294f","angle":233.4,"snapDist":4,"label":1}},{"type":"Feature","geometry":{"type":"Point","coordinates":[27.479378,42.492491]},"properties":{"name":"Булаир","lines":"8, 11, 15, 15А, 81, Б11, Б12","arr":["8","11","15","15А","81","Б11","Б12"],"terminus":0,"mode":"bus","color":"#0059a9","colorDark":"#00294f","angle":312.9,"snapDist":2,"label":1}},{"type":"Feature","geometry":{"type":"Point","coordinates":[27.471165,42.491204]},"properties":{"name":"Транспортна болница","lines":"8, 9, 11, 17, 81, Б11, Б12","arr":["8","9","11","17","81","Б11","Б12"],"terminus":0,"mode":"bus","color":"#0059a9","colorDark":"#00294f","angle":345.5,"snapDist":2,"label":1}},{"type":"Feature","geometry":{"type":"Point","coordinates":[27.466676,42.490278]},"properties":{"name":"Иван Вазов","lines":"8, 9, 11, 17, 81, Б11, Б12, Н","arr":["8","9","11","17","81","Б11","Б12","Н"],"terminus":0,"mode":"bus","color":"#0059a9","colorDark":"#00294f","angle":358.1,"snapDist":2,"label":1}},{"type":"Feature","geometry":{"type":"Point","coordinates":[27.454151,42.489893]},"properties":{"name":"Спортна","lines":"8, 17, 81, Б11, Б12, Т1","arr":["8","17","81","Б11","Б12","Т1"],"terminus":0,"mode":"bus","color":"#0059a9","colorDark":"#00294f","angle":320.8,"snapDist":1,"label":1}},{"type":"Feature","geometry":{"type":"Point","coordinates":[27.449309,42.487018]},"properties":{"name":"Лебед","lines":"8, 17, 81, Б11, Б12, Т1","arr":["8","17","81","Б11","Б12","Т1"],"terminus":0,"mode":"bus","color":"#0059a9","colorDark":"#00294f","angle":320.6,"snapDist":0,"label":1}},{"type":"Feature","geometry":{"type":"Point","coordinates":[27.444478,42.484165]},"properties":{"name":"Индустриална","lines":"8, 17, 81, Б11, Б12, Т1","arr":["8","17","81","Б11","Б12","Т1"],"terminus":0,"mode":"bus","color":"#0059a9","colorDark":"#00294f","angle":321.4,"snapDist":2,"label":1}},{"type":"Feature","geometry":{"type":"Point","coordinates":[27.440963,42.481274]},"properties":{"name":"Байкал","lines":"8, 17, 81, Б11, Б12, Т1","arr":["8","17","81","Б11","Б12","Т1"],"terminus":0,"mode":"bus","color":"#0059a9","colorDark":"#00294f","angle":285.6,"snapDist":4,"label":1}},{"type":"Feature","geometry":{"type":"Point","coordinates":[27.439613,42.477885]},"properties":{"name":"Чаталджа","lines":"8, 17, 81, Б11, Б12, Т1","arr":["8","17","81","Б11","Б12","Т1"],"terminus":0,"mode":"bus","color":"#0059a9","colorDark":"#00294f","angle":286,"snapDist":4,"label":1}},{"type":"Feature","geometry":{"type":"Point","coordinates":[27.430625,42.472887]},"properties":{"name":"Езеро Вая","lines":"8, 9, 17А, 81, Б1, Б2, Б9, Б11, Б12, Бо, Н, Т1","arr":["8","9","17А","81","Б1","Б2","Б9","Б11","Б12","Бо","Н","Т1"],"terminus":0,"mode":"bus","color":"#0059a9","colorDark":"#00294f","angle":352.6,"snapDist":1,"label":1}},{"type":"Feature","geometry":{"type":"Point","coordinates":[27.417461,42.474513]},"properties":{"name":"Г. Езерово, Капчето","lines":"8, 81","arr":["8","81"],"terminus":0,"mode":"bus","color":"#0059a9","colorDark":"#00294f","angle":48.6,"snapDist":3,"label":1}},{"type":"Feature","geometry":{"type":"Point","coordinates":[27.405239,42.476891]},"properties":{"name":"Вилна зона","lines":"8, 81","arr":["8","81"],"terminus":0,"mode":"bus","color":"#0059a9","colorDark":"#00294f","angle":345.2,"snapDist":2,"label":1}},{"type":"Feature","geometry":{"type":"Point","coordinates":[27.382866,42.483214]},"properties":{"name":"Г. Езерово, Кооперативна","lines":"8, 81","arr":["8","81"],"terminus":0,"mode":"bus","color":"#0059a9","colorDark":"#00294f","angle":42,"snapDist":1,"label":1}},{"type":"Feature","geometry":{"type":"Point","coordinates":[27.379485,42.485446]},"properties":{"name":"Г. Езерово, Площада","lines":"8, 81, 82","arr":["8","81","82"],"terminus":1,"mode":"bus","color":"#0059a9","colorDark":"#00294f","angle":42.3,"snapDist":11,"label":1}},{"type":"Feature","geometry":{"type":"Point","coordinates":[27.377562,42.483731]},"properties":{"name":"Г. Езерово, Еделвайс","lines":"8, 82","arr":["8","82"],"terminus":0,"mode":"bus","color":"#0059a9","colorDark":"#00294f","angle":297.9,"snapDist":1,"label":1}},{"type":"Feature","geometry":{"type":"Point","coordinates":[27.378333,42.482125]},"properties":{"name":"Г. Езерово, Липа","lines":"8, 82","arr":["8","82"],"terminus":0,"mode":"bus","color":"#0059a9","colorDark":"#00294f","angle":220.8,"snapDist":5,"label":1}},{"type":"Feature","geometry":{"type":"Point","coordinates":[27.395779,42.475727]},"properties":{"name":"Вилна зона","lines":"8, 82","arr":["8","82"],"terminus":0,"mode":"bus","color":"#0059a9","colorDark":"#00294f","angle":225.6,"snapDist":9,"label":1}},{"type":"Feature","geometry":{"type":"Point","coordinates":[27.417443,42.474528]},"properties":{"name":"Г. Езерово, Капчето","lines":"8, 82","arr":["8","82"],"terminus":0,"mode":"bus","color":"#0059a9","colorDark":"#00294f","angle":228.6,"snapDist":8,"label":0}},{"type":"Feature","geometry":{"type":"Point","coordinates":[27.43192,42.472795]},"properties":{"name":"Езеро Вая","lines":"8, 9, 17А, 82, 92, Б11, Б12, Бо, Т1","arr":["8","9","17А","82","92","Б11","Б12","Бо","Т1"],"terminus":0,"mode":"bus","color":"#0059a9","colorDark":"#00294f","angle":166.7,"snapDist":8,"label":0}},{"type":"Feature","geometry":{"type":"Point","coordinates":[27.439219,42.476874]},"properties":{"name":"Чаталджа","lines":"8, 17, 82, Б11, Б12, Т1","arr":["8","17","82","Б11","Б12","Т1"],"terminus":0,"mode":"bus","color":"#0059a9","colorDark":"#00294f","angle":106,"snapDist":1,"label":0}},{"type":"Feature","geometry":{"type":"Point","coordinates":[27.441127,42.481644]},"properties":{"name":"Байкал","lines":"8, 17, 82, Б11, Б12, Т1","arr":["8","17","82","Б11","Б12","Т1"],"terminus":0,"mode":"bus","color":"#0059a9","colorDark":"#00294f","angle":111.2,"snapDist":7,"label":0}},{"type":"Feature","geometry":{"type":"Point","coordinates":[27.446739,42.485492]},"properties":{"name":"Индустриална","lines":"8, 17, 82, Б11, Б12, Т1","arr":["8","17","82","Б11","Б12","Т1"],"terminus":0,"mode":"bus","color":"#0059a9","colorDark":"#00294f","angle":140,"snapDist":1,"label":1}},{"type":"Feature","geometry":{"type":"Point","coordinates":[27.450247,42.48758]},"properties":{"name":"Лебед","lines":"8, 17, 82, Б11, Б12, Т1","arr":["8","17","82","Б11","Б12","Т1"],"terminus":0,"mode":"bus","color":"#0059a9","colorDark":"#00294f","angle":141.5,"snapDist":4,"label":0}},{"type":"Feature","geometry":{"type":"Point","coordinates":[27.454387,42.490032]},"properties":{"name":"Спортна","lines":"8, 17, 82, Б11, Б12, Т1","arr":["8","17","82","Б11","Б12","Т1"],"terminus":0,"mode":"bus","color":"#0059a9","colorDark":"#00294f","angle":141.6,"snapDist":4,"label":0}},{"type":"Feature","geometry":{"type":"Point","coordinates":[27.465331,42.490441]},"properties":{"name":"Иван Вазов","lines":"8, 9, 12, 17, 82, 92, Б11, Б12, Н, Т1","arr":["8","9","12","17","82","92","Б11","Б12","Н","Т1"],"terminus":0,"mode":"bus","color":"#0059a9","colorDark":"#00294f","angle":191,"snapDist":4,"label":0}},{"type":"Feature","geometry":{"type":"Point","coordinates":[27.474367,42.491316]},"properties":{"name":"Терминал Юг","lines":"8, 82, Б11, Б12","arr":["8","82","Б11","Б12"],"terminus":0,"mode":"bus","color":"#0059a9","colorDark":"#00294f","angle":176.7,"snapDist":3,"label":0}},{"type":"Feature","geometry":{"type":"Point","coordinates":[27.477744,42.491881]},"properties":{"name":"Булаир","lines":"8, 12, 15, 15А, 82, Б11, Б12","arr":["8","12","15","15А","82","Б11","Б12"],"terminus":0,"mode":"bus","color":"#0059a9","colorDark":"#00294f","angle":160.8,"snapDist":4,"label":0}},{"type":"Feature","geometry":{"type":"Point","coordinates":[27.480521,42.501366]},"properties":{"name":"24-ти пехотен черноморски полк","lines":"8, 12, 82","arr":["8","12","82"],"terminus":0,"mode":"bus","color":"#0059a9","colorDark":"#00294f","angle":96.2,"snapDist":1,"label":1}},{"type":"Feature","geometry":{"type":"Point","coordinates":[27.479891,42.506173]},"properties":{"name":"Константин Величков","lines":"8, 11, 82","arr":["8","11","82"],"terminus":0,"mode":"bus","color":"#0059a9","colorDark":"#00294f","angle":354.6,"snapDist":3,"label":1}},{"type":"Feature","geometry":{"type":"Point","coordinates":[27.418703,42.451972]},"properties":{"name":"Терминал Меден рудник","lines":"9, 9А, 9Б, 17А, 92, Б1, Б2, Б11, Б12, Н","arr":["9","9А","9Б","17А","92","Б1","Б2","Б11","Б12","Н"],"terminus":1,"mode":"bus","color":"#0059a9","colorDark":"#00294f","angle":200.4,"snapDist":2,"label":1}},{"type":"Feature","geometry":{"type":"Point","coordinates":[27.414476,42.450091]},"properties":{"name":"М. рудник, бл. 101","lines":"9, 9А, 9Б, 17А, 92, Б9, Б11, Бо, Т1","arr":["9","9А","9Б","17А","92","Б9","Б11","Бо","Т1"],"terminus":0,"mode":"bus","color":"#0059a9","colorDark":"#00294f","angle":12.4,"snapDist":3,"label":1}},{"type":"Feature","geometry":{"type":"Point","coordinates":[27.412942,42.453072]},"properties":{"name":"М. рудник, бл. 485","lines":"9, 9А, 9Б, 17А, 92, Б9, Б11, Бо, Т1","arr":["9","9А","9Б","17А","92","Б9","Б11","Бо","Т1"],"terminus":0,"mode":"bus","color":"#0059a9","colorDark":"#00294f","angle":62,"snapDist":2,"label":1}},{"type":"Feature","geometry":{"type":"Point","coordinates":[27.409367,42.455891]},"properties":{"name":"Найден Геров","lines":"9, 17А, 92, Б9, Б11, Бо, Т1","arr":["9","17А","92","Б9","Б11","Бо","Т1"],"terminus":0,"mode":"bus","color":"#0059a9","colorDark":"#00294f","angle":34.4,"snapDist":2,"label":1}},{"type":"Feature","geometry":{"type":"Point","coordinates":[27.405421,42.45773]},"properties":{"name":"Въстаническа","lines":"9, 9А, 9Б, 92","arr":["9","9А","9Б","92"],"terminus":0,"mode":"bus","color":"#0059a9","colorDark":"#00294f","angle":308.7,"snapDist":3,"label":1}},{"type":"Feature","geometry":{"type":"Point","coordinates":[27.402122,42.456741]},"properties":{"name":"ПГКПИ","lines":"9, 92","arr":["9","92"],"terminus":0,"mode":"bus","color":"#0059a9","colorDark":"#00294f","angle":48.3,"snapDist":2,"label":1}},{"type":"Feature","geometry":{"type":"Point","coordinates":[27.40109,42.458749]},"properties":{"name":"Ленко","lines":"9, 92","arr":["9","92"],"terminus":0,"mode":"bus","color":"#0059a9","colorDark":"#00294f","angle":68.3,"snapDist":1,"label":1}},{"type":"Feature","geometry":{"type":"Point","coordinates":[27.403639,42.461339]},"properties":{"name":"Босна II","lines":"9, 92","arr":["9","92"],"terminus":0,"mode":"bus","color":"#0059a9","colorDark":"#00294f","angle":119.7,"snapDist":2,"label":1}},{"type":"Feature","geometry":{"type":"Point","coordinates":[27.405289,42.46343]},"properties":{"name":"Босна I","lines":"9, 92","arr":["9","92"],"terminus":0,"mode":"bus","color":"#0059a9","colorDark":"#00294f","angle":108,"snapDist":4,"label":1}},{"type":"Feature","geometry":{"type":"Point","coordinates":[27.408413,42.461695]},"properties":{"name":"Миньорска","lines":"9, 92","arr":["9","92"],"terminus":0,"mode":"bus","color":"#0059a9","colorDark":"#00294f","angle":228,"snapDist":3,"label":1}},{"type":"Feature","geometry":{"type":"Point","coordinates":[27.41353,42.462849]},"properties":{"name":"Захари Стоянов","lines":"9, 17А, 92, Б1, Б2","arr":["9","17А","92","Б1","Б2"],"terminus":0,"mode":"bus","color":"#0059a9","colorDark":"#00294f","angle":267.5,"snapDist":5,"label":0}},{"type":"Feature","geometry":{"type":"Point","coordinates":[27.415588,42.458966]},"properties":{"name":"Резвая","lines":"9, 17А, 92, Б1, Б2","arr":["9","17А","92","Б1","Б2"],"terminus":0,"mode":"bus","color":"#0059a9","colorDark":"#00294f","angle":242.8,"snapDist":2,"label":1}},{"type":"Feature","geometry":{"type":"Point","coordinates":[27.418816,42.458003]},"properties":{"name":"М. рудник, бл. 446","lines":"9, 17А, 92, Б12, Бо","arr":["9","17А","92","Б12","Бо"],"terminus":0,"mode":"bus","color":"#0059a9","colorDark":"#00294f","angle":143.1,"snapDist":0,"label":1}},{"type":"Feature","geometry":{"type":"Point","coordinates":[27.418506,42.461943]},"properties":{"name":"Петко Росен","lines":"9, 9А, 9Б, 17А, 92, Б12, Бо","arr":["9","9А","9Б","17А","92","Б12","Бо"],"terminus":0,"mode":"bus","color":"#0059a9","colorDark":"#00294f","angle":113.6,"snapDist":3,"label":1}},{"type":"Feature","geometry":{"type":"Point","coordinates":[27.41961,42.464797]},"properties":{"name":"М. рудник, бл. 415","lines":"9, 9А, 9Б, 17А, 92, Б12, Бо","arr":["9","9А","9Б","17А","92","Б12","Бо"],"terminus":0,"mode":"bus","color":"#0059a9","colorDark":"#00294f","angle":123.2,"snapDist":3,"label":1}},{"type":"Feature","geometry":{"type":"Point","coordinates":[27.425393,42.471297]},"properties":{"name":"Капчето","lines":"9, 17А, 92, Б11, Б12, Бо, Т1","arr":["9","17А","92","Б11","Б12","Бо","Т1"],"terminus":0,"mode":"bus","color":"#0059a9","colorDark":"#00294f","angle":127.8,"snapDist":9,"label":1}},{"type":"Feature","geometry":{"type":"Point","coordinates":[27.454332,42.490726]},"properties":{"name":"Спортна","lines":"9, 92, Б1, Б2, Н","arr":["9","92","Б1","Б2","Н"],"terminus":0,"mode":"bus","color":"#0059a9","colorDark":"#00294f","angle":222.1,"snapDist":5,"label":0}},{"type":"Feature","geometry":{"type":"Point","coordinates":[27.471605,42.491912]},"properties":{"name":"Цар Петър","lines":"9, 92, Н, Т1","arr":["9","92","Н","Т1"],"terminus":0,"mode":"bus","color":"#0059a9","colorDark":"#00294f","angle":68.7,"snapDist":1,"label":1}},{"type":"Feature","geometry":{"type":"Point","coordinates":[27.46877,42.497983]},"properties":{"name":"Тройката","lines":"9, 92, Т1","arr":["9","92","Т1"],"terminus":0,"mode":"bus","color":"#0059a9","colorDark":"#00294f","angle":75.2,"snapDist":2,"label":1}},{"type":"Feature","geometry":{"type":"Point","coordinates":[27.438114,42.519043]},"properties":{"name":"Терминал Славейков","lines":"9, 11, 12, 92, Б2, Б12, Бо, Н","arr":["9","11","12","92","Б2","Б12","Бо","Н"],"terminus":1,"mode":"bus","color":"#0059a9","colorDark":"#00294f","angle":49.1,"snapDist":0,"label":0}},{"type":"Feature","geometry":{"type":"Point","coordinates":[27.405985,42.45825]},"properties":{"name":"Въстаническа","lines":"9, 9А, 9Б, 17А, Б9, Б11, Бо, Т1","arr":["9","9А","9Б","17А","Б9","Б11","Бо","Т1"],"terminus":0,"mode":"bus","color":"#0059a9","colorDark":"#00294f","angle":308.7,"snapDist":1,"label":0}},{"type":"Feature","geometry":{"type":"Point","coordinates":[27.408557,42.460674]},"properties":{"name":"Тополица","lines":"9, 9А, 9Б, 17А, Б9, Б11, Бо, Т1","arr":["9","9А","9Б","17А","Б9","Б11","Бо","Т1"],"terminus":0,"mode":"bus","color":"#0059a9","colorDark":"#00294f","angle":128.5,"snapDist":2,"label":1}},{"type":"Feature","geometry":{"type":"Point","coordinates":[27.467466,42.501631]},"properties":{"name":"Христо Ботев","lines":"9","arr":["9"],"terminus":0,"mode":"bus","color":"#0059a9","colorDark":"#00294f","angle":255.3,"snapDist":3,"label":1}},{"type":"Feature","geometry":{"type":"Point","coordinates":[27.470108,42.494634]},"properties":{"name":"Опера","lines":"9, Б1, Б2, Н","arr":["9","Б1","Б2","Н"],"terminus":0,"mode":"bus","color":"#0059a9","colorDark":"#00294f","angle":251.9,"snapDist":2,"label":1}},{"type":"Feature","geometry":{"type":"Point","coordinates":[27.454439,42.490808]},"properties":{"name":"Спортна","lines":"9, Б1, Б2, Н","arr":["9","Б1","Б2","Н"],"terminus":0,"mode":"bus","color":"#0059a9","colorDark":"#00294f","angle":30.4,"snapDist":4,"label":0}},{"type":"Feature","geometry":{"type":"Point","coordinates":[27.425809,42.471765]},"properties":{"name":"Капчето","lines":"9, 17А, Б9, Б11, Б12, Бо, Н, Т1","arr":["9","17А","Б9","Б11","Б12","Бо","Н","Т1"],"terminus":0,"mode":"bus","color":"#0059a9","colorDark":"#00294f","angle":316.1,"snapDist":7,"label":0}},{"type":"Feature","geometry":{"type":"Point","coordinates":[27.419601,42.464787]},"properties":{"name":"М. рудник, бл. 415","lines":"9, 9А, 9Б, 17А, Б9, Б12, Бо","arr":["9","9А","9Б","17А","Б9","Б12","Бо"],"terminus":0,"mode":"bus","color":"#0059a9","colorDark":"#00294f","angle":303.2,"snapDist":0,"label":0}},{"type":"Feature","geometry":{"type":"Point","coordinates":[27.418502,42.461937]},"properties":{"name":"Петко Росен","lines":"9, 9А, 9Б, 17А, Б9, Б12, Бо","arr":["9","9А","9Б","17А","Б9","Б12","Бо"],"terminus":0,"mode":"bus","color":"#0059a9","colorDark":"#00294f","angle":293.6,"snapDist":0,"label":0}},{"type":"Feature","geometry":{"type":"Point","coordinates":[27.418966,42.458505]},"properties":{"name":"М. рудник, бл. 446","lines":"9, 17А, Б9, Б12, Бо","arr":["9","17А","Б9","Б12","Бо"],"terminus":0,"mode":"bus","color":"#0059a9","colorDark":"#00294f","angle":236.1,"snapDist":3,"label":0}},{"type":"Feature","geometry":{"type":"Point","coordinates":[27.41586,42.458829]},"properties":{"name":"Резвая","lines":"9, 17А, Б1, Б2, Н","arr":["9","17А","Б1","Б2","Н"],"terminus":0,"mode":"bus","color":"#0059a9","colorDark":"#00294f","angle":62.4,"snapDist":3,"label":0}},{"type":"Feature","geometry":{"type":"Point","coordinates":[27.413684,42.462674]},"properties":{"name":"Захари Стоянов","lines":"9, 17А, Б1, Б2, Н","arr":["9","17А","Б1","Б2","Н"],"terminus":0,"mode":"bus","color":"#0059a9","colorDark":"#00294f","angle":88.7,"snapDist":3,"label":0}},{"type":"Feature","geometry":{"type":"Point","coordinates":[27.408413,42.461695]},"properties":{"name":"Миньорска","lines":"9","arr":["9"],"terminus":0,"mode":"bus","color":"#0059a9","colorDark":"#00294f","angle":48,"snapDist":0,"label":0}},{"type":"Feature","geometry":{"type":"Point","coordinates":[27.405298,42.463452]},"properties":{"name":"Босна І","lines":"9","arr":["9"],"terminus":0,"mode":"bus","color":"#0059a9","colorDark":"#00294f","angle":288,"snapDist":0,"label":1}},{"type":"Feature","geometry":{"type":"Point","coordinates":[27.403646,42.461347]},"properties":{"name":"Босна ІІ","lines":"9","arr":["9"],"terminus":0,"mode":"bus","color":"#0059a9","colorDark":"#00294f","angle":299.7,"snapDist":2,"label":1}},{"type":"Feature","geometry":{"type":"Point","coordinates":[27.401107,42.458718]},"properties":{"name":"Ленко","lines":"9","arr":["9"],"terminus":0,"mode":"bus","color":"#0059a9","colorDark":"#00294f","angle":248.3,"snapDist":4,"label":0}},{"type":"Feature","geometry":{"type":"Point","coordinates":[27.403868,42.45885]},"properties":{"name":"Балкан","lines":"9","arr":["9"],"terminus":0,"mode":"bus","color":"#0059a9","colorDark":"#00294f","angle":237.2,"snapDist":1,"label":1}},{"type":"Feature","geometry":{"type":"Point","coordinates":[27.406296,42.457527]},"properties":{"name":"Въстаническа","lines":"9, 17А, Б11, Бо, Н, Т1","arr":["9","17А","Б11","Бо","Н","Т1"],"terminus":0,"mode":"bus","color":"#0059a9","colorDark":"#00294f","angle":215.5,"snapDist":5,"label":0}},{"type":"Feature","geometry":{"type":"Point","coordinates":[27.409562,42.455789]},"properties":{"name":"Найден Геров","lines":"9, 17А, Б11, Бо, Н, Т1","arr":["9","17А","Б11","Бо","Н","Т1"],"terminus":0,"mode":"bus","color":"#0059a9","colorDark":"#00294f","angle":215.8,"snapDist":1,"label":0}},{"type":"Feature","geometry":{"type":"Point","coordinates":[27.413177,42.452755]},"properties":{"name":"М. рудник, бл. 485","lines":"9, 9А, 9Б, 17А, Б11, Бо, Н, Т1","arr":["9","9А","9Б","17А","Б11","Бо","Н","Т1"],"terminus":0,"mode":"bus","color":"#0059a9","colorDark":"#00294f","angle":241.6,"snapDist":4,"label":0}},{"type":"Feature","geometry":{"type":"Point","coordinates":[27.415481,42.450249]},"properties":{"name":"М. рудник, бл. 101","lines":"9, 9А, 9Б, 17А, Б11, Бо, Н, Т1","arr":["9","9А","9Б","17А","Б11","Бо","Н","Т1"],"terminus":0,"mode":"bus","color":"#0059a9","colorDark":"#00294f","angle":161.5,"snapDist":1,"label":0}},{"type":"Feature","geometry":{"type":"Point","coordinates":[27.418245,42.451552]},"properties":{"name":"Терминал Меден рудник","lines":"9, 9А, 9Б, 17А, Б11, Н, Т1","arr":["9","9А","9Б","17А","Б11","Н","Т1"],"terminus":1,"mode":"bus","color":"#0059a9","colorDark":"#00294f","angle":68.3,"snapDist":3,"label":0}},{"type":"Feature","geometry":{"type":"Point","coordinates":[27.40836,42.46049]},"properties":{"name":"Тополица","lines":"9, 9А, 9Б, 17А, Б11, Бо, Н, Т1","arr":["9","9А","9Б","17А","Б11","Бо","Н","Т1"],"terminus":0,"mode":"bus","color":"#0059a9","colorDark":"#00294f","angle":308.1,"snapDist":2,"label":0}},{"type":"Feature","geometry":{"type":"Point","coordinates":[27.411819,42.456939]},"properties":{"name":"Тракиец","lines":"9А, 9Б","arr":["9А","9Б"],"terminus":0,"mode":"bus","color":"#0059a9","colorDark":"#00294f","angle":125.4,"snapDist":1,"label":1}},{"type":"Feature","geometry":{"type":"Point","coordinates":[27.415195,42.459251]},"properties":{"name":"Резвая","lines":"9А, 9Б","arr":["9А","9Б"],"terminus":0,"mode":"bus","color":"#0059a9","colorDark":"#00294f","angle":150.4,"snapDist":3,"label":0}},{"type":"Feature","geometry":{"type":"Point","coordinates":[27.413771,42.465043]},"properties":{"name":"Захари Стоянов","lines":"9А, 9Б, Б11, Бо, Н, Т1","arr":["9А","9Б","Б11","Бо","Н","Т1"],"terminus":1,"mode":"bus","color":"#0059a9","colorDark":"#00294f","angle":309.8,"snapDist":3,"label":1}},{"type":"Feature","geometry":{"type":"Point","coordinates":[27.392344,42.450973]},"properties":{"name":"Върли бряг, Площада","lines":"9А, 9Б","arr":["9А","9Б"],"terminus":1,"mode":"bus","color":"#0059a9","colorDark":"#00294f","angle":338.6,"snapDist":2,"label":1}},{"type":"Feature","geometry":{"type":"Point","coordinates":[27.396959,42.450203]},"properties":{"name":"р. Върли бряг","lines":"9А, 9Б","arr":["9А","9Б"],"terminus":0,"mode":"bus","color":"#0059a9","colorDark":"#00294f","angle":21.7,"snapDist":5,"label":1}},{"type":"Feature","geometry":{"type":"Point","coordinates":[27.396989,42.450194]},"properties":{"name":"р. Върли бряг","lines":"9А, 9Б","arr":["9А","9Б"],"terminus":0,"mode":"bus","color":"#0059a9","colorDark":"#00294f","angle":201.7,"snapDist":4,"label":0}},{"type":"Feature","geometry":{"type":"Point","coordinates":[27.413668,42.464779]},"properties":{"name":"Захари Стоянов","lines":"9А, 9Б, Б9, Б11, Бо, Т1","arr":["9А","9Б","Б9","Б11","Бо","Т1"],"terminus":1,"mode":"bus","color":"#0059a9","colorDark":"#00294f","angle":128.5,"snapDist":0,"label":1}},{"type":"Feature","geometry":{"type":"Point","coordinates":[27.415191,42.459249]},"properties":{"name":"Резвая","lines":"9А, 9Б","arr":["9А","9Б"],"terminus":0,"mode":"bus","color":"#0059a9","colorDark":"#00294f","angle":330.4,"snapDist":0,"label":0}},{"type":"Feature","geometry":{"type":"Point","coordinates":[27.411779,42.456897]},"properties":{"name":"Тракиец","lines":"9А, 9Б","arr":["9А","9Б"],"terminus":0,"mode":"bus","color":"#0059a9","colorDark":"#00294f","angle":305.4,"snapDist":4,"label":0}},{"type":"Feature","geometry":{"type":"Point","coordinates":[27.393349,42.461178]},"properties":{"name":"Шилото","lines":"9Б","arr":["9Б"],"terminus":1,"mode":"bus","color":"#0059a9","colorDark":"#00294f","angle":139.2,"snapDist":5,"label":1}},{"type":"Feature","geometry":{"type":"Point","coordinates":[27.443119,42.522179]},"properties":{"name":"Славейков, бл. 35","lines":"11, Б12","arr":["11","Б12"],"terminus":0,"mode":"bus","color":"#0059a9","colorDark":"#00294f","angle":141,"snapDist":3,"label":1}},{"type":"Feature","geometry":{"type":"Point","coordinates":[27.446763,42.523913]},"properties":{"name":"Славейков, бл. 37","lines":"11, Б12","arr":["11","Б12"],"terminus":0,"mode":"bus","color":"#0059a9","colorDark":"#00294f","angle":144.7,"snapDist":3,"label":1}},{"type":"Feature","geometry":{"type":"Point","coordinates":[27.448886,42.525063]},"properties":{"name":"Университет Проф. Ас. Златаров","lines":"11, Б12","arr":["11","Б12"],"terminus":0,"mode":"bus","color":"#0059a9","colorDark":"#00294f","angle":143.9,"snapDist":2,"label":1}},{"type":"Feature","geometry":{"type":"Point","coordinates":[27.45846,42.52952]},"properties":{"name":"Транспортна","lines":"11, 15, 15А","arr":["11","15","15А"],"terminus":0,"mode":"bus","color":"#0059a9","colorDark":"#00294f","angle":154.2,"snapDist":4,"label":1}},{"type":"Feature","geometry":{"type":"Point","coordinates":[27.463033,42.529796]},"properties":{"name":"Акве Калиде","lines":"11, Б1","arr":["11","Б1"],"terminus":0,"mode":"bus","color":"#0059a9","colorDark":"#00294f","angle":258.4,"snapDist":1,"label":1}},{"type":"Feature","geometry":{"type":"Point","coordinates":[27.464535,42.527249]},"properties":{"name":"Добри Чинтулов","lines":"11, Б1","arr":["11","Б1"],"terminus":0,"mode":"bus","color":"#0059a9","colorDark":"#00294f","angle":228.5,"snapDist":1,"label":1}},{"type":"Feature","geometry":{"type":"Point","coordinates":[27.465414,42.524077]},"properties":{"name":"Изгрев, бл. 40","lines":"11","arr":["11"],"terminus":0,"mode":"bus","color":"#0059a9","colorDark":"#00294f","angle":288.9,"snapDist":3,"label":1}},{"type":"Feature","geometry":{"type":"Point","coordinates":[27.466026,42.52037]},"properties":{"name":"Никола Петков","lines":"11","arr":["11"],"terminus":0,"mode":"bus","color":"#0059a9","colorDark":"#00294f","angle":245.2,"snapDist":0,"label":0}},{"type":"Feature","geometry":{"type":"Point","coordinates":[27.469962,42.515638]},"properties":{"name":"Парк Езеро","lines":"11","arr":["11"],"terminus":0,"mode":"bus","color":"#0059a9","colorDark":"#00294f","angle":252.7,"snapDist":0,"label":1}},{"type":"Feature","geometry":{"type":"Point","coordinates":[27.475144,42.511249]},"properties":{"name":"Стадион Лазур","lines":"11","arr":["11"],"terminus":0,"mode":"bus","color":"#0059a9","colorDark":"#00294f","angle":222.1,"snapDist":3,"label":1}},{"type":"Feature","geometry":{"type":"Point","coordinates":[27.477809,42.509344]},"properties":{"name":"Копривщица","lines":"11","arr":["11"],"terminus":0,"mode":"bus","color":"#0059a9","colorDark":"#00294f","angle":225.2,"snapDist":1,"label":1}},{"type":"Feature","geometry":{"type":"Point","coordinates":[27.474704,42.490721]},"properties":{"name":"Терминал Юг","lines":"11, 12, Н","arr":["11","12","Н"],"terminus":0,"mode":"bus","color":"#0059a9","colorDark":"#00294f","angle":180.3,"snapDist":1,"label":0}},{"type":"Feature","geometry":{"type":"Point","coordinates":[27.460691,42.493541]},"properties":{"name":"Сливница","lines":"11","arr":["11"],"terminus":0,"mode":"bus","color":"#0059a9","colorDark":"#00294f","angle":75.5,"snapDist":0,"label":1}},{"type":"Feature","geometry":{"type":"Point","coordinates":[27.458612,42.499469]},"properties":{"name":"Мария Луиза","lines":"11","arr":["11"],"terminus":0,"mode":"bus","color":"#0059a9","colorDark":"#00294f","angle":75.5,"snapDist":1,"label":1}},{"type":"Feature","geometry":{"type":"Point","coordinates":[27.458301,42.503882]},"properties":{"name":"Автогара Запад","lines":"11","arr":["11"],"terminus":0,"mode":"bus","color":"#0059a9","colorDark":"#00294f","angle":157.8,"snapDist":1,"label":0}},{"type":"Feature","geometry":{"type":"Point","coordinates":[27.459965,42.505701]},"properties":{"name":"Одрин","lines":"11","arr":["11"],"terminus":0,"mode":"bus","color":"#0059a9","colorDark":"#00294f","angle":121.7,"snapDist":3,"label":0}},{"type":"Feature","geometry":{"type":"Point","coordinates":[27.464027,42.510785]},"properties":{"name":"Струга","lines":"11","arr":["11"],"terminus":0,"mode":"bus","color":"#0059a9","colorDark":"#00294f","angle":100.7,"snapDist":5,"label":1}},{"type":"Feature","geometry":{"type":"Point","coordinates":[27.460913,42.515385]},"properties":{"name":"Славейков, бл. 1","lines":"11","arr":["11"],"terminus":0,"mode":"bus","color":"#0059a9","colorDark":"#00294f","angle":328.9,"snapDist":1,"label":1}},{"type":"Feature","geometry":{"type":"Point","coordinates":[27.461674,42.504009]},"properties":{"name":"Трапезица","lines":"12, Б9, Бо","arr":["12","Б9","Бо"],"terminus":0,"mode":"bus","color":"#0059a9","colorDark":"#00294f","angle":305.9,"snapDist":0,"label":0}},{"type":"Feature","geometry":{"type":"Point","coordinates":[27.459405,42.502945]},"properties":{"name":"Автогара Запад","lines":"12","arr":["12"],"terminus":0,"mode":"bus","color":"#0059a9","colorDark":"#00294f","angle":345.1,"snapDist":3,"label":0}},{"type":"Feature","geometry":{"type":"Point","coordinates":[27.458604,42.499491]},"properties":{"name":"Мария Луиза","lines":"12, Т1","arr":["12","Т1"],"terminus":0,"mode":"bus","color":"#0059a9","colorDark":"#00294f","angle":255.5,"snapDist":1,"label":0}},{"type":"Feature","geometry":{"type":"Point","coordinates":[27.460662,42.493623]},"properties":{"name":"Сливница","lines":"12, Т1","arr":["12","Т1"],"terminus":0,"mode":"bus","color":"#0059a9","colorDark":"#00294f","angle":255.5,"snapDist":4,"label":0}},{"type":"Feature","geometry":{"type":"Point","coordinates":[27.479836,42.507643]},"properties":{"name":"Константин Величков","lines":"12","arr":["12"],"terminus":0,"mode":"bus","color":"#0059a9","colorDark":"#00294f","angle":55.6,"snapDist":1,"label":0}},{"type":"Feature","geometry":{"type":"Point","coordinates":[27.476377,42.510398]},"properties":{"name":"Копривщица","lines":"12","arr":["12"],"terminus":0,"mode":"bus","color":"#0059a9","colorDark":"#00294f","angle":44.9,"snapDist":4,"label":0}},{"type":"Feature","geometry":{"type":"Point","coordinates":[27.473027,42.512931]},"properties":{"name":"Стадион Лазур","lines":"12","arr":["12"],"terminus":0,"mode":"bus","color":"#0059a9","colorDark":"#00294f","angle":34.5,"snapDist":1,"label":1}},{"type":"Feature","geometry":{"type":"Point","coordinates":[27.469347,42.516605]},"properties":{"name":"Парк Езеро","lines":"12","arr":["12"],"terminus":0,"mode":"bus","color":"#0059a9","colorDark":"#00294f","angle":62.9,"snapDist":3,"label":0}},{"type":"Feature","geometry":{"type":"Point","coordinates":[27.466983,42.523826]},"properties":{"name":"Изгрев, бл. 39","lines":"12","arr":["12"],"terminus":0,"mode":"bus","color":"#0059a9","colorDark":"#00294f","angle":116.3,"snapDist":3,"label":1}},{"type":"Feature","geometry":{"type":"Point","coordinates":[27.464231,42.527503]},"properties":{"name":"Добри Чинтулов","lines":"12, Б1","arr":["12","Б1"],"terminus":0,"mode":"bus","color":"#0059a9","colorDark":"#00294f","angle":48.5,"snapDist":2,"label":0}},{"type":"Feature","geometry":{"type":"Point","coordinates":[27.462954,42.53008]},"properties":{"name":"Акве Калиде","lines":"12, Б1","arr":["12","Б1"],"terminus":0,"mode":"bus","color":"#0059a9","colorDark":"#00294f","angle":78.4,"snapDist":4,"label":0}},{"type":"Feature","geometry":{"type":"Point","coordinates":[27.456451,42.528947]},"properties":{"name":"Транспортна","lines":"12, 15, 15А","arr":["12","15","15А"],"terminus":0,"mode":"bus","color":"#0059a9","colorDark":"#00294f","angle":334.2,"snapDist":1,"label":0}},{"type":"Feature","geometry":{"type":"Point","coordinates":[27.448839,42.525388]},"properties":{"name":"Университет Проф. Ас. Златаров","lines":"12, Б12","arr":["12","Б12"],"terminus":0,"mode":"bus","color":"#0059a9","colorDark":"#00294f","angle":325.5,"snapDist":4,"label":0}},{"type":"Feature","geometry":{"type":"Point","coordinates":[27.444916,42.527286]},"properties":{"name":"МБАЛ Сърце и мозък","lines":"12","arr":["12"],"terminus":0,"mode":"bus","color":"#0059a9","colorDark":"#00294f","angle":46.1,"snapDist":0,"label":1}},{"type":"Feature","geometry":{"type":"Point","coordinates":[27.443393,42.5225]},"properties":{"name":"Славейков, бл. 35","lines":"12, Б12","arr":["12","Б12"],"terminus":0,"mode":"bus","color":"#0059a9","colorDark":"#00294f","angle":318.6,"snapDist":0,"label":0}},{"type":"Feature","geometry":{"type":"Point","coordinates":[27.473925,42.49026]},"properties":{"name":"Автогара Юг","lines":"15, 15А","arr":["15","15А"],"terminus":1,"mode":"bus","color":"#0059a9","colorDark":"#00294f","angle":171.6,"snapDist":2,"label":1}},{"type":"Feature","geometry":{"type":"Point","coordinates":[27.477151,42.501472]},"properties":{"name":"Ген. Гурко","lines":"15, 15А, Б11, Б12","arr":["15","15А","Б11","Б12"],"terminus":0,"mode":"bus","color":"#0059a9","colorDark":"#00294f","angle":52.6,"snapDist":2,"label":0}},{"type":"Feature","geometry":{"type":"Point","coordinates":[27.466381,42.531355]},"properties":{"name":"Гробищен парк","lines":"15, 15А","arr":["15","15А"],"terminus":0,"mode":"bus","color":"#0059a9","colorDark":"#00294f","angle":182.4,"snapDist":7,"label":1}},{"type":"Feature","geometry":{"type":"Point","coordinates":[27.517662,42.565655]},"properties":{"name":"Летище Бургас","lines":"15, 15А","arr":["15","15А"],"terminus":0,"mode":"bus","color":"#0059a9","colorDark":"#00294f","angle":317.7,"snapDist":4,"label":1}},{"type":"Feature","geometry":{"type":"Point","coordinates":[27.520231,42.561808]},"properties":{"name":"Сарафово, Октомври","lines":"15, 15А","arr":["15","15А"],"terminus":0,"mode":"bus","color":"#0059a9","colorDark":"#00294f","angle":325.4,"snapDist":3,"label":1}},{"type":"Feature","geometry":{"type":"Point","coordinates":[27.518796,42.558961]},"properties":{"name":"Сарафово, Драва","lines":"15, 15А","arr":["15","15А"],"terminus":0,"mode":"bus","color":"#0059a9","colorDark":"#00294f","angle":141.1,"snapDist":7,"label":1}},{"type":"Feature","geometry":{"type":"Point","coordinates":[27.522638,42.561171]},"properties":{"name":"Сарафово, Брацигово","lines":"15, 15А","arr":["15","15А"],"terminus":0,"mode":"bus","color":"#0059a9","colorDark":"#00294f","angle":143.7,"snapDist":0,"label":1}},{"type":"Feature","geometry":{"type":"Point","coordinates":[27.526204,42.563005]},"properties":{"name":"Сарафово, Ради Николов","lines":"15, 15А","arr":["15","15А"],"terminus":1,"mode":"bus","color":"#0059a9","colorDark":"#00294f","angle":166,"snapDist":7,"label":1}},{"type":"Feature","geometry":{"type":"Point","coordinates":[27.526108,42.562984]},"properties":{"name":"Сарафово, Ради Николов","lines":"15, 15А","arr":["15","15А"],"terminus":1,"mode":"bus","color":"#0059a9","colorDark":"#00294f","angle":341.2,"snapDist":7,"label":0}},{"type":"Feature","geometry":{"type":"Point","coordinates":[27.521823,42.561512]},"properties":{"name":"Сарафово, Брацигово","lines":"15, 15А","arr":["15","15А"],"terminus":0,"mode":"bus","color":"#0059a9","colorDark":"#00294f","angle":51.2,"snapDist":4,"label":0}},{"type":"Feature","geometry":{"type":"Point","coordinates":[27.518755,42.564593]},"properties":{"name":"Р. Летище Бургас","lines":"15, 15А","arr":["15","15А"],"terminus":0,"mode":"bus","color":"#0059a9","colorDark":"#00294f","angle":317.2,"snapDist":3,"label":1}},{"type":"Feature","geometry":{"type":"Point","coordinates":[27.466622,42.531486]},"properties":{"name":"Гробищен парк","lines":"15, 15А, 92","arr":["15","15А","92"],"terminus":0,"mode":"bus","color":"#0059a9","colorDark":"#00294f","angle":2.5,"snapDist":4,"label":0}},{"type":"Feature","geometry":{"type":"Point","coordinates":[27.474577,42.490721]},"properties":{"name":"Терминал Юг","lines":"15, 15А, 17","arr":["15","15А","17"],"terminus":1,"mode":"bus","color":"#0059a9","colorDark":"#00294f","angle":360,"snapDist":3,"label":1}},{"type":"Feature","geometry":{"type":"Point","coordinates":[27.471631,42.44224]},"properties":{"name":"Пода","lines":"17, 17А","arr":["17","17А"],"terminus":0,"mode":"bus","color":"#0059a9","colorDark":"#00294f","angle":192.8,"snapDist":10,"label":1}},{"type":"Feature","geometry":{"type":"Point","coordinates":[27.484202,42.444202]},"properties":{"name":"Крайморие, Христо Арнаудов","lines":"17, 17А","arr":["17","17А"],"terminus":0,"mode":"bus","color":"#0059a9","colorDark":"#00294f","angle":123.7,"snapDist":4,"label":1}},{"type":"Feature","geometry":{"type":"Point","coordinates":[27.487526,42.44538]},"properties":{"name":"Крайморие","lines":"17, 17А","arr":["17","17А"],"terminus":1,"mode":"bus","color":"#0059a9","colorDark":"#00294f","angle":188.5,"snapDist":3,"label":1}},{"type":"Feature","geometry":{"type":"Point","coordinates":[27.471588,42.442317]},"properties":{"name":"Пода","lines":"17, 17А","arr":["17","17А"],"terminus":0,"mode":"bus","color":"#0059a9","colorDark":"#00294f","angle":12.7,"snapDist":1,"label":0}},{"type":"Feature","geometry":{"type":"Point","coordinates":[27.439457,42.47489]},"properties":{"name":"Генерал Вл. Вазов","lines":"81, 82","arr":["81","82"],"terminus":0,"mode":"bus","color":"#0059a9","colorDark":"#00294f","angle":253,"snapDist":5,"label":1}},{"type":"Feature","geometry":{"type":"Point","coordinates":[27.440026,42.473511]},"properties":{"name":"ВиК","lines":"81, 82","arr":["81","82"],"terminus":0,"mode":"bus","color":"#0059a9","colorDark":"#00294f","angle":73.9,"snapDist":3,"label":1}},{"type":"Feature","geometry":{"type":"Point","coordinates":[27.440758,42.47184]},"properties":{"name":"Автотрафик","lines":"81, 82","arr":["81","82"],"terminus":0,"mode":"bus","color":"#0059a9","colorDark":"#00294f","angle":252.7,"snapDist":4,"label":1}},{"type":"Feature","geometry":{"type":"Point","coordinates":[27.442738,42.467253]},"properties":{"name":"Бургаски корабостроителници","lines":"81, 82","arr":["81","82"],"terminus":0,"mode":"bus","color":"#0059a9","colorDark":"#00294f","angle":252.6,"snapDist":2,"label":1}},{"type":"Feature","geometry":{"type":"Point","coordinates":[27.4411,42.471035]},"properties":{"name":"Автотрафик","lines":"81, 82","arr":["81","82"],"terminus":0,"mode":"bus","color":"#0059a9","colorDark":"#00294f","angle":252.9,"snapDist":1,"label":0}},{"type":"Feature","geometry":{"type":"Point","coordinates":[27.440192,42.473143]},"properties":{"name":"ВиК","lines":"81, 82","arr":["81","82"],"terminus":0,"mode":"bus","color":"#0059a9","colorDark":"#00294f","angle":250.6,"snapDist":1,"label":0}},{"type":"Feature","geometry":{"type":"Point","coordinates":[27.418985,42.454868]},"properties":{"name":"Бадемите","lines":"Б1, Б2, Н","arr":["Б1","Б2","Н"],"terminus":0,"mode":"bus","color":"#0059a9","colorDark":"#00294f","angle":59.5,"snapDist":0,"label":1}},{"type":"Feature","geometry":{"type":"Point","coordinates":[27.432511,42.472898]},"properties":{"name":"Езеро Вая","lines":"Б1, Б2, Н","arr":["Б1","Б2","Н"],"terminus":0,"mode":"bus","color":"#0059a9","colorDark":"#00294f","angle":166.7,"snapDist":2,"label":0}},{"type":"Feature","geometry":{"type":"Point","coordinates":[27.474084,42.490721]},"properties":{"name":"Терминал Юг","lines":"Б1, Б2","arr":["Б1","Б2"],"terminus":0,"mode":"bus","color":"#0059a9","colorDark":"#00294f","angle":180.2,"snapDist":0,"label":0}},{"type":"Feature","geometry":{"type":"Point","coordinates":[27.468748,42.498044]},"properties":{"name":"Тройката","lines":"Б1, Б2, Н","arr":["Б1","Б2","Н"],"terminus":0,"mode":"bus","color":"#0059a9","colorDark":"#00294f","angle":75.2,"snapDist":2,"label":0}},{"type":"Feature","geometry":{"type":"Point","coordinates":[27.468437,42.502609]},"properties":{"name":"Александровска","lines":"Б1, Б2, Н","arr":["Б1","Б2","Н"],"terminus":0,"mode":"bus","color":"#0059a9","colorDark":"#00294f","angle":-14.6,"snapDist":10,"label":0}},{"type":"Feature","geometry":{"type":"Point","coordinates":[27.468664,42.507274]},"properties":{"name":"Стефан Стамболов","lines":"Б1, Б2, Н","arr":["Б1","Б2","Н"],"terminus":0,"mode":"bus","color":"#0059a9","colorDark":"#00294f","angle":74.1,"snapDist":4,"label":1}},{"type":"Feature","geometry":{"type":"Point","coordinates":[27.462977,42.514914]},"properties":{"name":"Зорница","lines":"Б1, Б2, Н","arr":["Б1","Б2","Н"],"terminus":0,"mode":"bus","color":"#0059a9","colorDark":"#00294f","angle":59.8,"snapDist":0,"label":0}},{"type":"Feature","geometry":{"type":"Point","coordinates":[27.463726,42.51961]},"properties":{"name":"Никола Петков","lines":"Б1","arr":["Б1"],"terminus":0,"mode":"bus","color":"#0059a9","colorDark":"#00294f","angle":129.1,"snapDist":2,"label":1}},{"type":"Feature","geometry":{"type":"Point","coordinates":[27.46427,42.525142]},"properties":{"name":"Велека","lines":"Б1","arr":["Б1"],"terminus":0,"mode":"bus","color":"#0059a9","colorDark":"#00294f","angle":123.1,"snapDist":1,"label":1}},{"type":"Feature","geometry":{"type":"Point","coordinates":[27.45945,42.529279]},"properties":{"name":"Терминал Изгрев","lines":"Б1, Б11","arr":["Б1","Б11"],"terminus":1,"mode":"bus","color":"#0059a9","colorDark":"#00294f","angle":41.8,"snapDist":0,"label":1}},{"type":"Feature","geometry":{"type":"Point","coordinates":[27.458262,42.529038]},"properties":{"name":"Терминал Изгрев","lines":"Б1, Б11","arr":["Б1","Б11"],"terminus":1,"mode":"bus","color":"#0059a9","colorDark":"#00294f","angle":334.7,"snapDist":3,"label":0}},{"type":"Feature","geometry":{"type":"Point","coordinates":[27.463646,42.524485]},"properties":{"name":"Велека","lines":"Б1","arr":["Б1"],"terminus":0,"mode":"bus","color":"#0059a9","colorDark":"#00294f","angle":307.3,"snapDist":1,"label":0}},{"type":"Feature","geometry":{"type":"Point","coordinates":[27.462775,42.514846]},"properties":{"name":"Зорница","lines":"Б1, Б2, Н","arr":["Б1","Б2","Н"],"terminus":0,"mode":"bus","color":"#0059a9","colorDark":"#00294f","angle":233.8,"snapDist":5,"label":0}},{"type":"Feature","geometry":{"type":"Point","coordinates":[27.468325,42.50781]},"properties":{"name":"Стефан Стамболов","lines":"Б1, Б2, Н","arr":["Б1","Б2","Н"],"terminus":0,"mode":"bus","color":"#0059a9","colorDark":"#00294f","angle":254,"snapDist":3,"label":0}},{"type":"Feature","geometry":{"type":"Point","coordinates":[27.468507,42.502622]},"properties":{"name":"Александровска","lines":"Б1, Б2, Н","arr":["Б1","Б2","Н"],"terminus":0,"mode":"bus","color":"#0059a9","colorDark":"#00294f","angle":345.4,"snapDist":11,"label":0}},{"type":"Feature","geometry":{"type":"Point","coordinates":[27.47432,42.490721]},"properties":{"name":"Терминал Юг","lines":"Б1, Б2","arr":["Б1","Б2"],"terminus":0,"mode":"bus","color":"#0059a9","colorDark":"#00294f","angle":180,"snapDist":0,"label":0}},{"type":"Feature","geometry":{"type":"Point","coordinates":[27.418685,42.454928]},"properties":{"name":"Бадемите","lines":"Б1, Б2","arr":["Б1","Б2"],"terminus":0,"mode":"bus","color":"#0059a9","colorDark":"#00294f","angle":239.8,"snapDist":1,"label":0}},{"type":"Feature","geometry":{"type":"Point","coordinates":[27.418645,42.451381]},"properties":{"name":"Терминал Меден рудник","lines":"Б1, Б2, Б12","arr":["Б1","Б2","Б12"],"terminus":1,"mode":"bus","color":"#0059a9","colorDark":"#00294f","angle":315.5,"snapDist":0,"label":0}},{"type":"Feature","geometry":{"type":"Point","coordinates":[27.459164,42.519408]},"properties":{"name":"Младост","lines":"Б2, Н","arr":["Б2","Н"],"terminus":0,"mode":"bus","color":"#0059a9","colorDark":"#00294f","angle":54,"snapDist":6,"label":0}},{"type":"Feature","geometry":{"type":"Point","coordinates":[27.453667,42.520968]},"properties":{"name":"Тракия","lines":"Б2, Н","arr":["Б2","Н"],"terminus":0,"mode":"bus","color":"#0059a9","colorDark":"#00294f","angle":329.3,"snapDist":2,"label":1}},{"type":"Feature","geometry":{"type":"Point","coordinates":[27.448672,42.517444]},"properties":{"name":"Антон Страшимиров","lines":"Б2, Н","arr":["Б2","Н"],"terminus":0,"mode":"bus","color":"#0059a9","colorDark":"#00294f","angle":314.3,"snapDist":0,"label":1}},{"type":"Feature","geometry":{"type":"Point","coordinates":[27.445265,42.517917]},"properties":{"name":"Янко Комитов","lines":"Б2, Н","arr":["Б2","Н"],"terminus":0,"mode":"bus","color":"#0059a9","colorDark":"#00294f","angle":211.7,"snapDist":1,"label":1}},{"type":"Feature","geometry":{"type":"Point","coordinates":[27.448966,42.517802]},"properties":{"name":"Антон Страшимиров","lines":"Б2, Н","arr":["Б2","Н"],"terminus":0,"mode":"bus","color":"#0059a9","colorDark":"#00294f","angle":120.9,"snapDist":1,"label":0}},{"type":"Feature","geometry":{"type":"Point","coordinates":[27.45345,42.520873]},"properties":{"name":"Тракия","lines":"Б2, Н","arr":["Б2","Н"],"terminus":0,"mode":"bus","color":"#0059a9","colorDark":"#00294f","angle":149.3,"snapDist":1,"label":0}},{"type":"Feature","geometry":{"type":"Point","coordinates":[27.459017,42.51913]},"properties":{"name":"Младост","lines":"Б2, Н","arr":["Б2","Н"],"terminus":0,"mode":"bus","color":"#0059a9","colorDark":"#00294f","angle":240.9,"snapDist":5,"label":0}},{"type":"Feature","geometry":{"type":"Point","coordinates":[27.419664,42.453668]},"properties":{"name":"М. рудник, бл. 457","lines":"Б9, Б12, Бо","arr":["Б9","Б12","Бо"],"terminus":0,"mode":"bus","color":"#0059a9","colorDark":"#00294f","angle":240.3,"snapDist":1,"label":1}},{"type":"Feature","geometry":{"type":"Point","coordinates":[27.463903,42.522112]},"properties":{"name":"Изгрев, бл. 43","lines":"Б11","arr":["Б11"],"terminus":0,"mode":"bus","color":"#0059a9","colorDark":"#00294f","angle":28.5,"snapDist":1,"label":1}},{"type":"Feature","geometry":{"type":"Point","coordinates":[27.459665,42.523765]},"properties":{"name":"Изгрев, бл. 70","lines":"Б11","arr":["Б11"],"terminus":0,"mode":"bus","color":"#0059a9","colorDark":"#00294f","angle":50.8,"snapDist":1,"label":1}},{"type":"Feature","geometry":{"type":"Point","coordinates":[27.458117,42.528108]},"properties":{"name":"Изгрев, бл. 15","lines":"Б11","arr":["Б11"],"terminus":0,"mode":"bus","color":"#0059a9","colorDark":"#00294f","angle":65.7,"snapDist":3,"label":1}},{"type":"Feature","geometry":{"type":"Point","coordinates":[27.458617,42.527254]},"properties":{"name":"Изгрев, бл. 15","lines":"Б11","arr":["Б11"],"terminus":0,"mode":"bus","color":"#0059a9","colorDark":"#00294f","angle":250,"snapDist":3,"label":0}},{"type":"Feature","geometry":{"type":"Point","coordinates":[27.459294,42.524107]},"properties":{"name":"Изгрев, бл. 70","lines":"Б11","arr":["Б11"],"terminus":0,"mode":"bus","color":"#0059a9","colorDark":"#00294f","angle":233.2,"snapDist":1,"label":0}},{"type":"Feature","geometry":{"type":"Point","coordinates":[27.420045,42.453484]},"properties":{"name":"М. рудник, бл. 457","lines":"Б12, Бо","arr":["Б12","Бо"],"terminus":0,"mode":"bus","color":"#0059a9","colorDark":"#00294f","angle":60.9,"snapDist":1,"label":0}},{"type":"Feature","geometry":{"type":"Point","coordinates":[27.41844,42.451999]},"properties":{"name":"Терминал Меден рудник","lines":"Т1","arr":["Т1"],"terminus":1,"mode":"bus","color":"#149a3f","colorDark":"#0a5121","angle":172.4,"snapDist":7,"label":0}}]}