{"type":"FeatureCollection","features":[{"type":"Feature","geometry":{"type":"LineString","coordinates":[[27.457376,42.503688],[27.457284,42.503605],[27.457255,42.503531],[27.457248,42.503418],[27.457256,42.503334],[27.457312,42.503209],[27.457413,42.50309],[27.457594,42.502806],[27.457711,42.502642],[27.457788,42.502562],[27.457902,42.502431],[27.458025,42.502296],[27.458134,42.501947],[27.458187,42.501775],[27.458341,42.501286],[27.458362,42.501137],[27.458337,42.500773],[27.45833,42.50063]]},"properties":{"name":"Арда"}},{"type":"Feature","geometry":{"type":"LineString","coordinates":[[27.459061,42.500818],[27.459297,42.500864],[27.459852,42.500957],[27.461088,42.501195],[27.461188,42.501215],[27.462666,42.501488],[27.463761,42.501688],[27.463855,42.501704],[27.46609,42.502122],[27.46703,42.502296],[27.46712,42.502312],[27.467219,42.502331],[27.467305,42.502387]]},"properties":{"name":"Сан Стефано"}},{"type":"Feature","geometry":{"type":"LineString","coordinates":[[27.473942,42.503735],[27.47369,42.503641]]},"properties":{"name":"Сан Стефано"}},{"type":"Feature","geometry":{"type":"LineString","coordinates":[[27.474776,42.503799],[27.474641,42.503774],[27.474457,42.503739],[27.474366,42.503724],[27.473973,42.503653],[27.47369,42.503641],[27.472914,42.503474],[27.472814,42.503455],[27.4726,42.503414],[27.471359,42.503188],[27.470514,42.50303],[27.47046,42.50302],[27.47028,42.502986],[27.470168,42.502963],[27.469982,42.502923],[27.469834,42.502892],[27.469108,42.502743],[27.468694,42.502658],[27.467603,42.502448],[27.467305,42.502387],[27.467201,42.502382],[27.467103,42.502365],[27.466002,42.502162],[27.463835,42.501764],[27.463741,42.501745],[27.461169,42.501274],[27.461069,42.501253],[27.459808,42.501021],[27.459311,42.500929],[27.459182,42.500907],[27.459067,42.500901],[27.458952,42.500899],[27.458841,42.500904],[27.458732,42.500916],[27.458663,42.5009],[27.458598,42.500876],[27.458508,42.50083],[27.458431,42.500772],[27.458371,42.500704],[27.45833,42.50063]]},"properties":{"name":"Сан Стефано"}},{"type":"Feature","geometry":{"type":"LineString","coordinates":[[27.466813,42.510685],[27.467152,42.510562],[27.467275,42.510515],[27.467524,42.510417],[27.467641,42.510368],[27.467731,42.510325],[27.467858,42.51026],[27.467985,42.510175],[27.468121,42.510058],[27.468462,42.509739],[27.468709,42.509489],[27.468774,42.509423],[27.469206,42.508987],[27.469247,42.508944],[27.469638,42.508551],[27.470384,42.507808],[27.470694,42.507495],[27.470838,42.507347],[27.470899,42.507287],[27.470917,42.507267],[27.471056,42.507135],[27.47119,42.507007],[27.472521,42.505783],[27.472556,42.505749],[27.472856,42.505461],[27.473621,42.50475],[27.474034,42.504329],[27.474178,42.50419],[27.474419,42.50396],[27.474461,42.503917],[27.47453,42.503859],[27.474641,42.503774],[27.474752,42.503678],[27.476121,42.502357],[27.476174,42.502307],[27.476246,42.502232],[27.476969,42.501529],[27.477154,42.501347],[27.477592,42.500928],[27.477638,42.50088],[27.47776,42.500749],[27.477849,42.500661],[27.477945,42.500562],[27.478431,42.50008],[27.479027,42.499502],[27.479079,42.49945],[27.479273,42.499268],[27.479347,42.499183],[27.479508,42.499019],[27.479677,42.49885],[27.479743,42.498787],[27.479796,42.498731],[27.479882,42.498637],[27.479917,42.498597],[27.479947,42.498542],[27.479991,42.498421],[27.479991,42.498243],[27.480012,42.498115],[27.480025,42.498031],[27.480299,42.496612],[27.480387,42.496114],[27.480428,42.495909],[27.48058,42.495096],[27.480727,42.494411],[27.480744,42.494302],[27.480731,42.494206],[27.480705,42.49412],[27.480645,42.493966],[27.480562,42.493818],[27.480454,42.493692],[27.479888,42.493061],[27.479787,42.492948]]},"properties":{"name":"бул. Демокрация"}},{"type":"Feature","geometry":{"type":"LineString","coordinates":[[27.466251,42.511254],[27.466826,42.51096],[27.466847,42.510949],[27.467274,42.51074],[27.467443,42.510646],[27.467532,42.510595],[27.467655,42.510526],[27.46778,42.510449],[27.467931,42.510347],[27.468141,42.510192],[27.468767,42.509574],[27.468866,42.509473],[27.468892,42.509447],[27.469349,42.508993],[27.47096,42.507422],[27.471027,42.507358],[27.471062,42.507324],[27.471245,42.507149],[27.471298,42.507104],[27.471467,42.506947],[27.471863,42.506558],[27.472432,42.505994],[27.472646,42.505784],[27.472659,42.505771],[27.472703,42.505731],[27.47364,42.504854],[27.474122,42.50441],[27.474582,42.50396],[27.474667,42.503882],[27.474776,42.503799],[27.474857,42.503727],[27.4749,42.503688],[27.475121,42.503477],[27.475372,42.503193],[27.476113,42.502472],[27.47628,42.502314],[27.47631,42.502285],[27.477721,42.500922],[27.47789,42.500779],[27.477991,42.500676],[27.478069,42.500611],[27.4781,42.500583],[27.478258,42.500434],[27.479189,42.499513],[27.479381,42.499323],[27.479459,42.499243],[27.479503,42.4992],[27.479542,42.499161]]},"properties":{"name":"бул. Демокрация"}},{"type":"Feature","geometry":{"type":"LineString","coordinates":[[27.479717,42.498981],[27.479831,42.498883],[27.479943,42.498769],[27.479991,42.498701],[27.480033,42.498641],[27.480072,42.498531],[27.480096,42.498436],[27.480116,42.49835],[27.480136,42.498239],[27.480164,42.498097],[27.480182,42.498026],[27.480188,42.498004],[27.480323,42.497148],[27.480402,42.496621],[27.480455,42.496288],[27.480536,42.495889],[27.480625,42.495447],[27.480629,42.495423],[27.480703,42.49511],[27.480881,42.494312],[27.480886,42.494266],[27.480884,42.494182],[27.480868,42.494089],[27.480799,42.493919],[27.480706,42.493751],[27.480323,42.493328],[27.480005,42.493005],[27.479881,42.492879]]},"properties":{"name":"бул. Демокрация"}},{"type":"Feature","geometry":{"type":"LineString","coordinates":[[27.461395,42.517115],[27.461421,42.516967],[27.461455,42.51688],[27.461508,42.516796],[27.462575,42.515424],[27.463178,42.51466],[27.46367,42.514071],[27.463932,42.51378],[27.464351,42.513279],[27.46465,42.512978],[27.46469,42.512935],[27.464767,42.512847],[27.465179,42.512359],[27.465528,42.511953],[27.465673,42.511782],[27.465912,42.511553],[27.466251,42.511254],[27.466619,42.510866],[27.466652,42.510832],[27.466813,42.510685],[27.466961,42.510493],[27.467005,42.510439],[27.467135,42.510285],[27.467167,42.510237],[27.467459,42.509816],[27.467753,42.509351],[27.46778,42.509313],[27.467994,42.508938],[27.468165,42.508561],[27.468813,42.50689],[27.468914,42.506626],[27.468947,42.506538],[27.468986,42.506435],[27.469001,42.5064],[27.469319,42.505546],[27.469513,42.505015],[27.469638,42.504696],[27.46973,42.504433],[27.469844,42.504135],[27.469893,42.504],[27.470183,42.503242],[27.47028,42.502986]]},"properties":{"name":"бул. Стефан Стамболов"}},{"type":"Feature","geometry":{"type":"LineString","coordinates":[[27.460776,42.516834],[27.461018,42.51666],[27.461594,42.516056],[27.461978,42.515648],[27.462783,42.514838],[27.463121,42.514452],[27.464168,42.513261],[27.464389,42.513031],[27.46456,42.512849],[27.464605,42.512797],[27.465006,42.51238],[27.465373,42.511943],[27.46553,42.511756],[27.465923,42.511291],[27.466244,42.510911],[27.466636,42.510462],[27.466807,42.510251],[27.466874,42.510171],[27.467327,42.509635],[27.467572,42.509303],[27.467846,42.508881],[27.468031,42.508534],[27.468079,42.508409],[27.468306,42.507859],[27.4686,42.507103],[27.468774,42.506668],[27.468799,42.506604],[27.468837,42.506515],[27.468873,42.506413],[27.46898,42.50615]]},"properties":{"name":"бул. Стефан Стамболов"}},{"type":"Feature","geometry":{"type":"LineString","coordinates":[[27.46085,42.517666],[27.459398,42.519171],[27.458633,42.519947],[27.457986,42.520705],[27.457866,42.520844],[27.457594,42.521162],[27.457359,42.521417],[27.457118,42.521702],[27.456821,42.522059],[27.456639,42.522258],[27.456501,42.522385],[27.456345,42.522547],[27.455983,42.522963],[27.455902,42.523058],[27.455402,42.523677],[27.454745,42.524508],[27.454464,42.524863],[27.454367,42.524986],[27.453363,42.526256],[27.452827,42.526909]]},"properties":{"name":"бул. Стефан Стамболов"}},{"type":"Feature","geometry":{"type":"LineString","coordinates":[[27.460322,42.517386],[27.459546,42.518428],[27.458638,42.519633],[27.458374,42.519987],[27.457674,42.520808],[27.456554,42.522078],[27.456415,42.522235],[27.455976,42.522728],[27.455351,42.52343],[27.4544,42.52444],[27.454113,42.524726],[27.454051,42.524794],[27.45399,42.524859],[27.453505,42.525384],[27.452453,42.526472],[27.452249,42.52669]]},"properties":{"name":"бул. Стефан Стамболов"}},{"type":"Feature","geometry":{"type":"LineString","coordinates":[[27.452195,42.527544],[27.452062,42.527618],[27.451885,42.527731],[27.451623,42.527973],[27.449593,42.530294]]},"properties":{"name":"Стефан Стамболов"}},{"type":"Feature","geometry":{"type":"LineString","coordinates":[[27.445873,42.534616],[27.445358,42.535212],[27.444675,42.536001],[27.443958,42.536829],[27.443187,42.537719],[27.442776,42.538194],[27.44146,42.539714],[27.440429,42.540905],[27.439713,42.541732],[27.437079,42.544714],[27.43504,42.547048],[27.434544,42.54762]]},"properties":{"name":"Стефан Стамболов"}},{"type":"Feature","geometry":{"type":"LineString","coordinates":[[27.433824,42.548281],[27.434264,42.547774],[27.434921,42.547012],[27.436976,42.544684],[27.437724,42.543829],[27.438735,42.542659],[27.439408,42.541907],[27.440893,42.540216],[27.441071,42.54001],[27.443027,42.537742],[27.444758,42.535747],[27.446103,42.534196],[27.44684,42.533347],[27.449426,42.530366],[27.449584,42.530184],[27.451296,42.528172],[27.451529,42.5279],[27.451677,42.52764],[27.451775,42.527283]]},"properties":{"name":"Стефан Стамболов"}},{"type":"Feature","geometry":{"type":"LineString","coordinates":[[27.466244,42.510911],[27.466625,42.510756],[27.466813,42.510685]]},"properties":{"name":"Стефан Стамболов"}},{"type":"Feature","geometry":{"type":"LineString","coordinates":[[27.470168,42.502963],[27.470098,42.503131],[27.47006,42.503236],[27.470038,42.503296],[27.469887,42.503697],[27.46969,42.504219],[27.469601,42.50447],[27.469378,42.505073],[27.469212,42.505523],[27.469181,42.505606],[27.46898,42.50615]]},"properties":{"name":"Стефан Стамболов"}},{"type":"Feature","geometry":{"type":"LineString","coordinates":[[27.457359,42.521417],[27.457057,42.521659],[27.456735,42.522026],[27.456695,42.522071],[27.456678,42.522082],[27.456653,42.52209],[27.456622,42.522094],[27.456587,42.522091],[27.456554,42.522078]]},"properties":{"name":"Стефан Стамболов"}},{"type":"Feature","geometry":{"type":"LineString","coordinates":[[27.434544,42.54762],[27.434377,42.547815],[27.433695,42.548619],[27.432481,42.550017],[27.430145,42.552714],[27.42902,42.55399],[27.428148,42.554994],[27.42468,42.558986],[27.416969,42.567854],[27.415679,42.569315],[27.414399,42.570787],[27.413358,42.571983],[27.413068,42.5723],[27.41203,42.573491],[27.411991,42.573536],[27.410928,42.574755],[27.409458,42.576405],[27.407439,42.57873],[27.403844,42.582805],[27.402936,42.583851],[27.402095,42.584833],[27.401191,42.585853],[27.400818,42.586297],[27.400338,42.586869],[27.400014,42.587243],[27.39812,42.589434],[27.397673,42.589898],[27.397425,42.590166],[27.397136,42.590482],[27.395813,42.591825],[27.39437,42.593454],[27.393645,42.594267],[27.393515,42.594413],[27.392908,42.595094],[27.392372,42.595716],[27.391807,42.596331],[27.391775,42.596365],[27.391622,42.596535],[27.391243,42.596954],[27.390867,42.597384],[27.390711,42.597492],[27.39079,42.59736],[27.390859,42.597281],[27.391162,42.596931],[27.39148,42.596573],[27.391693,42.596354],[27.391788,42.596237],[27.391903,42.596097],[27.391955,42.59602],[27.39208,42.595834],[27.392234,42.595593],[27.392351,42.59542],[27.392552,42.594898],[27.393247,42.593042],[27.393558,42.592214],[27.393599,42.592106],[27.393725,42.591783],[27.393774,42.591682],[27.393829,42.591584],[27.393905,42.591473],[27.393994,42.591365],[27.394077,42.591268],[27.394185,42.591164],[27.39429,42.591071],[27.3944,42.590982],[27.394499,42.590909],[27.394595,42.590844],[27.394709,42.590777],[27.394836,42.590715],[27.395023,42.59063],[27.395149,42.590578],[27.395347,42.590512],[27.395572,42.590439],[27.395791,42.590373],[27.396489,42.590164],[27.396632,42.590116],[27.396761,42.590071],[27.396906,42.590014],[27.397027,42.589958],[27.39717,42.589882],[27.397291,42.589811],[27.397401,42.589743],[27.397516,42.58966],[27.397642,42.589571],[27.397747,42.589485],[27.397863,42.589379],[27.398279,42.58901],[27.398841,42.588364],[27.399381,42.587744],[27.399866,42.587191],[27.4007,42.58624],[27.401339,42.585512],[27.402844,42.583795],[27.407949,42.577929],[27.40999,42.5756],[27.410843,42.574622],[27.412635,42.572616],[27.420845,42.563179],[27.42239,42.561432],[27.424568,42.558933],[27.426672,42.556519],[27.42737,42.555703],[27.427699,42.5553],[27.430024,42.552664],[27.432414,42.549863],[27.433772,42.54834],[27.433824,42.548281]]},"properties":{"name":"6"}},{"type":"Feature","geometry":{"type":"LineString","coordinates":[[27.384451,42.60432],[27.384932,42.603791],[27.385328,42.60336],[27.385505,42.603161],[27.386508,42.602056],[27.386542,42.602019],[27.386561,42.601999],[27.3866,42.601957],[27.386914,42.601608],[27.387085,42.601425],[27.387524,42.600941],[27.387551,42.600912],[27.387577,42.600883],[27.387613,42.600843],[27.387692,42.60076],[27.388643,42.599711],[27.390711,42.597492]]},"properties":{"name":"Българка"}},{"type":"Feature","geometry":{"type":"LineString","coordinates":[[27.384451,42.60432],[27.384804,42.604597],[27.386238,42.605679],[27.386413,42.605811],[27.386464,42.605849],[27.387462,42.606602],[27.388104,42.607087],[27.388303,42.607245],[27.388445,42.607344],[27.389443,42.608116],[27.38951,42.608161],[27.391503,42.609651],[27.39218,42.610185],[27.392572,42.610488]]},"properties":{"name":"Александър Стамболийски"}},{"type":"Feature","geometry":{"type":"LineString","coordinates":[[27.394898,42.627717],[27.395061,42.627523],[27.395175,42.627406],[27.395259,42.627295],[27.395561,42.626646],[27.395902,42.625922],[27.395758,42.624976],[27.395506,42.623363],[27.395334,42.622294]]},"properties":{"name":"Свобода"}},{"type":"Feature","geometry":{"type":"LineString","coordinates":[[27.390796,42.627112],[27.390976,42.627153],[27.391888,42.627361],[27.392473,42.627495],[27.393291,42.62771],[27.393843,42.627786],[27.394271,42.627839],[27.39454,42.627867],[27.394638,42.627848],[27.394721,42.627828],[27.394898,42.627717]]},"properties":{"name":"Хаджи Димитър"}},{"type":"Feature","geometry":{"type":"LineString","coordinates":[[27.384649,42.628094],[27.384682,42.628066],[27.384731,42.628054],[27.385728,42.62801],[27.386872,42.627972],[27.388631,42.627905],[27.389538,42.627871],[27.390796,42.627112]]},"properties":{"name":"Одрин"}},{"type":"Feature","geometry":{"type":"LineString","coordinates":[[27.462632,42.504879],[27.462676,42.504832],[27.462717,42.504804],[27.462766,42.50478],[27.463106,42.504637],[27.46332,42.504549],[27.46342,42.504486],[27.46354,42.50441]]},"properties":{"name":"Одрин"}},{"type":"Feature","geometry":{"type":"LineString","coordinates":[[27.462209,42.505073],[27.462156,42.505081],[27.462089,42.505101],[27.461682,42.505276],[27.461331,42.505425],[27.461243,42.505466],[27.460124,42.505961],[27.459692,42.506148],[27.459499,42.506235],[27.45908,42.506425],[27.458783,42.506554],[27.458314,42.506759],[27.457916,42.506942],[27.457555,42.507107],[27.457183,42.507308],[27.457027,42.5074],[27.456832,42.507509],[27.45595,42.508038],[27.45533,42.508426],[27.454909,42.508681],[27.45386,42.5093],[27.452701,42.510011],[27.452611,42.510069],[27.452372,42.51021],[27.452112,42.510357],[27.451852,42.510482],[27.451431,42.510673],[27.451007,42.510865],[27.450559,42.511044],[27.450236,42.51116],[27.449819,42.511301],[27.44906,42.511542],[27.448429,42.51175],[27.446849,42.512264],[27.446591,42.512343],[27.446413,42.512401],[27.445338,42.512752],[27.445227,42.512789],[27.443962,42.513199],[27.443243,42.513423],[27.443148,42.513458],[27.442269,42.513732],[27.442199,42.513754],[27.442019,42.513807],[27.441336,42.514021],[27.440109,42.514396],[27.438658,42.514849]]},"properties":{"name":"Одрин"}},{"type":"Feature","geometry":{"type":"LineString","coordinates":[[27.456748,42.507442],[27.456519,42.507577],[27.456275,42.507729],[27.4559,42.507957],[27.455738,42.508055],[27.454818,42.508606],[27.453913,42.509138],[27.453741,42.509236],[27.453365,42.509463],[27.452892,42.509718],[27.452604,42.509865],[27.452467,42.509941],[27.452329,42.510015],[27.452217,42.510087],[27.451814,42.51035],[27.451585,42.510478],[27.451369,42.510586],[27.4509,42.510795],[27.450711,42.510868],[27.450445,42.510974],[27.450073,42.511103],[27.449427,42.51131],[27.448395,42.51163],[27.447986,42.511746],[27.447476,42.511912],[27.446809,42.512129],[27.446438,42.512248],[27.446311,42.512289],[27.445121,42.512674],[27.44478,42.51277],[27.444436,42.512845],[27.444174,42.512893],[27.443633,42.512993],[27.443076,42.513158],[27.442109,42.513455],[27.442106,42.513456],[27.441166,42.513745],[27.440797,42.513869],[27.440506,42.513985],[27.440177,42.514128],[27.439905,42.514253],[27.439531,42.514398],[27.439119,42.514534],[27.438934,42.514634],[27.438814,42.514746],[27.438658,42.514849],[27.437824,42.515115],[27.43749,42.51522],[27.437114,42.515338],[27.436329,42.515584],[27.435787,42.515755],[27.4354,42.515868],[27.435332,42.515837],[27.435275,42.515814],[27.435217,42.515795],[27.435143,42.515787],[27.435032,42.515786],[27.432404,42.516444],[27.431393,42.516707],[27.430055,42.5171],[27.428996,42.517443],[27.427917,42.517812],[27.427693,42.517888],[27.426803,42.518221],[27.426359,42.518432],[27.426209,42.518494],[27.423516,42.51938],[27.422922,42.519576],[27.422244,42.519715],[27.421858,42.519769],[27.421541,42.519794],[27.421151,42.519809],[27.420774,42.519789],[27.420495,42.519753],[27.420249,42.519722],[27.417351,42.519272],[27.416493,42.519158],[27.415789,42.519139],[27.415128,42.519183],[27.414382,42.519304],[27.413377,42.51955],[27.409742,42.520601]]},"properties":{"name":"Одрин"}},{"type":"Feature","geometry":{"type":"LineString","coordinates":[[27.434783,42.516047],[27.432116,42.516729],[27.431471,42.516885],[27.430317,42.517201],[27.428003,42.517931],[27.426758,42.518332],[27.426209,42.518494]]},"properties":{"name":"Одрин"}},{"type":"Feature","geometry":{"type":"LineString","coordinates":[[27.460116,42.505878],[27.461066,42.505457],[27.46164,42.505202],[27.461998,42.505032],[27.462044,42.505006],[27.462074,42.504978],[27.462096,42.504952]]},"properties":{"name":"Одрин"}},{"type":"Feature","geometry":{"type":"LineString","coordinates":[[27.462512,42.504739],[27.46257,42.504732],[27.46263,42.504722],[27.462704,42.504703],[27.462798,42.504673],[27.463282,42.504475],[27.46354,42.50441],[27.465286,42.503634],[27.465373,42.503595],[27.465486,42.503545],[27.465608,42.503488],[27.46622,42.503205],[27.466965,42.50289],[27.467031,42.502853],[27.467079,42.50282],[27.467123,42.502764],[27.467145,42.502717],[27.467167,42.502645],[27.467195,42.502551],[27.467209,42.502507]]},"properties":{"name":"Одрин"}},{"type":"Feature","geometry":{"type":"LineString","coordinates":[[27.467316,42.502362],[27.467305,42.502387],[27.467209,42.502507],[27.467201,42.502382],[27.467219,42.502331],[27.46723,42.502302]]},"properties":{"name":"Одрин"}},{"type":"Feature","geometry":{"type":"LineString","coordinates":[[27.384094,42.629354],[27.384341,42.628922],[27.384429,42.628744],[27.384497,42.628542],[27.384649,42.628094]]},"properties":{"name":"Околчица"}},{"type":"Feature","geometry":{"type":"LineString","coordinates":[[27.458025,42.502296],[27.458139,42.502351],[27.458337,42.502444],[27.458838,42.50271],[27.459131,42.502876],[27.459201,42.502901],[27.459342,42.502932],[27.460196,42.503099],[27.460394,42.503162],[27.460492,42.503213],[27.460549,42.503265],[27.460584,42.503305],[27.460604,42.503357],[27.460656,42.503419]]},"properties":{"name":"Пирин"}},{"type":"Feature","geometry":{"type":"LineString","coordinates":[[27.46142,42.517195],[27.461513,42.51742],[27.461604,42.517559],[27.461709,42.517716],[27.461828,42.517853],[27.462005,42.518023],[27.462215,42.518221],[27.463128,42.519061],[27.463287,42.519208],[27.463367,42.519284],[27.465178,42.520928],[27.465346,42.52108],[27.465475,42.521197],[27.465578,42.521286],[27.465995,42.521703],[27.466119,42.521861],[27.466189,42.521965],[27.466325,42.522091],[27.46662,42.52236],[27.466941,42.522666],[27.467149,42.522861],[27.467357,42.523066],[27.467628,42.52331],[27.467851,42.523514],[27.467946,42.523597],[27.468068,42.523714]]},"properties":{"name":"бул. Никола Петков"}},{"type":"Feature","geometry":{"type":"LineString","coordinates":[[27.460923,42.517663],[27.461438,42.51789],[27.461768,42.518028],[27.461989,42.518175],[27.462133,42.518307],[27.462242,42.518411],[27.463164,42.519283],[27.463244,42.519359],[27.463609,42.519673],[27.464971,42.520932],[27.465345,42.521294],[27.465449,42.52138],[27.465607,42.521522],[27.466099,42.521995],[27.466549,42.522403],[27.467349,42.523201],[27.467519,42.523361],[27.467632,42.523464],[27.467733,42.52358],[27.467906,42.523786]]},"properties":{"name":"бул. Никола Петков"}},{"type":"Feature","geometry":{"type":"LineString","coordinates":[[27.468382,42.524158],[27.46841,42.524228],[27.468439,42.524328],[27.468445,42.524409],[27.468448,42.524511],[27.468452,42.524708],[27.46844,42.525031],[27.468372,42.525473]]},"properties":{"name":"Димитър Димов"}},{"type":"Feature","geometry":{"type":"LineString","coordinates":[[27.469478,42.530908],[27.469385,42.53074],[27.469223,42.530499],[27.468978,42.53011],[27.468829,42.529618],[27.468713,42.529109],[27.468652,42.528675],[27.468514,42.527428],[27.468486,42.526927],[27.468454,42.526595],[27.468417,42.526285],[27.46838,42.525696],[27.468372,42.525473],[27.46832,42.525022],[27.468335,42.524711],[27.468324,42.524535],[27.468305,42.524427],[27.468281,42.524357],[27.468228,42.524279],[27.468158,42.524218]]},"properties":{"name":"Димитър Димов"}},{"type":"Feature","geometry":{"type":"LineString","coordinates":[[27.468598,42.519273],[27.468605,42.519153],[27.4686,42.518831],[27.468629,42.518591],[27.468665,42.518356],[27.468707,42.518106],[27.468763,42.517854],[27.468817,42.517642],[27.468923,42.517362],[27.469035,42.51712],[27.469177,42.516851],[27.469443,42.516466],[27.46952,42.516357],[27.469663,42.516152],[27.469736,42.516048],[27.469798,42.51596],[27.469917,42.515746],[27.469966,42.51563],[27.470069,42.515489],[27.470321,42.515123],[27.470393,42.515008],[27.470443,42.514932],[27.470598,42.514698],[27.470699,42.514617],[27.470761,42.514516],[27.47089,42.514329],[27.471073,42.514096],[27.471584,42.513701],[27.471952,42.513484],[27.472667,42.513113],[27.473995,42.512441],[27.474005,42.512398],[27.47406,42.512352],[27.474093,42.512308],[27.474104,42.512266],[27.474104,42.512226],[27.474102,42.512158]]},"properties":{"name":"Димитър Димов"}},{"type":"Feature","geometry":{"type":"LineString","coordinates":[[27.475552,42.549846],[27.475852,42.550139],[27.476009,42.550286],[27.476175,42.550435],[27.476355,42.550577],[27.476545,42.550704],[27.476771,42.55084],[27.476993,42.550961],[27.477291,42.551091],[27.47754,42.551187],[27.477776,42.551261],[27.478041,42.551332],[27.478313,42.55139],[27.478539,42.551435],[27.47876,42.551471],[27.478979,42.551495],[27.479201,42.551517],[27.480622,42.551626],[27.482857,42.551782],[27.486375,42.552066],[27.48815,42.552179],[27.489181,42.552271],[27.489891,42.552311],[27.490528,42.55236],[27.491377,42.552424],[27.491897,42.552464],[27.50021,42.5531],[27.502412,42.55328],[27.503817,42.553371],[27.507012,42.553621],[27.507814,42.553685],[27.508545,42.553786],[27.509314,42.553953],[27.509934,42.554152],[27.510652,42.554472],[27.511285,42.554843],[27.511765,42.555201],[27.512168,42.555571],[27.512623,42.55608],[27.513334,42.55685],[27.514053,42.557669],[27.514348,42.558],[27.514606,42.558332],[27.514915,42.558796],[27.515318,42.559595],[27.515792,42.560524],[27.516303,42.561641]]},"properties":{"name":"9"}},{"type":"Feature","geometry":{"type":"LineString","coordinates":[[27.476259,42.550617],[27.476467,42.55077],[27.476623,42.55087],[27.476813,42.550974],[27.476967,42.551051],[27.477138,42.551124],[27.477424,42.551239],[27.477656,42.551315],[27.47787,42.55138],[27.478132,42.551445],[27.478402,42.551498],[27.478578,42.551534],[27.478825,42.551574],[27.479035,42.551602],[27.479195,42.551617],[27.480605,42.551726],[27.486378,42.552167],[27.489065,42.552369],[27.489888,42.552418],[27.490485,42.552464],[27.491372,42.552532],[27.491878,42.552571],[27.494094,42.552747],[27.500192,42.553198],[27.502381,42.553377],[27.503716,42.55346],[27.507006,42.553717],[27.507803,42.553783],[27.508521,42.553882],[27.50927,42.554048],[27.50987,42.554238],[27.510599,42.554569],[27.511197,42.554922],[27.511657,42.555266],[27.51205,42.555623],[27.512456,42.556081],[27.513208,42.556926],[27.51394,42.557717],[27.514235,42.558071],[27.514515,42.558426],[27.514792,42.558828],[27.514933,42.55913],[27.515201,42.559628],[27.51523,42.559687],[27.515741,42.560724],[27.515785,42.560813],[27.516256,42.56184]]},"properties":{"name":"9"}},{"type":"Feature","geometry":{"type":"LineString","coordinates":[[27.474958,42.549479],[27.47479,42.549357],[27.474555,42.549215],[27.474319,42.549092],[27.474142,42.549015],[27.473924,42.548929],[27.473705,42.548851],[27.473489,42.548787],[27.473246,42.548733],[27.472947,42.548672],[27.472702,42.54864]]},"properties":{"name":"9"}},{"type":"Feature","geometry":{"type":"LineString","coordinates":[[27.475002,42.441657],[27.475478,42.441476],[27.475544,42.441446],[27.475602,42.441416],[27.475655,42.441383],[27.475701,42.441345],[27.47575,42.441301],[27.475796,42.441258],[27.47584,42.441214],[27.475873,42.44117],[27.475898,42.441133],[27.475929,42.44108],[27.475955,42.441029],[27.475978,42.440979],[27.475996,42.440933],[27.476015,42.440875],[27.476059,42.440729],[27.47617,42.440391],[27.476284,42.440181],[27.476435,42.439709]]},"properties":{"name":"9"}},{"type":"Feature","geometry":{"type":"LineString","coordinates":[[27.47725,42.439505],[27.477412,42.439648],[27.477949,42.440177],[27.478212,42.440453],[27.478412,42.440682]]},"properties":{"name":"9"}},{"type":"Feature","geometry":{"type":"LineString","coordinates":[[27.478253,42.441351],[27.477804,42.441589],[27.477681,42.441656],[27.477629,42.441676],[27.477544,42.441702],[27.477442,42.441724],[27.477366,42.441734],[27.477258,42.44174],[27.477133,42.441746],[27.476488,42.441738],[27.476183,42.441734],[27.475699,42.441727],[27.475559,42.441729],[27.47543,42.441737],[27.475229,42.441754],[27.475051,42.441774],[27.474045,42.441909]]},"properties":{"name":"9"}},{"type":"Feature","geometry":{"type":"LineString","coordinates":[[27.488907,42.551677],[27.489111,42.551612],[27.489287,42.551578],[27.489471,42.551548],[27.489653,42.551531],[27.489858,42.551519],[27.490042,42.551527],[27.490202,42.551545],[27.490352,42.551564],[27.490513,42.551601],[27.490715,42.551657],[27.490887,42.551739],[27.491036,42.551819],[27.491172,42.551899],[27.491281,42.551994],[27.491379,42.552092],[27.49147,42.552193],[27.491562,42.552318],[27.491618,42.552413],[27.491678,42.552526],[27.491725,42.552677],[27.49175,42.552838],[27.491754,42.55299],[27.491749,42.55312],[27.491717,42.553261],[27.491673,42.553401],[27.4916,42.553549],[27.491502,42.553712],[27.490997,42.55453],[27.490811,42.554846],[27.490696,42.555187],[27.490609,42.555578],[27.490604,42.556021],[27.490641,42.556489],[27.490719,42.556887],[27.490809,42.557185],[27.490938,42.557492],[27.491126,42.557796],[27.493563,42.561555],[27.494067,42.562332],[27.49421,42.562554],[27.494944,42.563688],[27.495696,42.564844],[27.49602,42.565343],[27.497237,42.567215],[27.498386,42.568966],[27.499444,42.570575],[27.49972,42.570984],[27.500336,42.571927],[27.501237,42.573263],[27.502483,42.575151],[27.50471,42.578512],[27.504998,42.578901],[27.505432,42.579395],[27.509475,42.583786]]},"properties":{"name":"906"}},{"type":"Feature","geometry":{"type":"LineString","coordinates":[[27.488168,42.612313],[27.489549,42.612567],[27.489968,42.612644],[27.490346,42.612722],[27.490704,42.612796],[27.491678,42.612998],[27.492002,42.613063],[27.492258,42.613115],[27.49292,42.613322]]},"properties":{"name":"Атанас Буров"}},{"type":"Feature","geometry":{"type":"LineString","coordinates":[[27.446244,42.524264],[27.446027,42.524407],[27.4459,42.524485],[27.445637,42.524604],[27.445496,42.524669],[27.4451,42.524848],[27.444957,42.524907],[27.444791,42.524944],[27.444584,42.524973],[27.443951,42.52506],[27.443558,42.525101],[27.443312,42.525111],[27.443233,42.525116]]},"properties":{"name":"Атанас Буров"}},{"type":"Feature","geometry":{"type":"LineString","coordinates":[[27.488084,42.610988],[27.488125,42.611629],[27.488168,42.612313],[27.48792,42.613443],[27.487858,42.613756],[27.487778,42.614155],[27.487751,42.614253],[27.487589,42.615095]]},"properties":{"name":"Васил Левски"}},{"type":"Feature","geometry":{"type":"LineString","coordinates":[[27.487589,42.615095],[27.486993,42.615201],[27.486613,42.615331],[27.486439,42.615398],[27.485857,42.615773],[27.485635,42.616034],[27.484765,42.616789]]},"properties":{"name":"Стефан Караджа"}},{"type":"Feature","geometry":{"type":"LineString","coordinates":[[27.484765,42.616789],[27.484678,42.617379],[27.484649,42.617763],[27.484634,42.618482],[27.484688,42.619087],[27.484858,42.619752],[27.485086,42.620566],[27.485283,42.621546],[27.485567,42.622466],[27.485866,42.623605],[27.485991,42.624144],[27.485963,42.624543],[27.485908,42.624848],[27.485655,42.626211],[27.485603,42.627561],[27.485626,42.627796]]},"properties":{"name":"Кирил и Методий"}},{"type":"Feature","geometry":{"type":"LineString","coordinates":[[27.487944,42.627451],[27.486904,42.627632],[27.485847,42.627835]]},"properties":{"name":"Г. Бенковски"}},{"type":"Feature","geometry":{"type":"LineString","coordinates":[[27.435851,42.513873],[27.436873,42.515845],[27.437093,42.51628],[27.437609,42.517253],[27.438043,42.518122],[27.438253,42.518542],[27.438298,42.518637],[27.438733,42.519488],[27.438835,42.519669],[27.438918,42.519775],[27.439022,42.519898],[27.439112,42.519978],[27.439299,42.520123],[27.43935,42.520152],[27.439402,42.520174],[27.439457,42.52019],[27.439521,42.520203]]},"properties":{"name":"Проф. Яким Якимов"}},{"type":"Feature","geometry":{"type":"LineString","coordinates":[[27.439323,42.520369],[27.439315,42.520315],[27.439299,42.520272],[27.439266,42.520228],[27.439218,42.520183],[27.439104,42.520091],[27.438959,42.519958],[27.438796,42.519771],[27.438695,42.519636],[27.438566,42.519418],[27.438428,42.519138],[27.438281,42.518852],[27.438183,42.51868],[27.437511,42.517355],[27.436805,42.516034],[27.436726,42.515887],[27.4357,42.513916],[27.435277,42.513104]]},"properties":{"name":"Проф. Яким Якимов"}},{"type":"Feature","geometry":{"type":"LineString","coordinates":[[27.439986,42.520468],[27.440019,42.520523],[27.440059,42.520557],[27.440128,42.520595],[27.440493,42.520778],[27.440739,42.520904],[27.442284,42.521681],[27.443699,42.522526],[27.444061,42.522737],[27.444301,42.522865],[27.444517,42.52298],[27.44464,42.523046],[27.445812,42.52367],[27.446146,42.523848],[27.446793,42.524196],[27.447481,42.524562],[27.447896,42.524771],[27.448497,42.525063],[27.448634,42.525129],[27.448786,42.525205],[27.449518,42.525594],[27.450742,42.526184],[27.451161,42.526383],[27.451516,42.526563],[27.451655,42.526626],[27.451743,42.526656],[27.451834,42.526677],[27.451911,42.52669],[27.451988,42.526697],[27.452069,42.526704],[27.452208,42.526713]]},"properties":{"name":"Проф. Яким Якимов"}},{"type":"Feature","geometry":{"type":"LineString","coordinates":[[27.451776,42.527242],[27.451504,42.526842],[27.451413,42.526744],[27.451298,42.52665],[27.451175,42.526577],[27.450882,42.526423],[27.449036,42.525487],[27.448716,42.525326],[27.448542,42.525237],[27.448441,42.525188],[27.447956,42.524956],[27.447836,42.52491],[27.44653,42.524397],[27.446244,42.524264],[27.445989,42.52412],[27.445587,42.523877],[27.444729,42.523396],[27.444453,42.52321],[27.444171,42.52302],[27.44391,42.522847],[27.443578,42.52262],[27.442983,42.522233],[27.442559,42.521988],[27.441895,42.521608],[27.44026,42.52076],[27.440077,42.52067],[27.439992,42.520643],[27.439925,42.52064],[27.439818,42.520649]]},"properties":{"name":"Проф. Яким Якимов"}},{"type":"Feature","geometry":{"type":"LineString","coordinates":[[27.438958,42.520785],[27.439131,42.520702],[27.439218,42.520645],[27.439256,42.520604],[27.439286,42.520549],[27.439319,42.520481]]},"properties":{"name":"Янко Комитов"}},{"type":"Feature","geometry":{"type":"LineString","coordinates":[[27.457344,42.512526],[27.456282,42.513006],[27.45622,42.513034],[27.456081,42.513097],[27.455985,42.513142],[27.455454,42.51339],[27.454353,42.513895],[27.454092,42.514014],[27.453784,42.514156],[27.453094,42.514454],[27.45278,42.514586],[27.452074,42.514914],[27.452046,42.514927],[27.451905,42.514994],[27.451818,42.515034],[27.450375,42.515685],[27.450196,42.515767],[27.449921,42.515891],[27.449823,42.515935],[27.449788,42.515951],[27.449301,42.51617],[27.449171,42.516225],[27.448349,42.516579],[27.448249,42.516624],[27.448143,42.516672],[27.44808,42.516701],[27.447973,42.516752],[27.447714,42.516864],[27.447339,42.517029],[27.447131,42.517129],[27.446927,42.517231],[27.446444,42.517467],[27.446303,42.517536],[27.446228,42.51757],[27.4449,42.518159],[27.444654,42.518271],[27.442706,42.519205],[27.442564,42.519268],[27.441596,42.519726],[27.441445,42.519777],[27.441289,42.519817],[27.44095,42.519907],[27.440808,42.519953],[27.440638,42.520026],[27.440173,42.520241],[27.440103,42.520276],[27.440045,42.52031],[27.439977,42.520368]]},"properties":{"name":"Янко Комитов"}},{"type":"Feature","geometry":{"type":"LineString","coordinates":[[27.439859,42.520237],[27.43995,42.520229],[27.439998,42.520224],[27.440036,42.520211],[27.440117,42.52018],[27.441168,42.519688],[27.44151,42.519544],[27.441556,42.519525],[27.441827,42.519423],[27.44239,42.519221],[27.44251,42.519178],[27.442578,42.519154],[27.442782,42.519078],[27.442924,42.519017],[27.443277,42.518849],[27.44446,42.518287],[27.444609,42.518216],[27.444737,42.518157],[27.444828,42.518116],[27.446173,42.517503],[27.446452,42.517363],[27.446551,42.5173],[27.446692,42.517197],[27.446769,42.517145],[27.446956,42.517021],[27.447042,42.516973],[27.447139,42.516929],[27.447484,42.516778],[27.447562,42.516744],[27.44763,42.516712],[27.447906,42.516588],[27.448036,42.516529],[27.448661,42.516245],[27.448904,42.516137],[27.449006,42.516095],[27.449142,42.51604],[27.44955,42.515877],[27.44985,42.515752],[27.449964,42.515704],[27.450192,42.515609],[27.450856,42.515323],[27.451702,42.51496],[27.451744,42.514942],[27.451832,42.514906],[27.451979,42.514841],[27.453456,42.514204],[27.453755,42.51407],[27.454001,42.513961],[27.454033,42.513946],[27.454282,42.513831],[27.455322,42.513345],[27.455793,42.513128],[27.455897,42.51308],[27.45592,42.513069],[27.456017,42.513025],[27.456161,42.512959],[27.456959,42.512598],[27.457102,42.512538]]},"properties":{"name":"Янко Комитов"}},{"type":"Feature","geometry":{"type":"LineString","coordinates":[[27.409742,42.520601],[27.408328,42.521024],[27.407803,42.521167],[27.407692,42.521197],[27.407022,42.52139],[27.406873,42.521427],[27.406399,42.521524],[27.405794,42.52163],[27.40545,42.521693],[27.404422,42.52188],[27.402454,42.522212],[27.40199,42.522289],[27.401129,42.522434],[27.398935,42.522805],[27.398044,42.522956],[27.397642,42.523015],[27.397212,42.523054],[27.396614,42.523066],[27.393766,42.522945],[27.392144,42.522876],[27.391033,42.522824],[27.390828,42.522812],[27.389627,42.522764],[27.388847,42.522764],[27.388059,42.52281]]},"properties":{"name":"9008"}},{"type":"Feature","geometry":{"type":"LineString","coordinates":[[27.38747,42.522893],[27.388059,42.52281],[27.38791,42.522805],[27.387819,42.522793],[27.38772,42.522769],[27.387639,42.522744],[27.387531,42.522694],[27.387454,42.522649],[27.387358,42.522579],[27.387226,42.522472],[27.386961,42.522141],[27.386898,42.522076],[27.386828,42.52202],[27.386732,42.521951],[27.385093,42.521286],[27.384153,42.520897],[27.383713,42.520718],[27.383365,42.520576]]},"properties":{"name":"9008"}},{"type":"Feature","geometry":{"type":"LineString","coordinates":[[27.383365,42.520576],[27.381084,42.519637],[27.381008,42.519604],[27.380248,42.519289],[27.380189,42.519264],[27.379759,42.519102],[27.379351,42.518944],[27.378688,42.518715],[27.378186,42.518571],[27.377585,42.518401],[27.377509,42.518383],[27.377413,42.51836],[27.37707,42.518261],[27.376569,42.518115],[27.375514,42.517819],[27.375306,42.517762],[27.373848,42.517328],[27.373786,42.517306],[27.373757,42.517296],[27.373693,42.517272],[27.373624,42.517247],[27.372671,42.516865],[27.372016,42.516642],[27.37191,42.516634],[27.371006,42.516569],[27.370169,42.516521],[27.370042,42.51651],[27.36907,42.516458],[27.36869,42.516445],[27.368273,42.51642],[27.368041,42.516407],[27.367162,42.516353],[27.365802,42.516288],[27.365583,42.516278],[27.364304,42.516201],[27.363737,42.516173],[27.363029,42.516139],[27.362469,42.516115],[27.362263,42.516106],[27.362181,42.516104]]},"properties":{"name":"Захари Зограф"}},{"type":"Feature","geometry":{"type":"LineString","coordinates":[[27.372016,42.516642],[27.371802,42.517685],[27.371606,42.518405],[27.371476,42.519226],[27.371366,42.519409]]},"properties":{"name":"Младост"}},{"type":"Feature","geometry":{"type":"LineString","coordinates":[[27.371366,42.519409],[27.369263,42.519773],[27.367985,42.520005],[27.367834,42.520028],[27.366454,42.519884],[27.364943,42.519729],[27.363899,42.51964],[27.361814,42.519428],[27.359896,42.519722]]},"properties":{"name":"Георги Дълбошки"}},{"type":"Feature","geometry":{"type":"LineString","coordinates":[[27.359896,42.519722],[27.359605,42.518714],[27.359229,42.517357]]},"properties":{"name":"Алабин"}},{"type":"Feature","geometry":{"type":"LineString","coordinates":[[27.359229,42.517357],[27.360398,42.516845],[27.360681,42.516725],[27.361153,42.51653],[27.362073,42.516149],[27.362181,42.516104]]},"properties":{"name":"Лом"}},{"type":"Feature","geometry":{"type":"LineString","coordinates":[[27.409186,42.529263],[27.409138,42.530264],[27.409099,42.531095],[27.409051,42.532089],[27.409019,42.532776],[27.408995,42.53326],[27.408955,42.5341],[27.408911,42.535031],[27.408868,42.535942],[27.408825,42.536837],[27.408775,42.537884]]},"properties":{"name":"Ястребино"}},{"type":"Feature","geometry":{"type":"LineString","coordinates":[[27.373773,42.517154],[27.373757,42.517296]]},"properties":{"name":"Петко Д. Петков"}},{"type":"Feature","geometry":{"type":"LineString","coordinates":[[27.462375,42.505108],[27.462428,42.505125],[27.462454,42.505151],[27.462486,42.50518],[27.46253,42.505242],[27.462559,42.505309],[27.46265,42.505521],[27.462834,42.505929]]},"properties":{"name":"бул. Струга"}},{"type":"Feature","geometry":{"type":"LineString","coordinates":[[27.462602,42.505002],[27.462618,42.505057],[27.46266,42.505172],[27.462698,42.505264],[27.462799,42.505623],[27.462834,42.505929],[27.463227,42.50755],[27.463331,42.507996],[27.46354,42.508847],[27.463709,42.509484],[27.463733,42.509591],[27.463756,42.509707],[27.463769,42.509771],[27.463776,42.509805],[27.463805,42.509946],[27.463819,42.510016],[27.463978,42.510594],[27.464124,42.51116],[27.464173,42.51135],[27.464296,42.511878],[27.464404,42.51229],[27.46442,42.51238],[27.46444,42.512532],[27.464432,42.51272],[27.464427,42.512759],[27.464422,42.512794],[27.464389,42.513031],[27.464351,42.513279]]},"properties":{"name":"бул. Струга"}},{"type":"Feature","geometry":{"type":"LineString","coordinates":[[27.463733,42.509591],[27.463566,42.50965],[27.463508,42.509668],[27.463289,42.509755],[27.46206,42.510261],[27.461741,42.510395],[27.460369,42.511045],[27.460032,42.511206],[27.459892,42.511273],[27.459744,42.511343],[27.458794,42.511794],[27.458421,42.511976],[27.458405,42.511984],[27.458316,42.512027],[27.458193,42.512088],[27.458136,42.512115],[27.457886,42.512236]]},"properties":{"name":"бул. Даме Груев"}},{"type":"Feature","geometry":{"type":"LineString","coordinates":[[27.457344,42.512526],[27.457394,42.512503],[27.457527,42.51244],[27.457591,42.51241],[27.457612,42.512402],[27.457827,42.512319],[27.457886,42.512236],[27.457787,42.512242],[27.457531,42.512343],[27.457463,42.512375],[27.457433,42.51239],[27.457332,42.512435],[27.457284,42.512457],[27.457102,42.512538]]},"properties":{"name":"бул. Даме Груев"}},{"type":"Feature","geometry":{"type":"LineString","coordinates":[[27.419546,42.512002],[27.420112,42.511987],[27.421365,42.511954],[27.424578,42.511868],[27.429289,42.511772],[27.42981,42.511711],[27.430151,42.511662],[27.430396,42.511633],[27.43057,42.511625],[27.433128,42.51156],[27.433262,42.511563],[27.433437,42.511572],[27.433604,42.511597],[27.433802,42.51163],[27.433989,42.511662],[27.434083,42.511665],[27.434182,42.511661]]},"properties":{"name":"Крайезерна"}},{"type":"Feature","geometry":{"type":"LineString","coordinates":[[27.476163,42.502187],[27.476246,42.502232]]},"properties":{"name":"Иван Богоров"}},{"type":"Feature","geometry":{"type":"LineString","coordinates":[[27.479273,42.499268],[27.479381,42.499323]]},"properties":{"name":"Св. Св. Кирил и Методий"}},{"type":"Feature","geometry":{"type":"LineString","coordinates":[[27.479717,42.498981],[27.479542,42.499161]]},"properties":{"name":"Демокрация"}},{"type":"Feature","geometry":{"type":"LineString","coordinates":[[27.479752,42.492989],[27.479787,42.492948],[27.479881,42.492879],[27.479935,42.492851]]},"properties":{"name":"Цар Симеон I"}},{"type":"Feature","geometry":{"type":"LineString","coordinates":[[27.479787,42.492948],[27.479746,42.492852]]},"properties":{"name":"Булаир"}},{"type":"Feature","geometry":{"type":"LineString","coordinates":[[27.475422,42.491367],[27.475588,42.491389],[27.475631,42.491395],[27.475955,42.491443],[27.476273,42.491497],[27.476768,42.49162],[27.477528,42.491826],[27.478246,42.49201],[27.4784,42.492053],[27.478529,42.49209],[27.47879,42.492169],[27.478952,42.492234],[27.479081,42.492301],[27.479251,42.492401],[27.479315,42.492441],[27.479434,42.492536],[27.479746,42.492852],[27.479881,42.492879]]},"properties":{"name":"Булаир"}},{"type":"Feature","geometry":{"type":"LineString","coordinates":[[27.4784,42.492053],[27.478385,42.491972],[27.478375,42.491943],[27.478177,42.491306]]},"properties":{"name":"Славянска"}},{"type":"Feature","geometry":{"type":"LineString","coordinates":[[27.478177,42.491306],[27.47813,42.491292],[27.477776,42.491183],[27.477453,42.491088],[27.477015,42.490955],[27.476727,42.490861],[27.476201,42.490696]]},"properties":{"name":"Филип Кутев"}},{"type":"Feature","geometry":{"type":"LineString","coordinates":[[27.477453,42.491088],[27.4775,42.49149]]},"properties":{"name":"Лавеле"}},{"type":"Feature","geometry":{"type":"LineString","coordinates":[[27.476201,42.490696],[27.475588,42.490698],[27.475432,42.490715]]},"properties":{"name":"Княз Александър Батенберг"}},{"type":"Feature","geometry":{"type":"LineString","coordinates":[[27.473382,42.491266],[27.473233,42.491258],[27.473182,42.491256],[27.472882,42.491241],[27.472678,42.491241],[27.472388,42.491258],[27.472115,42.491285],[27.47209,42.491288],[27.471936,42.491303],[27.471706,42.491307],[27.471642,42.491295],[27.471163,42.491203],[27.471157,42.491202],[27.470686,42.491104],[27.46997,42.490948],[27.467843,42.490459],[27.467738,42.490437],[27.467581,42.490402],[27.467456,42.490375],[27.467193,42.490324],[27.467059,42.490302],[27.466933,42.49029],[27.46676,42.49028],[27.466624,42.490277],[27.466532,42.490275],[27.466377,42.490287],[27.466144,42.490321],[27.465838,42.490369],[27.464833,42.490513],[27.464716,42.49053],[27.464583,42.490557],[27.46445,42.490585],[27.464363,42.490609],[27.463802,42.490773],[27.463003,42.491019],[27.461752,42.491429],[27.461512,42.491508],[27.461403,42.491544],[27.461371,42.491553]]},"properties":{"name":"Иван Вазов"}},{"type":"Feature","geometry":{"type":"LineString","coordinates":[[27.44141,42.482068],[27.441507,42.48222],[27.441584,42.482306],[27.44176,42.482469],[27.441851,42.482552],[27.442088,42.482752],[27.442437,42.482964],[27.442976,42.483291],[27.443884,42.483816],[27.444561,42.484213],[27.444954,42.484438],[27.445111,42.484528],[27.446221,42.485172],[27.447251,42.485808],[27.448218,42.486385],[27.448615,42.48662],[27.449213,42.486966],[27.449278,42.487],[27.449932,42.487395],[27.450877,42.487949],[27.450987,42.488014],[27.451384,42.488247],[27.451953,42.488589],[27.452525,42.488932],[27.452836,42.489113],[27.453289,42.489375],[27.454217,42.489933],[27.454683,42.490204],[27.454722,42.490225],[27.454772,42.490251]]},"properties":{"name":"Индустриална"}},{"type":"Feature","geometry":{"type":"LineString","coordinates":[[27.461135,42.4915],[27.461056,42.491484],[27.460805,42.491429],[27.457141,42.490715],[27.456124,42.490548],[27.455765,42.490495],[27.455527,42.490453],[27.455399,42.490424],[27.455342,42.490409],[27.455185,42.490366],[27.455048,42.490328],[27.454898,42.490279],[27.454772,42.490251],[27.454854,42.490343],[27.455001,42.490393],[27.455157,42.490445],[27.455307,42.490486],[27.455361,42.490501],[27.45557,42.490547],[27.456013,42.490636],[27.456094,42.490651],[27.457131,42.490818],[27.457543,42.490902],[27.46076,42.49155],[27.460964,42.491596],[27.461087,42.491624],[27.461126,42.491623],[27.461164,42.491621],[27.4612,42.491615],[27.461243,42.491603],[27.461371,42.491553],[27.461325,42.49155],[27.461278,42.491539],[27.461231,42.491524],[27.461135,42.4915]]},"properties":{"name":"Индустриална"}},{"type":"Feature","geometry":{"type":"LineString","coordinates":[[27.44141,42.482068],[27.441334,42.48194],[27.44116,42.481692],[27.441129,42.481648],[27.441043,42.481486],[27.440763,42.480746],[27.440536,42.480205],[27.440198,42.479358],[27.440142,42.479216],[27.439961,42.478764],[27.439848,42.478481],[27.439813,42.478393],[27.439734,42.478196],[27.439513,42.47763],[27.439411,42.477368],[27.439381,42.477291],[27.439212,42.476858],[27.439036,42.476494],[27.438834,42.47624],[27.438684,42.476114],[27.438528,42.475984],[27.438138,42.475661],[27.437514,42.475143],[27.43734,42.474998],[27.437114,42.474811],[27.436718,42.474482],[27.436654,42.474429]]},"properties":{"name":"Чаталджа"}},{"type":"Feature","geometry":{"type":"LineString","coordinates":[[27.436138,42.474362],[27.436224,42.474344],[27.436306,42.474337],[27.436394,42.474335],[27.436467,42.474346],[27.436525,42.474368],[27.436654,42.474429],[27.436536,42.474286],[27.43646,42.474188],[27.436388,42.474091],[27.436321,42.473968]]},"properties":{"name":"Чаталджа"}},{"type":"Feature","geometry":{"type":"LineString","coordinates":[[27.434975,42.47392],[27.4349,42.473721],[27.434868,42.473642],[27.434825,42.473567],[27.434741,42.47347],[27.434605,42.473383],[27.434484,42.473329],[27.434312,42.473296],[27.434086,42.473263],[27.433703,42.473224],[27.433202,42.473171],[27.432763,42.473124],[27.432052,42.473043],[27.431828,42.473016],[27.431542,42.47298],[27.431344,42.472956],[27.431293,42.472949],[27.430782,42.472902],[27.429081,42.472739],[27.427948,42.472612],[27.42755,42.472525],[27.427339,42.472472],[27.427087,42.472396],[27.42689,42.472322],[27.42677,42.472277],[27.426671,42.47223],[27.426588,42.472188],[27.426198,42.471994],[27.42585,42.471794],[27.42548,42.471531],[27.424907,42.470987],[27.423905,42.469637],[27.42378,42.469478],[27.423494,42.469115],[27.423123,42.468751],[27.42258,42.468374],[27.422335,42.468242],[27.422041,42.468079],[27.421587,42.467911],[27.420898,42.467722],[27.419921,42.467585],[27.419785,42.467562],[27.417621,42.467179],[27.417076,42.467042],[27.416607,42.466898],[27.416189,42.466729],[27.415837,42.46656],[27.415312,42.466265],[27.414907,42.465997],[27.413986,42.465233],[27.413898,42.465155],[27.413227,42.464562],[27.413186,42.464529],[27.413053,42.464422],[27.410622,42.462392],[27.410476,42.46227],[27.410444,42.462176]]},"properties":{"name":"бул. Захари Стоянов"}},{"type":"Feature","geometry":{"type":"LineString","coordinates":[[27.435314,42.473262],[27.435197,42.473269],[27.435031,42.473257],[27.434772,42.473224],[27.434297,42.473162],[27.433973,42.473118],[27.432693,42.47293],[27.431884,42.472789],[27.431354,42.472696],[27.431292,42.472684],[27.430612,42.472561],[27.430289,42.472537],[27.429886,42.472518],[27.429323,42.47252],[27.428801,42.472533],[27.428532,42.472535],[27.428379,42.472538],[27.428194,42.472528],[27.428084,42.472519],[27.427933,42.472497],[27.427772,42.472462],[27.427631,42.47243],[27.427259,42.472329],[27.426836,42.472196],[27.426736,42.472156],[27.426661,42.472119],[27.426633,42.472106],[27.426303,42.471947],[27.425844,42.47167],[27.42557,42.471466],[27.424981,42.470906],[27.424297,42.469966],[27.424034,42.469604],[27.423591,42.469044],[27.42321,42.468687],[27.422642,42.468292],[27.422006,42.467956],[27.421411,42.467746],[27.420676,42.467576],[27.420273,42.467496],[27.419832,42.467417],[27.419637,42.467384],[27.41919,42.467325],[27.417674,42.467078],[27.417062,42.466927],[27.41649,42.466729],[27.415955,42.46649],[27.415684,42.466351],[27.415421,42.466199],[27.414996,42.465919],[27.414,42.465086],[27.413284,42.464424],[27.413166,42.464322],[27.413044,42.464222],[27.412722,42.463958],[27.411811,42.463205],[27.411717,42.463128],[27.411248,42.462701],[27.410578,42.462199],[27.410444,42.462176],[27.410222,42.462],[27.410011,42.461833],[27.409817,42.461679],[27.409343,42.461304],[27.409228,42.46122],[27.409094,42.461123],[27.408651,42.460757],[27.408597,42.46071],[27.408484,42.460605],[27.408397,42.460525],[27.407603,42.459777],[27.406601,42.458816],[27.406412,42.458642],[27.405688,42.457976],[27.405597,42.457892],[27.405577,42.457874],[27.405503,42.457806],[27.404367,42.456761],[27.404291,42.456691],[27.404233,42.456637],[27.403888,42.456335],[27.403169,42.45576],[27.401672,42.454499],[27.40146,42.454303],[27.401213,42.454062]]},"properties":{"name":"бул. Захари Стоянов"}},{"type":"Feature","geometry":{"type":"LineString","coordinates":[[27.42633,42.472696],[27.42613,42.472747]]},"properties":{"name":"7909"}},{"type":"Feature","geometry":{"type":"LineString","coordinates":[[27.379592,42.480839],[27.380298,42.48084],[27.381486,42.480856],[27.383009,42.480876],[27.385832,42.480907],[27.385887,42.480905],[27.386391,42.480857],[27.386719,42.480745],[27.387063,42.4806],[27.387337,42.480423],[27.387552,42.480258],[27.387749,42.480055],[27.38956,42.477928],[27.389869,42.477675],[27.390324,42.477397],[27.390805,42.477194],[27.391397,42.477061],[27.394101,42.476612],[27.394564,42.476472],[27.394933,42.476314],[27.395285,42.476099],[27.397062,42.474763],[27.397354,42.474605],[27.397723,42.474491],[27.398109,42.474447],[27.398461,42.474472],[27.398813,42.474548],[27.399242,42.474725],[27.402598,42.476232],[27.403122,42.476428],[27.403705,42.476593],[27.405757,42.476992],[27.40719,42.477283],[27.407842,42.477365],[27.411841,42.477559],[27.412549,42.477594],[27.412666,42.477599],[27.413009,42.47758],[27.413353,42.477523],[27.413645,42.477435],[27.413928,42.477314],[27.414183,42.47718],[27.414397,42.477042],[27.416063,42.475684],[27.416156,42.475605],[27.417658,42.474348],[27.418297,42.473814],[27.418657,42.473636],[27.418859,42.473557],[27.419026,42.473491],[27.419421,42.473383],[27.419902,42.473301],[27.420243,42.47327],[27.420399,42.473256],[27.421685,42.473254],[27.422036,42.473253],[27.423292,42.47325],[27.423815,42.473225],[27.424322,42.47313],[27.425428,42.472895],[27.42613,42.472747],[27.426361,42.472611],[27.42642,42.47255],[27.426583,42.472348],[27.426614,42.472309],[27.426671,42.47223],[27.426736,42.472156]]},"properties":{"name":"7909"}},{"type":"Feature","geometry":{"type":"LineString","coordinates":[[27.385923,42.481094],[27.385854,42.48116],[27.385622,42.48148],[27.385298,42.481698],[27.38443,42.482244],[27.384306,42.482322],[27.383343,42.482897],[27.381816,42.483911],[27.381651,42.484027],[27.381317,42.484234],[27.381264,42.484267],[27.38085,42.484552],[27.380259,42.484915],[27.379711,42.485294],[27.379485,42.485445]]},"properties":{"name":"Дружба"}},{"type":"Feature","geometry":{"type":"LineString","coordinates":[[27.379285,42.485579],[27.379006,42.485702],[27.378696,42.485803],[27.378415,42.485829],[27.378148,42.485837],[27.377902,42.485848],[27.377837,42.485765],[27.37774,42.485604],[27.37764,42.485403],[27.377609,42.485235],[27.377589,42.485095],[27.377622,42.484723],[27.377608,42.483796],[27.376994,42.48294]]},"properties":{"name":"Дружба"}},{"type":"Feature","geometry":{"type":"LineString","coordinates":[[27.379592,42.480839],[27.379559,42.481059],[27.378358,42.482109],[27.377689,42.482534],[27.376994,42.48294]]},"properties":{"name":"Липа"}},{"type":"Feature","geometry":{"type":"LineString","coordinates":[[27.473382,42.491266],[27.473501,42.491273],[27.473593,42.491278],[27.474035,42.491302],[27.475173,42.49135],[27.475227,42.491352],[27.475277,42.491354],[27.475325,42.491356],[27.475422,42.491367]]},"properties":{"name":"Царица Йоанна"}},{"type":"Feature","geometry":{"type":"LineString","coordinates":[[27.480033,42.498641],[27.480063,42.498737],[27.480081,42.498807],[27.480096,42.498872],[27.480185,42.499294],[27.480204,42.499409],[27.480275,42.499851],[27.480362,42.500365],[27.480428,42.500751],[27.480438,42.500813],[27.480454,42.500905],[27.480462,42.500958],[27.480466,42.500991],[27.480645,42.502208],[27.480814,42.503274],[27.48083,42.503468],[27.480828,42.503572],[27.480836,42.503639],[27.480844,42.503791],[27.480859,42.504048],[27.480883,42.504545],[27.480905,42.505209],[27.4809,42.505302],[27.480894,42.505369],[27.480835,42.505629],[27.480748,42.505986],[27.480669,42.506222],[27.480598,42.506409],[27.48058,42.506452],[27.480474,42.506702],[27.480386,42.50686],[27.480357,42.506912],[27.480184,42.50718],[27.480078,42.507333],[27.479931,42.507541],[27.479652,42.507842],[27.479439,42.508051],[27.479419,42.50807],[27.479329,42.508158],[27.47924,42.508239],[27.479199,42.508286],[27.479075,42.508383],[27.478671,42.508702],[27.477194,42.5098],[27.476926,42.509995],[27.475958,42.510706],[27.474794,42.511482],[27.474613,42.511583],[27.474354,42.511684],[27.474174,42.511724],[27.473991,42.511779],[27.473914,42.511817],[27.473878,42.511858],[27.473858,42.511912],[27.473877,42.511967],[27.474102,42.512158]]},"properties":{"name":"24-ти черноморски пехотен полк"}},{"type":"Feature","geometry":{"type":"LineString","coordinates":[[27.480669,42.506222],[27.480196,42.506194],[27.480069,42.506185],[27.479883,42.506172],[27.479244,42.506128],[27.478844,42.506101],[27.478473,42.506068],[27.478398,42.506062],[27.477965,42.506027],[27.477889,42.506016],[27.477732,42.505968],[27.477606,42.505917],[27.477546,42.505885],[27.477479,42.505841],[27.477425,42.505792],[27.477354,42.505707],[27.477145,42.505392],[27.477071,42.505276],[27.47698,42.505172],[27.476867,42.505072],[27.476717,42.504973],[27.476657,42.504938],[27.476284,42.504727],[27.475792,42.504466],[27.47574,42.504425],[27.475483,42.504198],[27.475339,42.50408],[27.475287,42.504007],[27.475204,42.50394],[27.475098,42.503879],[27.47501,42.503844],[27.474936,42.503828],[27.474857,42.503815],[27.474776,42.503799]]},"properties":{"name":"Константин Величков"}},{"type":"Feature","geometry":{"type":"LineString","coordinates":[[27.403699,42.459044],[27.404002,42.458696],[27.404088,42.458633],[27.404779,42.458289],[27.40548,42.457947],[27.405597,42.457892],[27.405717,42.457831],[27.406952,42.457182],[27.408047,42.456595],[27.408132,42.456537],[27.409146,42.456012],[27.409318,42.45592],[27.409316,42.455917],[27.409378,42.455886],[27.409512,42.455816],[27.409679,42.455727],[27.410194,42.455452],[27.41033,42.455379],[27.411355,42.454742],[27.41187,42.454362],[27.411981,42.454268],[27.412069,42.454168],[27.412242,42.453948],[27.412486,42.453656],[27.41282,42.453234],[27.412873,42.453167],[27.413016,42.452969],[27.413097,42.452864],[27.413172,42.452763],[27.4134,42.452452],[27.413447,42.452375],[27.413605,42.452035],[27.41371,42.45164],[27.413715,42.451452],[27.41371,42.451225],[27.413711,42.451041],[27.413717,42.450812],[27.413731,42.45059],[27.413783,42.450429],[27.413864,42.450325],[27.413957,42.450262],[27.414016,42.450221],[27.414042,42.450212],[27.414281,42.450123],[27.414543,42.45008],[27.414741,42.450092],[27.414919,42.450116],[27.415049,42.450143],[27.415879,42.450347],[27.415999,42.450377],[27.416579,42.450535],[27.41737,42.450782],[27.417533,42.450833],[27.417918,42.451017],[27.418312,42.451206],[27.418406,42.451255],[27.418479,42.451292],[27.41863,42.45137],[27.418673,42.451402],[27.418897,42.451564],[27.418968,42.451663],[27.419108,42.45186],[27.419239,42.452164],[27.419276,42.452252],[27.419335,42.452341],[27.419377,42.452406],[27.419641,42.452664],[27.420064,42.452881],[27.420126,42.452905],[27.42023,42.452944],[27.420398,42.453017]]},"properties":{"name":"Въстаническа"}},{"type":"Feature","geometry":{"type":"LineString","coordinates":[[27.403169,42.45576],[27.402917,42.455869],[27.402805,42.455982],[27.402743,42.45606],[27.402473,42.45638],[27.40229,42.45659],[27.402348,42.45673],[27.402376,42.456798],[27.402646,42.457217],[27.402857,42.457451]]},"properties":{"name":"Ортото"}},{"type":"Feature","geometry":{"type":"LineString","coordinates":[[27.401277,42.458095],[27.401371,42.458133],[27.401779,42.458252],[27.403699,42.459044]]},"properties":{"name":"Балкан"}},{"type":"Feature","geometry":{"type":"LineString","coordinates":[[27.401127,42.458682],[27.401371,42.458133]]},"properties":{"name":"Ленко"}},{"type":"Feature","geometry":{"type":"LineString","coordinates":[[27.400864,42.459416],[27.400928,42.459465],[27.401657,42.459754],[27.401912,42.459854],[27.402425,42.460056],[27.402724,42.460184],[27.402767,42.460198],[27.402813,42.460203]]},"properties":{"name":"Босна"}},{"type":"Feature","geometry":{"type":"LineString","coordinates":[[27.402838,42.460287],[27.402947,42.460449],[27.403107,42.460662],[27.403568,42.461248],[27.403853,42.461615],[27.404231,42.461968],[27.404563,42.462182],[27.404657,42.462247],[27.404787,42.462382],[27.404887,42.462522],[27.404926,42.462597],[27.405018,42.4628],[27.405136,42.463083],[27.405392,42.463664],[27.405467,42.463834]]},"properties":{"name":"Босна"}},{"type":"Feature","geometry":{"type":"LineString","coordinates":[[27.405467,42.463834],[27.405808,42.46377],[27.406087,42.463675],[27.406436,42.4634],[27.406907,42.462989],[27.407319,42.462637],[27.407516,42.462468],[27.40822,42.461853],[27.408625,42.461521],[27.408932,42.461254],[27.409094,42.461123]]},"properties":{"name":"Миньорска"}},{"type":"Feature","geometry":{"type":"LineString","coordinates":[[27.413053,42.464422],[27.413102,42.464385],[27.413166,42.464322],[27.4132,42.464284],[27.41324,42.464235],[27.413415,42.463972],[27.413448,42.46391],[27.413474,42.463829],[27.413505,42.463548],[27.413521,42.463004],[27.41354,42.462678],[27.413544,42.462213],[27.413564,42.461853],[27.413634,42.46158],[27.413664,42.461498],[27.413685,42.461452],[27.413694,42.461428],[27.41379,42.461263],[27.413836,42.461205],[27.41441,42.460513],[27.414427,42.460493],[27.414704,42.460156],[27.414896,42.4599],[27.415227,42.459463],[27.415269,42.459401],[27.415348,42.459308],[27.415427,42.459198],[27.415774,42.4587],[27.416187,42.458163],[27.416467,42.457787],[27.416835,42.457293],[27.41687,42.457245],[27.417001,42.457069],[27.417107,42.456934],[27.418506,42.455155],[27.418854,42.454714],[27.419072,42.454439],[27.419221,42.454244],[27.419537,42.453833],[27.420067,42.453149],[27.420098,42.453112],[27.42023,42.452944]]},"properties":{"name":"бул. Александър Георгиев Коджакафалията"}},{"type":"Feature","geometry":{"type":"LineString","coordinates":[[27.413186,42.464529],[27.413284,42.464424],[27.413317,42.464382],[27.41337,42.464314],[27.413496,42.464148],[27.413585,42.463979],[27.413616,42.463806],[27.413666,42.463008],[27.413683,42.462714],[27.413689,42.46251],[27.413691,42.462219],[27.413705,42.461852],[27.413751,42.461646],[27.413821,42.461486],[27.413934,42.4613],[27.413983,42.461239],[27.414025,42.461188],[27.414596,42.460503],[27.414816,42.460239],[27.415325,42.459565],[27.415403,42.459462],[27.415473,42.459366],[27.415553,42.459258],[27.415599,42.459197],[27.416007,42.458623],[27.417023,42.457315],[27.417119,42.457188],[27.417191,42.457108],[27.417281,42.457006],[27.417301,42.456984],[27.417931,42.456191],[27.418086,42.455996],[27.418635,42.455306],[27.418691,42.455235],[27.419123,42.454696],[27.419232,42.454558],[27.419265,42.454518],[27.420272,42.453184],[27.420398,42.453017]]},"properties":{"name":"бул. Александър Георгиев Коджакафалията"}},{"type":"Feature","geometry":{"type":"LineString","coordinates":[[27.419219,42.458225],[27.419074,42.458145],[27.418295,42.457715],[27.417877,42.457484],[27.417348,42.457191],[27.417191,42.457108],[27.417001,42.457069],[27.417119,42.457188],[27.417249,42.457296],[27.417339,42.457342],[27.417657,42.457522],[27.418131,42.457776],[27.41898,42.458247],[27.419136,42.458315]]},"properties":{"name":"Петрова нива"}},{"type":"Feature","geometry":{"type":"LineString","coordinates":[[27.419219,42.458225],[27.419136,42.458315],[27.419077,42.458383],[27.41878,42.458709],[27.418688,42.458812],[27.418275,42.459349],[27.418184,42.459464],[27.417962,42.459759],[27.417729,42.46003],[27.417301,42.460539],[27.417224,42.460633],[27.416887,42.461004]]},"properties":{"name":"Константин Петканов"}},{"type":"Feature","geometry":{"type":"LineString","coordinates":[[27.418688,42.458812],[27.418778,42.458854],[27.419155,42.459072],[27.419383,42.45929],[27.419463,42.459468],[27.419544,42.459694],[27.419519,42.459837],[27.419496,42.459917],[27.419416,42.46009],[27.419294,42.460324],[27.419199,42.460502],[27.419058,42.460746],[27.418678,42.461162],[27.418562,42.461305],[27.418459,42.461444],[27.418373,42.461569],[27.418349,42.461679]]},"properties":{"name":"Дъга"}},{"type":"Feature","geometry":{"type":"LineString","coordinates":[[27.42052,42.465848],[27.420187,42.465446],[27.419709,42.464908],[27.419572,42.464755],[27.419289,42.464436],[27.419096,42.464188],[27.418978,42.463943],[27.418911,42.463739],[27.418889,42.463621],[27.418895,42.463484],[27.418957,42.463111],[27.419002,42.462808],[27.418748,42.462351],[27.418724,42.462314],[27.418662,42.462219],[27.418532,42.461988],[27.418397,42.461759],[27.418349,42.461679],[27.418224,42.461581],[27.418006,42.461487],[27.417905,42.461442],[27.417841,42.461418],[27.417729,42.46137],[27.416887,42.461004],[27.416716,42.460927],[27.416168,42.460679],[27.415816,42.46052],[27.415737,42.460221],[27.4157,42.459986],[27.415681,42.459829],[27.41567,42.459739],[27.41562,42.459595],[27.415578,42.459521],[27.415556,42.459474],[27.415473,42.459366]]},"properties":{"name":"Апостол Войвода"}},{"type":"Feature","geometry":{"type":"LineString","coordinates":[[27.420575,42.465808],[27.42052,42.465848],[27.420349,42.466063],[27.420317,42.466104],[27.420148,42.466383],[27.420069,42.466526],[27.419914,42.467131],[27.419855,42.467336],[27.419845,42.46737],[27.419832,42.467417],[27.419785,42.467562]]},"properties":{"name":"Георги Попаянов"}},{"type":"Feature","geometry":{"type":"LineString","coordinates":[[27.435999,42.474444],[27.435886,42.47456],[27.435823,42.474654],[27.43579,42.474749],[27.435774,42.474867],[27.435743,42.4753],[27.435738,42.475948],[27.435759,42.476384],[27.435771,42.476626],[27.4358,42.476876],[27.435846,42.477212],[27.435906,42.477731],[27.435933,42.478143],[27.436005,42.478356],[27.436247,42.478974],[27.436319,42.47916],[27.436534,42.479628],[27.436682,42.479928],[27.4368,42.480161],[27.436996,42.48049],[27.437283,42.480927],[27.437467,42.481184],[27.437559,42.481311],[27.437695,42.481499],[27.438029,42.481944],[27.438353,42.482306],[27.43937,42.483413],[27.439885,42.483926],[27.440432,42.484451],[27.441896,42.485774],[27.442032,42.485897],[27.442728,42.486519],[27.44352,42.48723],[27.443807,42.487492],[27.444328,42.487949],[27.444749,42.488318],[27.446591,42.489923],[27.447574,42.490902],[27.449057,42.492194],[27.450093,42.493104],[27.45032,42.493319],[27.450416,42.493407],[27.450483,42.493467],[27.450795,42.493751],[27.451033,42.493969],[27.45125,42.494163],[27.452967,42.495698],[27.454553,42.497206],[27.4551,42.497725],[27.459221,42.501581],[27.46023,42.502486],[27.460718,42.502925],[27.460815,42.503012],[27.461225,42.503411],[27.461769,42.503971],[27.462232,42.504426],[27.4623,42.504533],[27.462363,42.504628],[27.462381,42.504654],[27.462436,42.504714]]},"properties":{"name":"Тодор Александров"}},{"type":"Feature","geometry":{"type":"LineString","coordinates":[[27.435034,42.474191],[27.435117,42.474426],[27.435155,42.474545],[27.43519,42.474676],[27.435231,42.474907],[27.435273,42.475356],[27.435345,42.476287],[27.435362,42.476556],[27.435391,42.476762],[27.435393,42.47678],[27.435437,42.477017],[27.435498,42.477301],[27.435788,42.478162],[27.435923,42.478557],[27.436078,42.478957],[27.43618,42.479205],[27.436305,42.479484],[27.436449,42.479789],[27.436593,42.480079],[27.436684,42.480245],[27.436822,42.480468],[27.436926,42.480641],[27.437133,42.480959],[27.437263,42.481157],[27.437514,42.481513],[27.437852,42.481962],[27.438222,42.482396],[27.438633,42.482852],[27.438957,42.483188],[27.439239,42.48348],[27.439779,42.484003],[27.440357,42.484553],[27.44193,42.485986],[27.442671,42.486651],[27.443692,42.487585],[27.44749,42.490989],[27.450292,42.493485],[27.450365,42.493547],[27.450487,42.493653],[27.450761,42.493892],[27.450935,42.49403],[27.451148,42.494226],[27.453013,42.495918],[27.45461,42.497426],[27.455,42.497783],[27.459128,42.501635],[27.460661,42.503034],[27.461079,42.503428],[27.461119,42.503464],[27.461612,42.503946],[27.461881,42.50422],[27.461991,42.504336],[27.462075,42.50442],[27.462183,42.504572],[27.462199,42.504604],[27.462213,42.504657],[27.462215,42.504686],[27.462213,42.504739]]},"properties":{"name":"Тодор Александров"}},{"type":"Feature","geometry":{"type":"LineString","coordinates":[[27.435353,42.473249],[27.435443,42.473178],[27.43556,42.473073],[27.435613,42.472999],[27.435633,42.47297],[27.435687,42.472839],[27.435713,42.472703],[27.435931,42.47181],[27.436041,42.47142],[27.436273,42.470593],[27.436327,42.470441],[27.436404,42.470265],[27.436695,42.469619],[27.436907,42.468942],[27.436964,42.468731],[27.437295,42.467642],[27.437746,42.466153],[27.438751,42.462927],[27.438919,42.46237],[27.439058,42.461911],[27.440227,42.458039],[27.440451,42.457361],[27.440611,42.456996],[27.440831,42.456606],[27.440974,42.45638],[27.441322,42.455956],[27.441395,42.455867],[27.441615,42.455639],[27.441809,42.455464],[27.441875,42.455408],[27.442179,42.45515],[27.44247,42.454935],[27.44279,42.454717],[27.443056,42.454557],[27.443349,42.4544],[27.443518,42.454311],[27.443764,42.454184],[27.44394,42.454092],[27.44412,42.453995],[27.445091,42.453495],[27.447196,42.452393],[27.449314,42.451278],[27.451895,42.449924],[27.454269,42.448689],[27.456653,42.447432],[27.459029,42.44619],[27.460829,42.445244],[27.462521,42.444349],[27.462973,42.44413],[27.463452,42.443926],[27.463866,42.443768],[27.46431,42.443615],[27.464675,42.443501],[27.465056,42.443394],[27.465521,42.443282],[27.465687,42.44325],[27.466002,42.443188],[27.467772,42.442886],[27.468689,42.442732],[27.471037,42.442339],[27.47264,42.442071],[27.474024,42.441851],[27.474397,42.441786],[27.47468,42.441732],[27.475002,42.441657]]},"properties":{"name":"Тодор Александров"}},{"type":"Feature","geometry":{"type":"LineString","coordinates":[[27.474045,42.441909],[27.472402,42.442182],[27.469829,42.442609],[27.468709,42.442797],[27.467791,42.442953],[27.467041,42.443084],[27.466026,42.443258],[27.465545,42.443352],[27.46509,42.443463],[27.464718,42.443568],[27.464353,42.443688],[27.463929,42.443844],[27.463519,42.444008],[27.463047,42.444208],[27.462593,42.444436],[27.460903,42.445333],[27.459109,42.446273],[27.456733,42.447516],[27.454345,42.448773],[27.451971,42.45001],[27.449393,42.451365],[27.447272,42.452477],[27.445188,42.453573],[27.444017,42.454186],[27.443435,42.454486],[27.443069,42.454687],[27.442894,42.454792],[27.442576,42.455004],[27.442295,42.455219],[27.442004,42.455454],[27.44176,42.455674],[27.44153,42.455912],[27.441261,42.456272],[27.441083,42.456516],[27.4409,42.456766],[27.440609,42.457355],[27.440377,42.458058],[27.438883,42.462972],[27.437956,42.465929],[27.437877,42.466181],[27.43733,42.468004],[27.43704,42.468962],[27.436902,42.469417],[27.436845,42.469639],[27.436813,42.469804],[27.436746,42.470215],[27.436635,42.470784],[27.436455,42.471698],[27.43634,42.472275],[27.436173,42.473088],[27.436173,42.473233],[27.436197,42.473318],[27.436245,42.473452]]},"properties":{"name":"Тодор Александров"}},{"type":"Feature","geometry":{"type":"LineString","coordinates":[[27.454293,42.490872],[27.454117,42.490984],[27.453994,42.491005]]},"properties":{"name":"Спортна"}},{"type":"Feature","geometry":{"type":"LineString","coordinates":[[27.454898,42.490279],[27.454854,42.490343],[27.454825,42.490384],[27.454795,42.49041],[27.45474,42.490449],[27.454702,42.49048],[27.454664,42.490505],[27.454327,42.490729],[27.454025,42.490943],[27.453994,42.491005],[27.453919,42.491057],[27.453436,42.491385],[27.450842,42.493169],[27.450705,42.493227],[27.450513,42.493343],[27.450416,42.493407],[27.450292,42.493485]]},"properties":{"name":"Спортна"}},{"type":"Feature","geometry":{"type":"LineString","coordinates":[[27.450483,42.493467],[27.450365,42.493547]]},"properties":{"name":"Спортна"}},{"type":"Feature","geometry":{"type":"LineString","coordinates":[[27.471936,42.491303],[27.471876,42.491399],[27.471852,42.491445],[27.471718,42.491699],[27.47163,42.491864],[27.471546,42.492024],[27.471345,42.492433],[27.47132,42.492492],[27.471094,42.492965],[27.470918,42.493175],[27.470721,42.493366],[27.47067,42.493415]]},"properties":{"name":"Цар Петър"}},{"type":"Feature","geometry":{"type":"LineString","coordinates":[[27.47067,42.493415],[27.470613,42.493478],[27.470588,42.493527],[27.470577,42.493549],[27.470436,42.493895],[27.470289,42.494225],[27.470051,42.494764],[27.469786,42.495359],[27.469522,42.495965],[27.469511,42.495991],[27.469477,42.496077],[27.469301,42.496522],[27.469195,42.496791],[27.46899,42.497365],[27.468979,42.497397],[27.468961,42.497447],[27.468939,42.497512],[27.468919,42.497567],[27.468734,42.498083],[27.46857,42.498539],[27.468544,42.498606],[27.468345,42.499179],[27.468264,42.499409],[27.468126,42.499807],[27.467912,42.500398],[27.467898,42.500436],[27.467672,42.50106],[27.467611,42.501226],[27.467604,42.501523],[27.467546,42.501698],[27.46737,42.502201],[27.467342,42.502285],[27.467316,42.502362]]},"properties":{"name":"Христо Ботев"}},{"type":"Feature","geometry":{"type":"LineString","coordinates":[[27.46723,42.502302],[27.467238,42.502269],[27.467611,42.501226]]},"properties":{"name":"Христо Ботев"}},{"type":"Feature","geometry":{"type":"LineString","coordinates":[[27.41033,42.455379],[27.410395,42.455448],[27.411253,42.456352],[27.411918,42.457041],[27.412276,42.457234],[27.412378,42.457278],[27.413093,42.45757],[27.413876,42.457892]]},"properties":{"name":"Тракиец"}},{"type":"Feature","geometry":{"type":"LineString","coordinates":[[27.413631,42.458206],[27.414139,42.458644],[27.414411,42.458878],[27.4146,42.459003],[27.415174,42.459242],[27.415212,42.459258],[27.415348,42.459308],[27.415473,42.459366]]},"properties":{"name":"Тракиец"}},{"type":"Feature","geometry":{"type":"LineString","coordinates":[[27.401213,42.454062],[27.400842,42.453681],[27.399734,42.452477],[27.39916,42.451853],[27.397702,42.4503],[27.397469,42.450043]]},"properties":{"name":"79"}},{"type":"Feature","geometry":{"type":"LineString","coordinates":[[27.452816,42.526985],[27.452887,42.52714],[27.452967,42.527271],[27.453027,42.527364],[27.45309,42.527435],[27.453148,42.527487],[27.453225,42.527539],[27.453421,42.527632],[27.453865,42.52782],[27.454701,42.52816],[27.45476,42.528182],[27.455656,42.528525],[27.456717,42.528912],[27.457241,42.529093],[27.457303,42.529114],[27.457346,42.529129],[27.457551,42.529198],[27.457707,42.529253],[27.457753,42.529269],[27.459062,42.529734],[27.459997,42.530067],[27.46224,42.530827],[27.462269,42.530837],[27.462494,42.530914],[27.462662,42.530957],[27.4628,42.530989],[27.462967,42.531025],[27.463419,42.531122],[27.463877,42.531209],[27.464273,42.531265],[27.4646,42.531301],[27.46503,42.531338],[27.465515,42.531365],[27.465971,42.531369],[27.466082,42.531364],[27.466479,42.531352],[27.466768,42.531344],[27.467562,42.531292],[27.468047,42.531258],[27.468208,42.531245],[27.468318,42.531228],[27.46843,42.531198],[27.468528,42.531165],[27.468669,42.531068]]},"properties":{"name":"Транспортна"}},{"type":"Feature","geometry":{"type":"LineString","coordinates":[[27.452315,42.527506],[27.452549,42.527507],[27.4528,42.527544],[27.453023,42.527601],[27.453262,42.527708],[27.454207,42.528104],[27.454695,42.528286],[27.454767,42.528316],[27.454818,42.528337],[27.455079,42.528445],[27.455425,42.528581],[27.456851,42.52909],[27.457069,42.529164],[27.457283,42.529224],[27.457486,42.529283],[27.457699,42.529348],[27.457725,42.529357],[27.458352,42.529588],[27.459003,42.529848],[27.461059,42.530588],[27.461248,42.530656],[27.461486,42.530741],[27.461735,42.530824],[27.462209,42.530967],[27.462395,42.531023],[27.46261,42.531076],[27.462652,42.531086],[27.463266,42.531239],[27.463693,42.531324],[27.464061,42.531388],[27.464466,42.531446],[27.464934,42.531485],[27.465233,42.531501],[27.46572,42.531508],[27.465914,42.531511],[27.466018,42.531506],[27.466049,42.531505],[27.46612,42.531502],[27.466773,42.531481],[27.467492,42.531433],[27.467666,42.53144],[27.467826,42.531446],[27.467977,42.531462],[27.468249,42.5315],[27.468595,42.531564],[27.468835,42.531598]]},"properties":{"name":"Транспортна"}},{"type":"Feature","geometry":{"type":"LineString","coordinates":[[27.462861,42.530415],[27.462884,42.530332],[27.463043,42.52976],[27.463057,42.529716],[27.463435,42.528443],[27.463517,42.528185],[27.463579,42.528079],[27.46359,42.528059],[27.463685,42.527964],[27.46378,42.527879],[27.464137,42.527581],[27.464768,42.527054],[27.465109,42.52677],[27.465216,42.526676],[27.465247,42.526647],[27.465289,42.526607],[27.465372,42.526524],[27.465507,42.526401],[27.465556,42.526358],[27.465617,42.526302],[27.465712,42.526132],[27.465763,42.525985],[27.465794,42.525862],[27.465828,42.525727],[27.465844,42.525616],[27.465847,42.525569],[27.46586,42.525394],[27.465861,42.525379],[27.465793,42.525122],[27.465714,42.524804],[27.465681,42.524678],[27.465634,42.524551],[27.465405,42.524057],[27.465378,42.523958],[27.465368,42.523851],[27.465369,42.523804],[27.465387,42.523749],[27.465429,42.523698],[27.465521,42.523636],[27.465664,42.523556],[27.465802,42.523483],[27.465925,42.523437],[27.466001,42.52341],[27.466062,42.523401],[27.466152,42.523389],[27.466216,42.523384],[27.466387,42.523382],[27.466565,42.523382],[27.466973,42.523367],[27.467184,42.523353],[27.46725,42.523305],[27.467286,42.523273],[27.467301,42.52326],[27.467349,42.523201]]},"properties":{"name":"Димитър Аврамов"}},{"type":"Feature","geometry":{"type":"LineString","coordinates":[[27.465475,42.521197],[27.465572,42.52108],[27.465667,42.520949],[27.465736,42.520849],[27.465798,42.520745],[27.465989,42.520428],[27.466087,42.520273],[27.46613,42.520232],[27.466299,42.520098]]},"properties":{"name":"Атанасовско езеро"}},{"type":"Feature","geometry":{"type":"LineString","coordinates":[[27.468598,42.519273],[27.468434,42.519288],[27.468395,42.519292],[27.467514,42.519404],[27.467389,42.519427],[27.467302,42.51946],[27.467252,42.519487],[27.467125,42.519556],[27.466675,42.519799],[27.466378,42.520036],[27.466299,42.520098],[27.466233,42.520257],[27.46621,42.520328],[27.466177,42.520384],[27.466079,42.520576],[27.465847,42.520942],[27.465693,42.521157],[27.465669,42.521188],[27.465644,42.52122],[27.465578,42.521286]]},"properties":{"name":"Атанасовско езеро"}},{"type":"Feature","geometry":{"type":"LineString","coordinates":[[27.475422,42.491367],[27.475421,42.491253],[27.475424,42.491218],[27.475431,42.490786],[27.475432,42.490715],[27.475442,42.490584]]},"properties":{"name":"Константин Фотинов"}},{"type":"Feature","geometry":{"type":"LineString","coordinates":[[27.458455,42.500485],[27.458411,42.500328],[27.458413,42.500102],[27.458443,42.499952]]},"properties":{"name":"Княгиня Мария Луиза"}},{"type":"Feature","geometry":{"type":"LineString","coordinates":[[27.45833,42.50063],[27.458317,42.500506],[27.45831,42.500381],[27.458342,42.500211],[27.458443,42.499952],[27.458573,42.499581],[27.459096,42.498088],[27.45932,42.497448],[27.459537,42.496827],[27.459735,42.496263],[27.459955,42.495632],[27.460208,42.494918],[27.460278,42.494727],[27.460451,42.494254],[27.460546,42.493955],[27.460591,42.493826],[27.460698,42.493522],[27.460751,42.49337],[27.460846,42.493101],[27.460887,42.492984],[27.460892,42.492969],[27.460963,42.492767],[27.461272,42.491892],[27.461332,42.491687],[27.461371,42.491553]]},"properties":{"name":"Княгиня Мария Луиза"}},{"type":"Feature","geometry":{"type":"LineString","coordinates":[[27.460167,42.504264],[27.459079,42.504049],[27.458987,42.504034],[27.458717,42.50398],[27.458495,42.503941],[27.4583,42.503882],[27.457801,42.503797],[27.457376,42.503688]]},"properties":{"name":"Марица"}},{"type":"Feature","geometry":{"type":"LineString","coordinates":[[27.460167,42.504264],[27.460048,42.50456],[27.46,42.504695],[27.459986,42.504752],[27.459839,42.505187],[27.459748,42.50544]]},"properties":{"name":"Цар Калоян"}},{"type":"Feature","geometry":{"type":"LineString","coordinates":[[27.460471,42.516917],[27.460525,42.51691]]},"properties":{"name":"Георги Минков"}},{"type":"Feature","geometry":{"type":"LineString","coordinates":[[27.461594,42.516056],[27.461641,42.515956],[27.46166,42.515922],[27.461672,42.515878],[27.46167,42.515837],[27.461644,42.515792],[27.461606,42.515752],[27.461529,42.515692],[27.461397,42.515602]]},"properties":{"name":"Лазар Маджаров"}},{"type":"Feature","geometry":{"type":"LineString","coordinates":[[27.457463,42.512375],[27.457527,42.51244],[27.457588,42.512509],[27.457609,42.512534],[27.457722,42.512667],[27.458086,42.513072],[27.458372,42.51339],[27.458412,42.513436],[27.458496,42.513532],[27.458896,42.513993],[27.45944,42.51462],[27.459521,42.514701],[27.459612,42.514771],[27.459761,42.514849],[27.460582,42.515232],[27.460815,42.515341],[27.461064,42.515452],[27.461242,42.515531],[27.461397,42.515602],[27.46156,42.51565],[27.461665,42.515674],[27.46174,42.51568],[27.461813,42.515677],[27.461884,42.515667],[27.461978,42.515648]]},"properties":{"name":"Лазар Маджаров"}},{"type":"Feature","geometry":{"type":"LineString","coordinates":[[27.462861,42.530415],[27.462723,42.530364],[27.462248,42.53019],[27.461739,42.530009],[27.461609,42.529963],[27.461545,42.529939],[27.461241,42.529833],[27.460194,42.529455],[27.459727,42.529296],[27.459522,42.529232],[27.458223,42.528766],[27.45796,42.52867],[27.457848,42.528616]]},"properties":{"name":"Акве Калиде"}},{"type":"Feature","geometry":{"type":"LineString","coordinates":[[27.444258,42.527613],[27.444693,42.527457],[27.444975,42.527241],[27.445533,42.526808],[27.445828,42.526582],[27.446144,42.526359],[27.44618,42.526336],[27.446398,42.5262],[27.446918,42.525924],[27.447133,42.525683],[27.447272,42.525529],[27.447644,42.525108],[27.447836,42.52491]]},"properties":{"name":"Братя Пренерови"}},{"type":"Feature","geometry":{"type":"LineString","coordinates":[[27.444258,42.527613],[27.44423,42.527558],[27.444186,42.527409],[27.444223,42.527224],[27.444287,42.526793],[27.444172,42.526506],[27.443883,42.526106],[27.443732,42.525876],[27.443545,42.525612],[27.443233,42.525116]]},"properties":{"name":"Иван Хаджипетров"}},{"type":"Feature","geometry":{"type":"LineString","coordinates":[[27.519333,42.563654],[27.519518,42.563616],[27.519663,42.563567],[27.519754,42.563515],[27.519854,42.563446],[27.51995,42.563344],[27.520249,42.563],[27.521054,42.562226],[27.521597,42.561719],[27.522305,42.561069],[27.522356,42.561022]]},"properties":{"name":"Брацигово"}},{"type":"Feature","geometry":{"type":"LineString","coordinates":[[27.519854,42.563446],[27.519835,42.563562],[27.519827,42.563663],[27.519828,42.563751],[27.519835,42.56383],[27.519856,42.563934]]},"properties":{"name":"Брацигово"}},{"type":"Feature","geometry":{"type":"LineString","coordinates":[[27.516514,42.559943],[27.51771,42.560526],[27.518838,42.561105],[27.519937,42.561659],[27.521054,42.562226]]},"properties":{"name":"Октомври"}},{"type":"Feature","geometry":{"type":"LineString","coordinates":[[27.516514,42.559943],[27.517289,42.559141],[27.517911,42.558478]]},"properties":{"name":"Емона"}},{"type":"Feature","geometry":{"type":"LineString","coordinates":[[27.517911,42.558478],[27.518127,42.558564],[27.518894,42.559019],[27.519067,42.559199],[27.519797,42.559574],[27.5202,42.559796],[27.521017,42.560266],[27.52123,42.560392],[27.52211,42.560903],[27.522198,42.560945],[27.522356,42.561022],[27.522414,42.561051],[27.522866,42.561295],[27.523302,42.561556],[27.52338,42.561601],[27.524377,42.562211],[27.524473,42.562265],[27.524637,42.562359],[27.52481,42.562458],[27.525216,42.562675],[27.52559,42.562836],[27.525888,42.562929],[27.526152,42.562995]]},"properties":{"name":"Ангел Димитров"}},{"type":"Feature","geometry":{"type":"LineString","coordinates":[[27.484227,42.444229],[27.484406,42.444428],[27.484526,42.444493],[27.484614,42.444523],[27.484702,42.444552],[27.48571,42.444892],[27.486706,42.445228],[27.48725,42.445411],[27.487334,42.445439],[27.487702,42.445563]]},"properties":{"name":"Христо Арнаудов"}},{"type":"Feature","geometry":{"type":"LineString","coordinates":[[27.487746,42.445489],[27.487702,42.445563]]},"properties":{"name":"Лорна"}},{"type":"Feature","geometry":{"type":"LineString","coordinates":[[27.438834,42.47624],[27.438877,42.476179],[27.439028,42.475881],[27.439251,42.475386],[27.439508,42.474768],[27.439844,42.473958],[27.439957,42.473686],[27.440057,42.473432],[27.440124,42.473287],[27.440235,42.473055],[27.440264,42.472984],[27.440461,42.472554],[27.440513,42.472427],[27.440663,42.472065],[27.44095,42.471384],[27.441069,42.471109],[27.441126,42.470971],[27.441401,42.470393],[27.441934,42.469148],[27.442616,42.46754]]},"properties":{"name":"Ген. Владимир Вазов"}},{"type":"Feature","geometry":{"type":"LineString","coordinates":[[27.402857,42.457451],[27.402543,42.457614],[27.402058,42.45799],[27.401779,42.458252]]},"properties":{"name":"Кооператор"}},{"type":"Feature","geometry":{"type":"LineString","coordinates":[[27.471546,42.492024],[27.471738,42.492067]]},"properties":{"name":"Милин Камък"}},{"type":"Feature","geometry":{"type":"LineString","coordinates":[[27.471345,42.492433],[27.471448,42.492477]]},"properties":{"name":"Конт Андрованти"}},{"type":"Feature","geometry":{"type":"LineString","coordinates":[[27.464837,42.521718],[27.464511,42.521865],[27.464407,42.521911],[27.464308,42.521951],[27.464174,42.522004],[27.463865,42.522127],[27.463192,42.522401],[27.462075,42.522856],[27.46199,42.52289],[27.461884,42.522931],[27.461716,42.522987],[27.461676,42.522996],[27.461601,42.523015],[27.460605,42.523263],[27.46017,42.523386],[27.460085,42.523414],[27.46002,42.523448],[27.459996,42.523464],[27.459881,42.523568],[27.459818,42.523626],[27.459722,42.523713],[27.459381,42.524021],[27.458975,42.524422],[27.458862,42.524562],[27.458829,42.524635],[27.4588,42.524716],[27.458794,42.524777],[27.458786,42.524899],[27.458822,42.525243],[27.458896,42.525678],[27.45892,42.525815],[27.458965,42.526083],[27.458972,42.526153],[27.458978,42.526279],[27.458947,42.526372],[27.458925,42.52644],[27.458898,42.526526],[27.458822,42.526759],[27.458786,42.526885],[27.458731,42.527024],[27.458577,42.527335],[27.458445,42.527556],[27.458209,42.52795],[27.458179,42.528007],[27.458083,42.528163],[27.458013,42.528277],[27.457848,42.528616]]},"properties":{"name":"Петко Задгорски"}},{"type":"Feature","geometry":{"type":"LineString","coordinates":[[27.461884,42.522931],[27.46197,42.523001],[27.461989,42.523019],[27.462064,42.523086],[27.462082,42.523101],[27.46242,42.523376],[27.462464,42.523411],[27.462755,42.523647],[27.462932,42.523793],[27.46358,42.524422],[27.463949,42.524779],[27.464461,42.525357],[27.46451,42.525419],[27.465153,42.526225],[27.465229,42.526329],[27.465282,42.526401],[27.465372,42.526524]]},"properties":{"name":"Георги Калоянчев"}},{"type":"Feature","geometry":{"type":"LineString","coordinates":[[27.468837,42.506515],[27.468947,42.506538]]},"properties":{"name":"Дунав"}},{"type":"Feature","geometry":{"type":"LineString","coordinates":[[27.456554,42.522078],[27.45651,42.522062],[27.456411,42.522024],[27.456319,42.521989],[27.456272,42.521971],[27.45602,42.521874],[27.45579,42.521788],[27.455604,42.521718],[27.45487,42.521443],[27.454734,42.521391],[27.45462,42.521349],[27.454219,42.521198],[27.453844,42.521046],[27.453402,42.520853],[27.453183,42.520745],[27.45308,42.520694],[27.452981,42.520645],[27.451821,42.520074],[27.45171,42.520019],[27.451138,42.519693],[27.450792,42.51946],[27.450595,42.519328],[27.450073,42.518908],[27.449787,42.518654],[27.449619,42.518497],[27.449541,42.518424],[27.449481,42.518363],[27.449322,42.518201],[27.449152,42.518029],[27.449043,42.517896],[27.448937,42.517767],[27.448773,42.517557],[27.44871,42.517472]]},"properties":{"name":"Тракия"}},{"type":"Feature","geometry":{"type":"LineString","coordinates":[[27.447714,42.516864],[27.447848,42.516862],[27.447908,42.516871],[27.447993,42.516899],[27.448015,42.516914],[27.448187,42.517034],[27.448333,42.517163],[27.448544,42.517347],[27.44871,42.517472],[27.448473,42.517114],[27.44838,42.516999],[27.448322,42.516935],[27.448269,42.516875]]},"properties":{"name":"Тракия"}},{"type":"Feature","geometry":{"type":"LineString","coordinates":[[27.48058,42.495096],[27.480703,42.49511]]},"properties":{"name":"Пейо Яворов"}}]}